code,city,hospName,hospID,hospAddress,latitude,longitude,hospTel
01,臺北市,長庚紀念醫院,1101010012,臺北市松山區敦化北路199號,25.055508,121.549618,02-27135211
01,臺北市,馬偕紀念醫院,1101100011,臺北市中山區中山北路二段92號,25.058883,121.522558,02-25433535
01,臺北市,臺北市立萬芳醫院,1301200010,臺北市文山區興隆路三段111號,25.000305,121.55833,02-29307930
01,臺北市,臺北榮民總醫院,0601160016,臺北市北投區石牌路二段201號,25.119181,121.519166,02-28712121
01,臺北市,三軍總醫院,0501110514,臺北市內湖區成功路二段325號,25.0718,121.591982,02-27903311
01,臺北市,新光吳火獅紀念醫院,1101150011,臺北市士林區文昌路95號,25.09624,121.520289,02-28332211
01,臺北市,臺北市立聯合醫院仁愛院區,0101090517,臺北市大安區仁愛路四段10號,25.03754,121.545302,02-27093600
01,臺北市,臺北市立聯合醫院忠孝院區,0101090517,臺北市南港區同德路87號,25.03754,121.545302,02-27093600
01,臺北市,臺北市立聯合醫院陽明院區,0101090517,臺北市士林區雨聲街105號,25.03754,121.545302,02-27093600
01,臺北市,臺北市立聯合醫院中興院區,0101090517,臺北市大同區鄭州路145號,25.03754,121.545302,02-27093600
01,臺北市,臺北市立聯合醫院和平院區,0101090517,臺北市中正區中華路二段33號,25.03754,121.545302,02-27093600
01,臺北市,振興醫院,1101160017,臺北市北投區振興街45號,25.117543,121.5224,02-28264400
01,臺北市,康寧醫院,1101110026,臺北市內湖區成功路五段420巷26號,25.075952,121.608779,02-26343500
01,臺北市,臺大醫院北護分院,0401190010,臺北市萬華區內江街87號,25.041739,121.503546,02-23717101
01,臺北市,三軍總醫院北投分院,0501160014,臺北市北投區新民路60號,25.139804,121.509701,02-28959808
01,臺北市,三軍總醫院松山分院,0501010019,臺北市松山區健康路131號,25.05394,121.557705,02-27648851
01,臺北市,臺北市立關渡醫院,0701160518,臺北市北投區知行路225巷12號,25.120187,121.466358,02-28587000
01,臺北市,臺安醫院,1101010021,臺北市松山區八德路二段424號,25.048052,121.547276,02-27118151
01,臺北市,郵政醫院,0901180023,臺北市中正區福州街14號,25.028749,121.518698,02-23956755
01,臺北市,宏恩醫院,1101020036,臺北市大安區仁愛路4段61號,25.038198,121.546674,02-27713161
01,臺北市,西園醫療財團法人西園醫院,0901190010,臺北市萬華區西園路二段270號,25.027702,121.494428,02-23076968
01,臺北市,同仁院醫療財團法人萬華醫院,1401190039,臺北市萬華區中華路2段606巷6號,25.024049,121.509826,02-23059292
01,臺北市,臺北市立聯合醫院忠孝院區南港門診部,2101120014,臺北市南港區南港路一段360號1樓,25.054528,121.606758,02-27868756
01,臺北市,祐民聯合診所,3501161238,臺北市北投區中央南路一段207號,25.128337,121.501341,02-28951301
01,臺北市,欣安耳鼻喉科診所,3501163312,臺北市北投區石牌路一段152號,25.114276,121.51316,02-28210501
01,臺北市,李伯匯小兒科診所,3501161185,臺北市北投區石牌路一段93號,25.113924,121.511754,02-28221212
01,臺北市,何叔芳小兒科診所,3501162940,臺北市北投區裕民四路4號1樓,25.115445,121.515848,02-28206886
01,臺北市,張參雄診所,3501160991,臺北市北投區光明路166號,25.135,121.502641,02-28926555
01,臺北市,昱德聯合診所,3501161363,臺北市北投區光明路102號1樓,25.133095,121.501217,02-28975050
01,臺北市,紀耳鼻喉科診所,3501160311,臺北市北投區石牌路2段57號,25.116631,121.516056,02-28214485
01,臺北市,洪耳鼻喉科診所,3501160231,臺北市北投區中央南路1段43號,25.132204,121.501448,02-28928769
01,臺北市,杏華診所,3501160937,臺北市北投區知行路218號,25.120377,121.467232,02-28585522
01,臺北市,黃正宏診所,3501163036,臺北市北投區西安街1段359號,25.114287,121.515314,02-28217076
01,臺北市,萬泰診所,3501161372,臺北市北投區中央北路2段52號,25.137172,121.495088,02-28930727
01,臺北市,蘇慧卿診所,3501151161,臺北市士林區大南路274號,25.088747,121.519682,02-28829955
01,臺北市,貝爾聯合診所,3501153236,臺北市士林區中山北路七段82巷9號1樓,25.12134,121.532454,02-28729980
01,臺北市,高醫師家庭醫學科診所,3501151376,臺北市士林區中山北路七段17號2樓,25.119121,121.53049,02-28744545
01,臺北市,華崗文化診所,3501154242,臺北市士林區菁山路26號,25.138075,121.54718,02-26626188
01,臺北市,存德小兒科診所,3501150422,臺北市士林區文林路460號,25.095638,121.524559,02-28342567
01,臺北市,平安診所,3501153567,臺北市士林區社子街36號,25.087437,121.507659,02-28167263
01,臺北市,李世澤小兒科內科診所,3501150208,臺北市士林區社子街67號,25.087519,121.506714,02-28111472
01,臺北市,德泰耳鼻喉科診所,3501151054,臺北市士林區通河街42-1號,25.080459,121.52143,02-28851570
01,臺北市,車參薇診所,3501011493,臺北市松山區八德路三段195號1樓,25.048162,121.55619,02-25770101
01,臺北市,親親家庭診所,3501013059,臺北市松山區南京東路五段347號1樓,25.051546,121.567756,02-25283232
01,臺北市,榮恩耳鼻喉科小兒科聯合診所,3501010012,臺北市松山區南京東路五段258號,25.051151,121.566471,02-27688749
01,臺北市,樂康診所,3501113410,臺北市士林區中山北路七段17號2樓,25.119121,121.53049,02-25788360
01,臺北市,仁弘耳鼻喉科診所,3501113330,臺北市內湖區內湖路一段737巷50弄37號,25.080693,121.578401,02- 26596360
01,臺北市,林永正診所,3501110777,臺北市內湖區康樂街130號,25.071636,121.619156,02-26315567
01,臺北市,大湖診所,3501113714,臺北市內湖區成功路4段366號,25.084859,121.600356,02-27906002
01,臺北市,康樂診所,3501113410,臺北市內湖區康樂街82號,25.119121,121.53049,02-25788360
01,臺北市,新明診所,3501114042,臺北市內湖區新明路386號,25.054814,121.580235,02-87921282
01,臺北市,國泰醫療財團法人內湖國泰診所,4001110018,臺北市內湖區瑞光路506號,25.079388,121.567826,02-87972121
01,臺北市,日新診所,3501112851,臺北市內湖區成功路5段446號1樓,25.074805,121.607118,02- 26342743
01,臺北市,焉醫師診所,3501113134,臺北市內湖區內湖路2段21號1樓,25.078886,121.579497,02-27932008
01,臺北市,建成診所,3501092890,臺北市大同區長安西路82號,25.050303,121.519183,02-25500712
01,臺北市,羅源彰診所,3501093299,臺北市大同區長安西路137號,25.051407,121.515074,02-25552500
01,臺北市,惟廉診所,3501108213,臺北市中山區北安路607號,25.082387,121.548753,02-25323036
01,臺北市,大直診所,3501103272,臺北市中山區北安路595巷2弄2號,25.082041,121.548329,02-25332339
01,臺北市,北安聯合診所,3501101849,臺北市中山區北安路569-3號1樓,25.080918,121.548304,02- 25337777
01,臺北市,中崙聯合診所,3501100182,臺北市中山區八德路2段303號,25.047343,121.542534,02-27711501
01,臺北市,怡和診所,3501183547,臺北市中正區汀州路二段212號,25.022361,121.523719,02-23625100
01,臺北市,朱小兒科診所,3501181267,臺北市中正區汀州路二段220號1樓,25.022117,121.524002,02-23651810
01,臺北市,永康診所,3501194657,臺北市萬華區桂林路４７號,25.038052,121.504274,02-23123455
01,臺北市,瑞生診所,3501195690,臺北市萬華區西園路二段250號,25.028026,121.494795,02-23012788
01,臺北市,盧漢隆耳鼻喉科診所,3501192144,臺北市萬華區環河南路二段197號,25.032268,121.491752,02-23361363
01,臺北市,青年診所,3501194451,臺北市萬華區中華路2段424號,25.027526,121.506144,02- 23032450
01,臺北市,漢宗小兒科診所,3501192251,臺北市萬華區中華路2段434號,25.027153,121.506505,02-23039022
01,臺北市,快樂兒童診所,3501194424,臺北市萬華區寶興街121號,25.025229,121.494803,02- 23328610
01,臺北市,許孟權小兒科診所,3501192608,臺北市萬華區西藏路107-2號,25.029553,121.503456,02-23393331
01,臺北市,安興診所,3501195332,臺北市萬華區桂林路101號,25.03853,121.501174,02-23111636
01,臺北市,健華診所,3501029922,臺北市大安區和平東路二段255號1樓,25.025002,121.54373,02-27020399
01,臺北市,仁安診所,3501022496,臺北市大安區和平東路二段175巷34號,25.026869,121.541757,02-27065995
01,臺北市,劉耳鼻喉科診所,3501020161,臺北市大安區復興南路2段151巷27號,25.028469,121.544663,02-27546060
01,臺北市,萬通耳鼻喉科診所,3501022825,臺北市大安區延吉街64-2號,25.043365,121.553878,02-27518909
01,臺北市,田嘉程診所,3501028649,臺北市大安區延吉街239號,25.036307,121.555706,02-27018262
01,臺北市,安民家庭醫學科診所,350102E445,臺北市大安區大安路1段65號2樓之1,25.042535,121.546277,02-27218556
01,臺北市,德佑診所,3501174235,臺北市信義區福德街215號,25.038402,121.584719,02-27596037
01,臺北市,新穎全診所,3501173685,臺北市信義區和平東路三段265號,25.022378,121.554908,02-27325809
01,臺北市,張育驍診所,3501171225,臺北市信義區吳興街467巷4、6號,25.023899,121.569346,02-27291011
01,臺北市,春田耳鼻喉專科,3501171092,臺北市信義區光復南路555號,25.031248,121.557605,02-27297135
01,臺北市,登瑞安診所,3501173336,臺北市信義區林口街232號,25.042498,121.58135,02-27265228
01,臺北市,俊安診所,3501173783,臺北市信義區永吉路30巷148弄6號,25.042667,121.568445,02-27605757
01,臺北市,理恩診所,3501174593,臺北市信義區忠孝東路5段410-2號,25.040416,121.574895,02- 87899728
01,臺北市,莊敬診所,3501174815,臺北市信義區莊敬路280號,25.028801,121.562725,02-27589258
01,臺北市,陳世卿診所,3501173103,臺北市信義區莊敬路435號1樓,25.027184,121.56695,02- 87803565
01,臺北市,信義邱婦產科診所,3501170237,臺北市信義區虎林街198號,25.03844,121.576883,02-27278275
01,臺北市,欣民診所,3501201139,臺北市文山區保儀路37號,24.987908,121.568697,02-29375115
01,臺北市,林正豐診所,3501202823,臺北市文山區保儀路25號,24.988126,121.56871,02-86615855
01,臺北市,洪佑承小兒專科診所,3501201004,臺北市文山區興隆路四段64之2號,24.985025,121.561366,02- 29364708
01,臺北市,葉洪小兒科診所,3501200963,臺北市文山區興隆路三段202號,24.997752,121.559057,02-22300055
01,臺北市,定安診所,3501202798,臺北市文山區景興路165號,24.993463,121.544663,02-29323755
01,臺北市,震杰小兒科診所,3501202592,臺北市文山區景興路129號,24.994434,121.544807,02- 89351869
01,臺北市,李文珍小兒科診所,3501121814,臺北市南港區研究院路二段74號,25.04557,121.615108,02-25611871
01,臺北市,書田泌尿科眼科診所,4001020028,臺北市大安區建國南路2段276號,25.025172,121.537266,02-23690211
01,臺北市,泰安醫院,1501101141,臺北市中山區民權東路二段92巷2-1號,25.06146,121.53164,02-25251111
01,臺北市,文遠診所,3501161318,臺北市北投區石牌路2段346號1樓,25.122954,121.524899,02-28739991
01,臺北市,葫洲診所,3501114202,臺北市內湖區康寧路三段35、37號,25.066286,121.611232,02-26342253
01,臺北市,杏暉診所,3501153496,臺北市士林區社子街15號 ,25.087689,121.508304,02-28117094
01,臺北市,弘宇診所,3501015133,臺北市松山區民權東路3段160巷7號,25.061043,121.548001,02-27128875
31,新北市,八里區衛生所 ,2331230018,新北市八里區舊城里舊城路16號 ,25.147095,121.40006,02-26101902
31,新北市,黃秋陽診所 ,3531100047,新北市淡水區中山路7號 ,25.169675,121.444154,02-26229596
31,新北市,陳正熙診所,3531105186,新北市淡水區中山路30號,25.169781,121.44438,02-26259595
31,新北市,劉政耳鼻喉科診所,3531100314,新北市淡水區中山路53號,25.1704,121.443282,02-26253428
31,新北市,宜禾診所,3531105266,新北市淡水區新市一路三段105號,25.183138,121.446565,02-26259798
31,新北市,公祥診所,1531100027,新北市淡水區中山路38號,25.169948,121.444326,02-26226551
31,新北市,財團法人基督長老教會馬偕紀念醫院淡水分院,1131100010,新北市淡水區民生路45號     新北市淡水區民權路47號,25.139534,121.460499,02-28094661
31,新北市,淡水區衛生所,2331100015,新北市淡水區中山路158號,25.172778,121.440844,02-26215620
31,新北市,國立臺灣大學醫學院附設醫院金山分院,0431270012,新北市金山區五湖里玉爐路7號,25.219469,121.628344,02-24989898
31,新北市,金山區衛生所,2331270012,新北市金山區大同里民生路59號,25.220438,121.641135,02-24982778
31,新北市,樂文診所,3531261134,新北市貢寮區貢寮街3號1樓 ,25.018936,121.907639,02-24942358
31,新北市,貢寮區衛生所,2331260016,新北市貢寮區貢寮里仁愛路128號 ,25.054955,121.927573,02-24901431
31,新北市,享悅診所,3531281172,新北市萬里區萬里里瑪鋉路34號1樓,25.177399,121.689323,02-24928190
31,新北市,萬里區衛生所 ,2331280018,新北市萬里區萬里里瑪鋉路157號 ,25.178332,121.689713,02-24921117
31,新北市,石碇區衛生所 ,2331190019,新北市石碇區潭邊里碇坪路1段82號 ,24.991349,121.65761,02-26631325
31,新北市,坪林區衛生所 ,2331200010,新北市坪林區坪林街104號 ,24.935877,121.711626,02-26656272
31,新北市,烏來安泰診所 ,3531290028,新北市烏來區忠治里堰堤7號,24.869962,121.54734,02-26617390
31,新北市,烏來區衛生所 ,2331290014,新北市烏來區新烏路五段109號 ,24.871966,121.547977,02-26617200
31,新北市,幼恩診所,3531180198,新北市深坑區北深路三段173號,25.003495,121.601715,02-26625951
31,新北市,紹善診所,3531181337,新北市深坑區北深路三段99號,25.001667,121.605794,02-26621660
31,新北市,深坑區衛生所,2331180013,新北市深坑區深坑街165號,25.000938,121.612643,02-26621567
31,新北市,仲全診所,3531170147,新北市林口區中正路200號,25.077658,121.391113,02-86012801
31,新北市,林口區衛生所,2331170017,新北市林口區忠孝二路55號1樓,25.069842,121.364058,02-26068760
31,新北市,瑞安診所 ,3531241043,新北市平溪區平溪街9號1樓 ,25.024989,121.738684,02-24951776
31,新北市,平溪區衛生所 ,2331240014,新北市平溪區公園街17號 ,25.024681,121.737185,02-24951015
31,新北市,三芝區衛生所 ,2331210016,新北市三芝區中山路1段12號 ,25.258407,121.500753,02-26362007
31,新北市,石門區衛生所 ,2331220012,新北市石門區中山路28之1號 ,25.290164,121.565974,02-26381007
31,新北市,雙溪區衛生所 ,2331250010,新北市雙溪區新基里新基南街18號 ,25.037917,121.86645,02-24931210
31,新北市,泰安診所 ,3531161648,新北市泰山區泰林路二段182號 ,25.060825,121.433761,02-22961869
31,新北市,溫法烈耳鼻喉科診所,3531160203,新北市泰山區泰林路二段175號,25.060758,121.433546,02-29098253
31,新北市,陳獻宗診所,3531160285,新北市泰山區明志路二段12號,25.053626,121.429903,02-22974050
31,新北市,蔡興龍小兒科診所,3531160258,新北市泰山區明志路二段422號,25.04388,121.424919,02-22093645
31,新北市,佳欣診所,3531161559,新北市泰山區明志路二段77號,25.052333,121.428893,02-29048622
31,新北市,王嘉興診所,3531161595,新北市泰山區明志路1段271號,25.060077,121.432129,02-85314123
31,新北市,天主教輔仁大學附設醫院 ,1331160010,新北市泰山區貴子路69號 ,25.039676,121.430798,02-29052526
31,新北市,泰山區衛生所 ,2331160011,新北市泰山區全興路212號3樓 ,25.056131,121.433653,02-29099921
31,新北市,德祐小兒科診所,3531112887,新北市汐止區福德一路117之1號1樓,25.067682,121.637514,02-26945180
31,新北市,楊內科小兒科診所,3531110025,新北市汐止區汐萬路1段25號,25.067729,121.65579,02-26420233
31,新北市,黃玟珍診所,3531110605,新北市汐止區樟樹一路122號,25.064264,121.642162,02-26476506
31,新北市,福德診所,3531112618,新北市汐止區福德二路171號,25.065073,121.630743,02-26959877
31,新北市,育和診所,3531113366,新北市汐止區中正路31號,25.070246,121.662328,02-26486803
31,新北市,國泰醫療財團法人汐止國泰綜合醫院,1131110516,新北市汐止區建成路59巷2號,25.072872,121.661084,02-26482121
31,新北市,汐止區衛生所,2331110011,新北市汐止區新台五路一段266號,25.063513,121.658534,02-26412030
31,新北市,家康陳診所,3531120174,新北市瑞芳區明燈路三段36號,25.107876,121.80771,02-24971563
31,新北市,詠安診所,3531120183,新北市瑞芳區明燈路三段79號1樓,25.108235,121.805246,02-24960683
31,新北市,簡診所,3531120076,新北市瑞芳區明燈路三段39之3號,25.1077,121.806679,02-24972350
31,新北市,康橋診所,3531121528,新北市瑞芳區明燈路三段39-7號,25.107678,121.806528,02-24974128
31,新北市,福康診所,3531121546,新北市瑞芳區中正路82號1樓,25.107717,121.805533,02-24960189
31,新北市,瑞芳礦工醫院,1531120038,新北市瑞芳區一坑路71之2號,25.108602,121.80217,02-24974101
31,新北市,瑞芳區衛生所,2331120017,新北市瑞芳區明燈路3段1號,25.107371,121.809044,02-24972132
31,新北市,祐聖小兒科診所,3531151517,新北市五股區五福路34號1樓,25.089189,121.434045,02-82921336
31,新北市,五股水碓診所,3531151731,新北市五股區自強路36號,25.074088,121.43384,02-22921516
31,新北市,鴻佑診所,3531150216,新北市五股區成泰路二段61號1樓,25.083604,121.43789,02-82950772
31,新北市,成洲診所,3531150163,新北市五股區凌雲路一段73號,25.101108,121.450997,02-22919463
31,新北市,林筱琪診所,3531151811,新北市五股區新城六路180號1樓,25.091875,121.446897,02-22953202
31,新北市,德音診所,3531151651,新北市五股區自強路146號,25.070611,121.432083,02-22931155
31,新北市,翔展診所,3531151820,新北市五股區成泰路二段162號1樓,25.084146,121.438416,02-22951919
31,新北市,五股區衛生所,2331150015,新北市五股區新城三路11號,25.094237,121.447639,02-22911734
31,新北市,如原診所,3531091838,新北市三峽區文化路264之1號1樓,24.935838,121.366781,02-26713119
31,新北市,星龍耳鼻喉科診所,3531092102,新北市三峽區國際一街5號,24.94309,121.374561,02-26711676
31,新北市,永澄診所,3531090206,新北市三峽區光明路20號1樓,24.930883,121.373344,02-26732674
31,新北市,錦霖診所,3531090386,新北市三峽區文化路86號,24.936264,121.371851,02-86743684
31,新北市,新禾診所,3531092111,新北市三峽區學成路235號1樓,24.942616,121.375033,02-86716866
31,新北市,北大小兒科診所,3531092068,新北市三峽區大學路87號1樓,24.941707,121.375891,02-26718080
31,新北市,清福醫院,1531091130,新北市三峽區介壽路一段286號2樓,24.929034,121.380184,02-26739288
31,新北市,行天宮醫療志業醫療財團法人恩主公醫院,1131090019,新北市三峽區復興路399號,24.938385,121.363007,02-26723456
31,新北市,永聖醫療社團法人文化醫院,0931090014,新北市三峽區介壽路1段199號,24.930745,121.378215,02-26732885
31,新北市,三峽區衛生所,2331090014,新北市三峽區光明路71號3樓,24.928297,121.376129,02-26711592
31,新北市,怡兒診所,3531081538,新北市鶯歌區建國路173號1-3樓,24.953389,121.349971,02-26707200
31,新北市,金鶯診所,3531081663,新北市鶯歌區南鶯里國慶街167號1樓,24.953075,121.35123,02-26702559
31,新北市,鶯歌區衛生所,2331080018,新北市鶯歌區文化路389號,24.95047,121.352529,02-26702304
31,新北市,念生耳鼻喉科診所,3531070722,新北市樹林區文化街45號1樓,24.988346,121.418076,02-26751099
31,新北市,莊豐如診所,3531072422,新北市樹林區復興路18號,24.994675,121.422588,02-26830108
31,新北市,大樹診所,3531072379,新北市樹林區鎮前街19號,24.992585,121.425904,02-26818919
31,新北市,樹林泰新診所,3531070820,新北市樹林區中山路一段30號,24.992526,121.423913,02-26874410
31,新北市,仁愛醫院,1531071030,新北市樹林區文化街9號,24.987188,121.420039,02-26834567
31,新北市,樹林區衛生所,2331070012,新北市樹林區中山路2段80之1號,24.983889,121.414835,02-26812134
31,新北市,建安診所,3531143631,新北市蘆洲區長安街265號1樓,25.083767,121.458646,02-22826588
31,新北市,健侒診所,3531143800,新北市蘆洲區長安街265號1樓,25.083767,121.458646,02-22826588
31,新北市,健安診所,3531143622,新北市蘆洲區長安街265號1樓,25.083767,121.458646,02-22826588
31,新北市,詠贊聯合診所,3531142198,新北市蘆洲區中正路85號,25.083708,121.469949,02-82831555
31,新北市,鴻文耳鼻喉科,3531142090,新北市蘆洲區集賢路224巷14號,25.087038,121.481942,02-82863223
31,新北市,丁良文內科診所,3531143613,新北市蘆洲區長安街30號,25.079357,121.463894,02-82822809
31,新北市,本一診所,3531142947,新北市蘆洲區長榮路43-1號,25.082716,121.462967,02-22836622
31,新北市,永全診所,3531140372,新北市蘆洲區中山一路241號,25.080469,121.473373,02-22890332
31,新北市,蘆洲現代耳鼻喉科診所,3531143686,新北市蘆洲區集賢路306號,25.085131,121.481358,02-82811112
31,新北市,李明哲診所,3531142410,新北市蘆洲區信義路246號1樓,25.086238,121.478573,02-22885110
31,新北市,蘆洲集賢耳鼻喉科診所,3531143695,新北市蘆洲區集賢路306號,25.085131,121.481358,02-82811112
31,新北市,民族診所,3531142509,新北市蘆洲區民族路53號,25.085532,121.478593,02-82857866
31,新北市,華安診所,3531143435,新北市蘆洲區長安街205號1樓,25.082128,121.46001,02-28481500
31,新北市,德興診所,3531143462,新北市蘆洲區復興路67號,25.087308,121.476005,02-22855598
31,新北市,愛麗生婦產科診所,3531143382,新北市蘆洲區長榮路323號,25.086807,121.459768,02-22890666
31,新北市,蘆洲成功耳鼻喉科診所,3531140943,新北市蘆洲區長安街253號,25.083385,121.45889,02-82833588
31,新北市,六福診所,3531143533,新北市蘆洲區中正路45號1樓,25.082488,121.470939,02-82852066
31,新北市,健群診所,3531143060,新北市蘆洲區中華街71號1樓,25.080629,121.462256,02-28487669
31,新北市,建群診所,3531143097,新北市蘆洲區中華街71號1樓,25.080629,121.462256,02-28487669
31,新北市,健群耳鼻喉科診所,3531143177,新北市蘆洲區中華街71號1樓,25.080629,121.462256,02-28487669
31,新北市,俊亨婦產科診所,3531143364,新北市蘆洲區中山二路135號,25.081534,121.471954,02-22838078
31,新北市,許修平診所,3531142894,新北市蘆洲區長安街290號,25.087994,121.457409,02-22881202
31,新北市,蘆洲區衛生所,2331140019,新北市蘆洲區中央路58號,25.083963,121.473284,02-22812011
31,新北市,永愛診所,3531034244,新北市永和區永平路282之1號1樓,25.011949,121.507828,02-29258680
31,新北市,蔡正平耳鼻喉科,3531031163,新北市永和區得和路245號,25.000143,121.520493,02-29293045
31,新北市,長欣診所,3531031903,新北市永和區文化路78號,25.015228,121.514084,02-22311663
31,新北市,郭烽裕診所,3531031270,新北市永和區永貞路339號,25.007071,121.509482,02-29279011
31,新北市,唐小兒科診所,3531030077,新北市永和區中正路436號,25.002624,121.517612,02-29296170
31,新北市,德美診所,3531033747,新北市永和區中正路455之1號,25.005607,121.516994,02-29273001
31,新北市,文林診所,3531033532,新北市永和區仁愛路15號1樓,25.013421,121.514805,02-22323300
31,新北市,愛兒小兒科診所,3531030559,新北市永和區福和路199號,25.007535,121.519509,02-29233317
31,新北市,洪碩壎小兒科診所,3531034020,新北市永和區中正路157號,24.998474,121.516397,02-29461171
31,新北市,洪源裕小兒科診所,3531031289,新北市永和區竹林路181號,25.009689,121.520647,02-89252926
31,新北市,天主教耕莘醫療財團法人永和耕莘醫院,1231030015,新北市永和區中興街80號、52巷1弄28號,25.011279,121.516934,02-29286060
31,新北市,永和復康醫院,1531031278,新北市永和區中和路575號、577號、579號,25.003844,121.511944,02-29240925
31,新北市,永和區衛生所,2331030018,新北市永和區秀朗路1段137號,25.004971,121.516232,02-32332780
31,新北市,捷安診所,3531045532,新北市中和區中和路456號,25.00373,121.512179,02-22331117
31,新北市,通安診所,3531045050,新北市中和區南山路45號1樓,24.998654,121.502135,02-22421190
31,新北市,尚安診所,3531045069,新北市中和區莒光路154號1樓,25.00061,121.472511,02-29571200
31,新北市,力禾耳鼻喉科診所,3531046075,新北市中和區連城路15號1樓,25.002127,121.499013,02-82457641
31,新北市,唯安診所,3531044535,新北市中和區景新街455號,24.988437,121.513292,02-29479165
31,新北市,張維發診所,3531041301,新北市中和區華新街26號,24.984805,121.50757,02-29481089
31,新北市,衛生福利部雙和醫院(委託臺北醫學大學興建經營),1331040513,新北市中和區中正路291號,24.993746,121.494082,02-22490088
31,新北市,中和區衛生所,2331040014,新北市中和區南山路4巷3號,24.998691,121.501638,02-22491936
31,新北市,土城診所,3531130483,新北市土城區中央路二段177巷22號,24.975984,121.442843,02-22603307
31,新北市,洪正祝小兒科診所,3531132709,新北市土城區延和路112號1樓,24.989816,121.467237,02-82611080
31,新北市,裕安診所,3531133171,新北市土城區裕民路131號,24.986507,121.451445,02-22613300
31,新北市,秀偉小兒科診所,3531130125,新北市土城區金城路2段380號,24.985468,121.463265,02-22620555
31,新北市,祐生耳鼻喉科診所,3531132478,新北市土城區中央路二段223-9號1樓,24.973188,121.440678,02-82614588
31,新北市,宏陽耳鼻喉科診所,3531132496,新北市土城區學府路一段105號,24.987642,121.455895,02-82629168
31,新北市,嘉恩耳鼻喉科診所,3531130929,新北市土城區裕民路76號,24.987273,121.449789,02-22630609
31,新北市,康城診所,3531133813,新北市土城區中正路152號,24.975597,121.446164,02-82732660
31,新北市,家峰耳鼻喉科診所,3531130830,新北市土城區中正路15號,24.975317,121.443175,02-22635968
31,新北市,梁診所,3531132281,新北市土城區中央路四段75號,24.958158,121.417218,02-22674991
31,新北市,廣川醫院,1531130052,新北市土城區裕民路274號、276號、278號,24.982341,121.455017,02-22617000
31,新北市,土城醫院,1131130018,新北市土城區金城路二段6號,24.976437,121.44873,02-22630588
31,新北市,土城區衛生所,2331130013,新北市土城區和平路26號,24.972857,121.443189,02-22603181
31,新北市,翰生診所,3531012695,新北市板橋區漢生西路73號,25.018791,121.462861,02-22545665
31,新北市,德一診所,3531017752,新北市板橋區中山路2段236號,25.018048,121.478438,02-29535396#13
31,新北市,陳嘉偉診所,3531010744,新北市板橋區懷仁街92號1樓,25.018044,121.477473,02-29555457
31,新北市,柯明奇耳鼻喉科診所,3531011018,新北市板橋區中山路2段256號,25.018308,121.478852,02-29622255
31,新北市,佳誠診所,3531017814,新北市板橋區中山路2段140號1樓,25.016871,121.47646,02-89521258
31,新北市,徐小兒科診所,3531015481,新北市板橋區陽明街46之2號1樓,25.022047,121.465684,02-22500890
31,新北市,板橋李耳鼻喉科診所,3531010217,新北市板橋區縣民大道1段185號(1樓),25.007268,121.458034,02-29606999
31,新北市,林子敬診所,3531015383,新北市板橋區中山路二段198號,25.017555,121.477698,02-29591986
31,新北市,王林小兒科,3531016568,新北市板橋區忠孝路20號,25.001739,121.459975,02-29584966
31,新北市,佳恩耳鼻喉科診所,3531018660,新北市板橋區陽明街40號1樓,25.021954,121.465913,02-22509566
31,新北市,嘉恩診所,3531018204,新北市板橋區陽明街40號1樓,25.021954,121.465913,02-22509566
31,新北市,嘉禾診所,3531018740,新北市板橋區中山路2段194號(1樓),25.017513,121.477622,02-29522688
31,新北市,安慶診所,3531017369,新北市板橋區互助街77巷1號(1樓),25.026088,121.460238,02-22593168
31,新北市,鴻仁診所,3531013165,新北市板橋區雙十路二段59號,25.026516,121.476342,02-22537500
31,新北市,樂福診所,3531017083,新北市板橋區三民路二段89號,25.0165,121.479411,02-29560606
31,新北市,聯德診所,3531016719,新北市板橋區溪北路13號,24.990478,121.426838,02-86871766
31,新北市,莒光診所,3531018062,新北市板橋區莒光路30號,25.024514,121.470153,02-22527700
31,新北市,陳榮泰小兒科診所,3531017010,新北市板橋區金門街311號,24.986225,121.429823,02-26820560
31,新北市,興安診所,3531013905,新北市板橋區龍興街51號,25.00093,121.443094,02-29652683
31,新北市,龍興診所,3531013567,新北市板橋區龍興街45號,25.000722,121.443029,02-29650765
31,新北市,陳敏玲內科診所,3531013003,新北市板橋區溪崑二街97號,24.989155,121.426989,02-26816661
31,新北市,麗晹診所,3531013432,新北市板橋區懷德街78巷2號,25.031665,121.478087,02-22501841
31,新北市,重慶耳鼻喉科診所,3531015810,新北市板橋區國慶路204號,24.996959,121.463588,02-89517755
31,新北市,重心診所,3531018624,新北市板橋區國慶路189號,24.996479,121.462928,02-29597755
31,新北市,林儀文診所,3531017912,新北市板橋區民權路218號,25.014236,121.458832,02-29696995
31,新北市,晴天家醫科診所,3531019005,新北市板橋區中山路二段225號,25.017384,121.4769,02-29646662
31,新北市,春和診所,3531010691,新北市板橋區長江路一段138號,25.030041,121.460595,02-29646662
31,新北市,新埔立安診所,3531018455,新北市板橋區陽明街12號,25.021773,121.466594,02-22558699
31,新北市,仁佑耳鼻喉科診所,3531017207,新北市板橋區四川路二段39號,24.995328,121.454167,02-89663577
31,新北市,劉宜光診所,3531018946,新北市板橋區龍興街33號,25.000333,121.442894,02-89681111
31,新北市,周耳鼻喉科診所,3531010137,新北市板橋區文化路二段5號,25.024262,121.468466,02-22525158
31,新北市,蕭中正醫院,1531010108,新北市板橋區南雅南路一段15之1號,25.00693,121.456447,02-29685661#516
31,新北市,中英醫療社團法人中英醫院,0931010016,新北市板橋區文化路1段196號,25.019884,121.466262,02-22563584#112
31,新北市,新北市立聯合醫院 (板橋院區),7531010533,新北市板橋區英士路198號,25.023683,121.457708,02-22575151
31,新北市,板橋中興醫院,1531010279,新北市板橋區忠孝路15號,25.001988,121.460292,02-29590707
31,新北市,醫療財團法人徐元智先生醫藥基金會亞東紀念醫院,1131010011,新北市板橋區南雅南路2段21號,24.997312,121.452312,02-89667000
31,新北市,板橋區衛生所,2331010016,新北市板橋區英士路192號,25.023316,121.458327,02-22586606
31,新北市,安立診所,3531053141,新北市新店區北宜路2段28號,24.951429,121.548222,02-22177669
31,新北市,呈恩診所,3531051512,新北市新店區安康路二段146號1樓,24.961545,121.512373,02-86662207
31,新北市,富森診所,3531051325,新北市新店區三民路97號,24.971844,121.535376,02-86658711
31,新北市,碧潭診所,3531053730,新北市新店區北新路一段21號1樓,24.959061,121.537805,02-29116698
31,新北市,安倍診所,3531054200,新北市新店區中正路132號,24.971418,121.542058,02-89119181
31,新北市,同仁醫院,1531050077,新北市新店區民權路89號,24.982766,121.537745,02-29170201
31,新北市,新北仁康醫院,1531051127,新北市新店區安康路二段323號,24.955542,121.499651,02-22152345
31,新北市,豐榮醫院,1531051163,新北市新店區安德街26巷3號(B棟),24.963242,121.511571,02-22122111
31,新北市,天主教耕莘醫療財團法人耕莘醫院,1231050017,新北市新店區中正路362號,24.976084,121.535619,02-22193391
31,新北市,佛教慈濟醫療財團法人台北慈濟醫院,1131050515,新北市新店區建國路289號,24.98578,121.535808,02-66289779
31,新北市,新店區衛生所,2331050010,新北市新店區北新路1段88巷11號,24.967275,121.543015,02-29113984
31,新北市,華貞診所,3531024211,新北市三重區三和路三段80號,25.071697,121.494617,02-29716626
31,新北市,惠心婦幼診所(重陽院區),3531024935,新北市三重區重陽路1段138-144號  1-4樓,25.060732,121.486583,02-29810568
31,新北市,惠心婦幼診所(成功院區),3531026304,新北市三重區成功路173號,25.052755,121.486048,02-29781998
31,新北市,京辰耳鼻喉科診所,3531025825,新北市三重區五華街72號1樓,25.081921,121.493291,02-29876226
31,新北市,健福診所,3531025610,新北市三重區溪尾街171號,25.080276,121.488916,02-89851660
31,新北市,集美診所,3531024668,新北市三重區集美街174之1號,25.05325,121.490427,02-29775177
31,新北市,重新診所,3531025389,新北市三重區重新路二段150號,25.061495,121.495617,02-29765868
31,新北市,龍華診所,3531025254,新北市三重區五華街100號,25.082488,121.492635,02-29883500
31,新北市,三重祥安診所,3531024882,新北市三重區三和路四段374號,25.078745,121.48266,02-22808558
31,新北市,益安診所,3531025861,新北市三重區正義北路152號,25.06624,121.496547,02-89828775
31,新北市,正興診所,3531026706,新北市三重區正義北路113號,25.065788,121.496981,02-29861235
31,新北市,保順聯合診所,3531024122,新北市三重區正義北路5號,25.062591,121.497894,02-29855630
31,新北市,采新婦幼診所,3531025423,新北市三重區正義北路86號,25.064558,121.497078,02-89853888
31,新北市,新北市立聯合醫院 (三重院區),0131020016,新北市三重區新北大道一段3號,25.060869,121.49084,02-29829111
31,新北市,三重中興醫院,1531021165,新北市三重區中興北街21號,25.046534,121.469661,02-29959680
31,新北市,祐民醫院,1531021174,新北市三重區重新路二段2號,25.062795,121.499876,02-29783456
31,新北市,三重區衛生所,2331020012,新北市三重區新北大道1段1號,25.061191,121.491392,02-29825233
31,新北市,弘久診所,3531065730,新北市新莊區新泰路57號,25.03392,121.449431,02-22040904
31,新北市,宏久診所,3531065936,新北市新莊區新泰路57號,25.03392,121.449431,02-22040904
31,新北市,祐幼小兒科診所,3531061643,新北市新莊區民安西路21號1樓,25.021359,121.427048,02-22030993
31,新北市,聯安診所,3531061278,新北市新莊區中正路330號,25.034839,121.445892,02-29986191
31,新北市,中心診所,3531063601,新北市新莊區中港路321號,25.044926,121.452436,02-22765992
31,新北市,聯福診所,3531061867,新北市新莊區民安路232號,25.022324,121.42615,02-22014370
31,新北市,晉安診所,3531065294,新北市新莊區中正路700之24號,25.026897,121.417777,02-29061510
31,新北市,寶祥診所,3531066273,新北市新莊區中平路53號,25.044412,121.444685,02-29960303
31,新北市,鉅儒診所,3531067038,新北市新莊區西盛街180號,25.018767,121.428079,02-22057193
31,新北市,自立診所,3531065794,新北市新莊區自立街231號1樓,25.045545,121.458057,02-89925770
31,新北市,林復森耳鼻喉科診所,3531062195,新北市新莊區民安路220號,25.022592,121.42598,02-22011378
31,新北市,安庚內科診所,3531065141,新北市新莊區中安街1號1樓,25.045262,121.452793,02-22779000
31,新北市,建嘉小兒科診所,3531066282,新北市新莊區中誠街40號1樓,25.04812,121.451346,02-22925105
31,新北市,馨平耳鼻喉科診所,3531062168,新北市新莊區中平路82巷12號,25.044781,121.445417,02-89921881
31,新北市,新和耳鼻喉科診所,3531066942,新北市新莊區幸福路69號1樓,25.049347,121.457171,02-29938636
31,新北市,隆安診所,3531064331,新北市新莊區龍安路465號,25.018564,121.424933,02-22056955
31,新北市,家貞診所,3531066415,新北市新莊區福壽街67號,25.049427,121.458185,02-29942300
31,新北市,家慈診所,3531066148,新北市新莊區福壽街67號,25.049427,121.458185,02-29942300
31,新北市,家福診所,3531066139,新北市新莊區福壽街67號,25.049427,121.458185,02-29942300
31,新北市,思賢診所,3531066264,新北市新莊區自立街200號1樓,25.045396,121.45672,02-29923806
31,新北市,幸福小兒科診所,3531063647,新北市新莊區幸福路729號,25.049073,121.449206,02-29919474
31,新北市,輔大診所,3531064528,新北市新莊區中正路510號(輔仁大學醫學院綜合大樓1F),25.032937,121.434105,02-29052526
31,新北市,新泰綜合醫院,1531060180,新北市新莊區新泰路157號,25.036936,121.447753,02-29962121
31,新北市,衛生福利部樂生療養院,0131060010,新北市新莊區中正路794號,25.021622,121.409851,02-82006600
31,新北市,衛生福利部臺北醫院,0131060029,新北市新莊區思源路127號,25.04324,121.459622,02-22765566
31,新北市,新莊區衛生所,2331060016,新北市新莊區中華路1段2號,25.036408,121.452248,02-29967123
11,基隆市,合成診所,3511010588,基隆市中正區祥豐街205號,25.143495,121.765696,(02)2463-2532
11,基隆市,林承興診所,3511010524,基隆市中正區北寧路319號,25.139752,121.795339,(02)2469-4199
11,基隆市,安瀾診所,3511012224,基隆市中正區中正路197號1樓,25.142776,121.760744,(02)2462-3389
11,基隆市,晉安診所,3511012242,基隆市中正區義一路39號1樓,25.133178,121.745585,(02)2426-8178
11,基隆市,正光內兒科診所,3511021607,基隆市七堵區南興路12號1樓,25.097526,121.714831,(02)2456-9275
11,基隆市,紀醫師診所,3511020226,基隆市七堵區開元路83號,25.095765,121.712748,(02)2455-4195
11,基隆市,佑仁聯合診所,3511020235,基隆市七堵區開元路59之1號地下室1樓、地面1樓,25.096084,121.713674,(02)2456-2212
11,基隆市,西華診所,3511020333,基隆市七堵區百三街29號,25.081966,121.695477,(02)2451-2942
11,基隆市,碇內診所,3511031247,基隆市暖暖區源遠路323號,25.099426,121.757513,(02)2459-5878
11,基隆市,婁診所,3511030053,基隆市暖暖區暖暖街171號,25.099464,121.736109,(02)2458-4498
11,基隆市,百會診所,3511031283,基隆市暖暖區暖暖街246巷165號1樓,25.100287,121.73564,(02)2459-6677
11,基隆市,王俊傑耳鼻喉科診所,3511040942,基隆市仁愛區仁二路117號,25.127369,121.748001,(02)2425-3660
11,基隆市,陳興達診所,3511040728,基隆市仁愛區仁四路19巷7號1樓,25.127198,121.742355,(02)2425-6410
11,基隆市,懷仁診所,3511041047,基隆市仁愛區仁五路10號1樓,25.127382,121.741226,(02)2422-3597
11,基隆市,仁愛診所,3511041181,基隆市仁愛區孝三路80號,25.130723,121.739842,(02)2422-3255
11,基隆市,林義宏診所,3511050260,基隆市中山區復興路263號,25.148985,121.72596,(02)2436-6481
11,基隆市,至誠診所,3511050108,基隆市中山區安一路3號,25.131302,121.737402,(02)2424-6151
11,基隆市,復興診所,3511051427,基隆市中山區復興路125號,25.145239,121.726383,(02)2437-8911
11,基隆市,聖德診所,3511051481,基隆市中山區西定路411號,25.139257,121.729174,(02)2429-3939
11,基隆市,安定診所,3511051507,基隆市中山區安一路90號,25.13161,121.735719,(02)2421-3279
11,基隆市,李卓為診所,3511060159,基隆市安樂區基金一路133之5號1樓,25.140226,121.711485,(02)2433-2900
11,基隆市,李偉華耳鼻喉科診所,3511061325,基隆市安樂區安樂路二段179號1樓,25.12101,121.724013,(02)2434-8535
11,基隆市,百會長庚診所,3511061414,基隆市安樂區安和一街2巷20號1樓,25.122299,121.724588,(02)2432-6660
11,基隆市,長庚醫療財團法人基隆長庚紀念醫院,1111060015,基隆市安樂區麥金路222號,25.120882,121.722368,(02)2431-3131
11,基隆市,信義診所,3511070128,基隆市信義區東信路15號,25.127478,121.767487,(02)2465-3680
11,基隆市,國泰家醫診所,3511071410,基隆市信義區信一路115號,25.128865,121.749052,(02)2425-4195
11,基隆市,衛生福利部基隆醫院,0111070010,基隆市信義區信二路268號,25.130455,121.748322,(02)2429-2525
34,宜蘭縣,宜蘭市衛生所,2334010018,宜蘭縣宜蘭市健康路2段2-2號,24.745546,121.752319,03-9322362
34,宜蘭縣,國立陽明交通大學附設醫院,0434010518,宜蘭縣宜蘭市校舍路169號,24.750052,121.75798,03-9325192
34,宜蘭縣,宜蘭仁愛醫療財團法人宜蘭仁愛醫院,1134010022,宜蘭縣宜蘭市中山路二段260號,24.74874,121.754437,03-9321888
34,宜蘭縣,曹天德診所,3534010522,宜蘭縣宜蘭市舊城東路3-1號,24.755669,121.75556,03-9353267
34,宜蘭縣,林耳鼻喉科診所,3534010657,宜蘭縣宜蘭市中山路三段233號,24.761606,121.753591,03-9311234
34,宜蘭縣,羅東鎮衛生所,2334020014,宜蘭縣羅東鎮民生路79號,24.677529,121.766951,03-9542321
34,宜蘭縣,天主教靈醫會醫療財團法人羅東聖母醫院,1134020028,宜蘭縣羅東鎮中正南路160號,24.671434,121.770714,03-9544106
34,宜蘭縣,醫療財團法人羅許基金會羅東博愛醫院,1134020019,宜蘭縣羅東鎮南昌街83號,24.671783,121.771407,03-9543131
34,宜蘭縣,王維昌診所,3534020395,宜蘭縣羅東鎮公正路167之3號 ,24.678926,121.768207,03-9562512
34,宜蘭縣,東興婦產科診所,3534022086,宜蘭縣羅東鎮興東路269號,24.683983,121.770286,03-9547102
34,宜蘭縣,家家診所,3534022031,宜蘭縣羅東鎮中山路3段277號,24.674987,121.76718,03-9556228
34,宜蘭縣,北成診所,3534020582,宜蘭縣羅東鎮中山路4段240號,24.67329,121.758906,03-9514467
34,宜蘭縣,林嵩雅診所,3534022175,宜蘭縣羅東鎮維揚路96號,24.672018,121.760768,03-9518208
34,宜蘭縣,林榆森小兒科診所,3534022004,宜蘭縣羅東鎮維揚路96號,24.672018,121.760768,03-9559955
34,宜蘭縣,劉醫師小兒科診所,3534022102,宜蘭縣羅東鎮純精路二段229號,24.679748,121.763784,03-9518121
34,宜蘭縣,蘇澳鎮衛生所,2334030010,宜蘭縣蘇澳鎮志成路60號,24.593975,121.841658,03-9962185
34,宜蘭縣,臺北榮民總醫院蘇澳分院,0634030014,宜蘭縣蘇澳鎮蘇濱路一段301號,24.614096,121.848611,03-9905106
34,宜蘭縣,吳慶順診所,3534030122,宜蘭縣蘇澳鎮華中街5號,24.59626,121.849256,03-9501564
34,宜蘭縣,健生全民診所,3534031469,宜蘭縣蘇澳鎮南寧路44號,24.581298,121.867354,03-9973856
34,宜蘭縣,頭城鎮衛生所,2334040016,宜蘭縣頭城鎮吉祥路15號,24.856759,121.820549,03-9771034
34,宜蘭縣,照仁診所,3534040119,宜蘭縣頭城鎮吉祥路88巷27號,24.857137,121.820812,03-9775101
34,宜蘭縣,礁溪鄉衛生所,2334050012,宜蘭縣礁溪鄉礁溪路四段126號B1,24.820865,121.769904,03-9881391
34,宜蘭縣,天主教靈醫會醫療財團法人礁溪杏和醫院,1134050026,宜蘭縣礁溪鄉礁溪鄉礁溪路四段129號 ,24.820582,121.769144,03-9886996
34,宜蘭縣,簡再興診所,3534051309,礁溪鄉礁溪路一段56號,24.783988,121.761143,03-9280090
34,宜蘭縣,林智偉診所,3534051318,礁溪鄉中山路一段222號2樓,24.82055,121.770892,03-9889679
34,宜蘭縣,壯圍鄉衛生所,2334060018,宜蘭縣壯圍鄉中央路二段290號,24.746749,121.786319,03-9385503
34,宜蘭縣,員山鄉衛生所,2334070014,宜蘭縣員山鄉復興路2號,24.744299,121.724365,03-9221575
34,宜蘭縣,臺北榮民總醫院員山分院,0634070018,宜蘭縣員山鄉內城村榮光路386號,24.721919,121.687824,03-9222141
34,宜蘭縣,冬山鄉衛生所,2334081026,宜蘭縣冬山鄉中正路16號,24.636123,121.791571,03-9594772
34,宜蘭縣,江心修診所,3534080140,宜蘭縣冬山鄉廣興路215號,24.669685,121.748829,03-9611097
34,宜蘭縣,古醫師保健診所,3534081183,宜蘭縣冬山鄉義成路三段500號,24.667415,121.768147,03-9585950
34,宜蘭縣,五結鄉衛生所,2334090016,宜蘭縣五結鄉五結路二段337號,24.684799,121.79895,03-9501564
34,宜蘭縣,三星鄉衛生所,2334100017,宜蘭縣三星鄉三星路五段70號,24.666118,121.651549,03-9892227
34,宜蘭縣,大同鄉衛生所,2334110013,宜蘭縣大同鄉崙埤村朝陽40號,24.677855,121.608845,03-9801160
34,宜蘭縣,南澳鄉衛生所,2334120019,宜蘭縣南澳鄉蘇花路二段375號,24.46583,121.803524,03-9981019
90,金門縣,金城衛生所,2390010010,金城鎮西門里民權路147號,24.436323,118.317802,082-325059
90,金門縣,金寧衛生所,2390040518,金寧鄉盤山村仁愛新村2-1號,24.451179,118.335091,082-325735
90,金門縣,金湖鎮衛生所,2390030030,金湖鎮新湖里市港六路15號,24.437898,118.417548,082-336662
90,金門縣,金沙衛生所,2390020016,金沙鎮汶沙里后浦頭120號,24.489477,118.411766,082-352854
90,金門縣,烈 嶼 鄉 衛 生 所,2390050032,烈嶼鄉西口村西方6-5號 ,24.435193,118.239531,082-362078
90,金門縣,李月娥家醫科婦產科診所,3590011110,金城鎮北門里中興路161巷23號1樓,24.43465,118.31822,082-373434
90,金門縣,王文君小兒科家庭醫學科診所,3590011209,金城鎮北門里中興路176.178號,24.434422,118.320564,082-373938
90,金門縣,佑城診所,3590011236,金城鎮北門里民生路27巷2號,24.43464,118.319149,082-372777
90,金門縣,傅仰賢診所,3590011405,金城鎮北門里民生路7號6樓,24.433129,118.320156,082-322687
90,金門縣,禾心診所,3590011316,金城鎮北門里民生路9-7號,24.433705,118.319877,082-322180
90,金門縣,陳毅書皮膚科診所,3590011192,金城鎮北門里珠浦北路5巷12弄13號,24.432921,118.31983,082-326787
90,金門縣,陳耳鼻喉科診所,3590010060,金城鎮西門里民生路61號,24.436071,118.318741,082-325199
90,金門縣,安仁家醫科內科診所,3590011281,金城鎮西門里民權路141號,24.436177,118.317631,082-372065
90,金門縣,台大中心診所,3590011487,金城鎮西門里民權路226巷1弄20號,24.439648,118.320134,082-321688
90,金門縣,愛人放心診所,3590011450,金城鎮西門里民權路226巷4弄7、8號,24.440266,118.319942,082-312313
90,金門縣,林怡廷皮膚科診所,3590011478,金城鎮西門里莒光路178號,24.434101,118.315807,082-322986
90,金門縣,吾家診所,3590011218,金城鎮西門里富康一村一巷12號,24.437319,118.320086,082-375899
90,金門縣,大眾診所,3590010033,金城鎮東門里民族路20號,24.430938,118.320862,082-323466
90,金門縣,金城診所,3590011272,金城鎮東門里民族路64-2號1樓,24.43063,118.31983,082-320133
90,金門縣,健康診所,3590011352,金城鎮南門里民權路27號,24.431753,118.313841,082-316189
90,金門縣,康健診所,3590011370,金城鎮南門里民權路27號,24.431753,118.313841,082-324170
90,金門縣,三大診所,3590030599,金湖鎮山外里復興西路2號3樓,24.442458,118.4143,082-333995
90,金門縣,魏博士金門醫學診所,3590030606,金湖鎮新市里太湖路二段218號3樓,24.439166,118.419062,082-336220
90,金門縣,彭 小 兒 科 診 所,3590030526,金湖鎮新湖里1鄰市港三路150號,24.438208,118.412556,082-330156
90,金門縣,康橋診所,3590030615,金湖鎮新湖里赤東路150號1樓,24.438943,118.410272,082-330096
90,金門縣,曾杏榕診所,3590030624,金湖鎮新湖里市港二路170號1樓,24.437336,118.411323,082-335666
90,金門縣,愛私醫診所,3590040102,金寧鄉湖埔村埔邊142號1-2樓,24.439587,118.31768,082-329771
90,金門縣,陳水湖診所,3590040013,金寧鄉盤山村仁愛新村131號,24.450344,118.335866,082-321906
90,金門縣,合康家庭診所,3590040068,金寧鄉盤山村仁愛新村98號1樓,24.449865,118.334621,082-322994
90,金門縣,安  康  診  所,3590050046,烈嶼鄉林湖村東林街163號,24.42836,118.247288,082-364955
91,連江縣,連江縣立醫院,0291010010,連江縣南竿鄉復興村217號,26.160844,119.949168,08-3623995
91,連江縣,北竿衛生所,2391020010,連江縣北竿鄉塘岐村25號,26.223091,119.996306,08-3655592
91,連江縣,東莒衛生所,2391030026,連江縣莒光鄉大坪村30之1號,25.961129,119.973063,08-3689038
91,連江縣,西莒衛生所,2391030016,連江縣莒光鄉青帆村14之1號,25.971575,119.933082,08-3689122
91,連江縣,東引衛生所,2391040012,連江縣東引鄉中柳村123號,26.367006,120.49044,08-3677206
07,高雄市,胡榿小兒科診所,3502051955,高雄市三民區九如一路820號,22.64016,120.31949,07-3827356
07,高雄市,儲昭仁耳鼻喉科診所,3502052345,高雄市三民區九如一路854號,22.640239,120.318738,07-3890470
07,高雄市,林志哲耳鼻喉科診所,3502055453,高雄市三民區大昌二路103號,22.641361,120.331981,07-3987593
07,高雄市,謝明容耳鼻喉科診所,3502054465,高雄市三民區大昌二路142號,22.644197,120.332324,07-3973999
07,高雄市,黃學武家庭醫學科診所,3502054250,高雄市三民區大昌二路23號1樓,22.639288,120.332066,07-3815668
07,高雄市,董金山診所,3502050378,高雄市三民區大昌二路544號,22.651828,120.33018,07-3833405
07,高雄市,柳雱邁診所,3507320035,高雄市三民區建興路59號,22.641954,120.327285,07-3895640
07,高雄市,羅韻珊小兒科診所,3502051642,高雄市三民區大豐二路110之1號,22.64583,120.328851,07-3870430
07,高雄市,鼎祥診所,3502052176,高雄市三民區天祥一路135之1號,22.667207,120.320051,07-3477086
07,高雄市,吉星小兒科診所,3502052523,高雄市三民區天祥一路135之1號,22.667207,120.320051,07-3477086
07,高雄市,青聯診所,3507010767,高雄市三民區文濱路31號,22.63918,120.348254,07-7677002
07,高雄市,范雅修小兒科診所,3502052498,高雄市三民區平等路163號,22.642189,120.320831,07-3876366
07,高雄市,建欣診所,3507321283,高雄市三民區建工路664號,22.648062,120.319458,07-3808856
07,高雄市,育明診所,3502052694,高雄市三民區民族一路537號,22.666021,120.31634,07-3478461
07,高雄市,快安診所,3502052309,高雄市三民區立忠路29號,22.653084,120.325683,07-3895420
07,高雄市,亮忠診所,3502052676,高雄市三民區明誠二路28號,22.660087,120.314897,07-3490760
07,高雄市,鼎真診所,3507320526,高雄市三民區金鼎路325號,22.664784,120.32017,07-3103130
07,高雄市,張氏診所,3502051311,高雄市三民區金鼎路368之5號,22.665254,120.318828,07-3419182
07,高雄市,莊永昌診所,3502051544,高雄市三民區建工路332號,22.653186,120.33067,07-3922289
07,高雄市,蕭瑞榮小兒科診所,3502051375,高雄市三民區建工路533號,22.648475,120.320773,07-3867121
07,高雄市,怡碩耳鼻喉科診所,3507321407,高雄市三民區建工路589號,22.648299,120.319962,07-3808169
07,高雄市,黃志維耳鼻喉科診所,3502054527,高雄市三民區建工路608號,22.649477,120.323138,07-3947605
07,高雄市,陳豊源耳鼻喉科診所,3502051053,高雄市三民區建工路648號,22.649121,120.321926,07-3870120
07,高雄市,緯立診所,3507321247,高雄市三民區建元路30號,22.647044,120.317583,07-3850785
07,高雄市,余建興耳鼻喉科診所,3502051839,高雄市三民區建興路183號,22.643644,120.326061,07-3892437
07,高雄市,國安診所,3507320955,高雄市三民區建興路193號,22.643712,120.325846,07-3865379
07,高雄市,徐樹本診所,3502051599,高雄市三民區建興路373號,22.646792,120.322149,07-3867833
07,高雄市,新高醫院,1507320015,高雄市三民區莊敬路288號,22.649991,120.318257,07-3828814
07,高雄市,王漢卿小兒科診所,3502052292,高雄市三民區陽明路132號,22.640578,120.341836,07-3877918
07,高雄市,開元診所,3502052729,高雄市三民區明誠一路296號,22.659904,120.325385,07-3873595
07,高雄市,錫謀診所,3502051419,高雄市三民區陽明路398號,22.645903,120.34289,07-3835551
07,高雄市,王俊仁耳鼻喉科診所,3502052121,高雄市三民區陽明路416號,22.646236,120.34295,07-3959039
07,高雄市,禾泰診所,3502055389,高雄市三民區陽明路68號,22.639506,120.341623,07-3903812
07,高雄市,元成診所,3502055293,高雄市三民區陽明路81號,22.639693,120.341262,07-3903808
07,高雄市,醫鼎診所,3502052274,高雄市三民區裕誠路101號,22.663679,120.313681,07-3506789
07,高雄市,建心診所,3507320811,高雄市三民區裕誠路108號,22.663993,120.312845,07-3593343
07,高雄市,裕成耳鼻喉科診所,3507321194,高雄市三民區裕誠路90號,22.663976,120.313419,07-3457832
07,高雄市,曾柏彰診所,3507320688,高雄市三民區鼎力路339號,22.669346,120.324554,07-3103216
07,高雄市,賴耳鼻喉科診所,3502050618,高雄市三民區鼎山街581號,22.650976,120.317374,07-3826946
07,高雄市,鼎山診所,3507320277,高雄市三民區鼎華路12號,22.650762,120.316942,07-3800000
07,高雄市,尤啟享診所,3502051777,高雄市三民區澄和路53號,22.644313,120.344896,07-3811515
07,高雄市,高鳳診所,3502054652,高雄市三民區灣中街328號,22.649971,120.317952,07-3865481
07,高雄市,大昌倫詠診所,3507321596,高雄市三民區大昌二路３０７號１－２樓,22.647803,120.331747,07-3819960
07,高雄市,黃旭瑞耳鼻喉科診所,3502051366,高雄市三民區大昌二路482號,22.650981,120.331166,07-3802334
07,高雄市,正峯診所,3507321694,高雄市三民區陽明路107號1樓,22.640191,120.341342,07-3707290
07,高雄市,九大九如診所,3507321541,高雄市三民區九如二路331號1-2樓,22.640946,120.304478,07-3210999
07,高雄市,安安十全婦幼診所,3507321505,高雄市三民區十全三路280號,22.648403,120.286731,07-3231550
07,高雄市,曾繁英診所,3502051348,高雄市三民區十美里自立一路267號,22.642389,120.296066,07-3111048
07,高雄市,鄭榮祥診所,3502051213,高雄市三民區千歲里自強一路197號,22.63472,120.291482,07-2511241
07,高雄市,愛仁醫療社團法人愛仁醫院,0907320012,高雄市三民區民族一路51號1至4樓,22.641817,120.31384,07-3115159
07,高雄市,德謙醫院,1502050045,高雄市三民區同德里九如二路18號,22.640667,120.313205,07-3210981
07,高雄市,財團法人私立高雄醫學大學附設中和紀念醫院,1302050014,高雄市三民區安生里自由一路100號,22.647058,120.309432,07-3121101
07,高雄市,怡德耳鼻喉科診所,3502050592,高雄市三民區自立一路99號,22.637315,120.296499,07-2864875
07,高雄市,順安內科兒科診所,3502050869,高雄市三民區自強一路229號,22.635522,120.291172,07-2815659
07,高雄市,建和耳鼻喉科診所,3502051277,高雄市三民區建國一路413之2號,22.634291,120.317263,07-2231828
07,高雄市,傳生診所,3507320777,高雄市三民區建國三路503號1樓,22.635249,120.288696,07-2911588
07,高雄市,婦全婦產科診所,3502050798,高雄市三民區建國三路517號1樓,22.635104,120.288368,07-2728025
07,高雄市,樂田耳鼻喉科診所,3507320642,高雄市三民區達德里熱河一街365號,22.643633,120.305865,07-3115999
07,高雄市,文雄醫院,1502050296,高雄市三民區察哈爾二街132號,22.64805,120.299645,07-3165275
07,高雄市,後驛診所,3502055319,高雄市三民區察哈爾二街19號1樓,22.647511,120.302386,07-3134133
07,高雄市,祐生醫院,1502050170,高雄市三民區鳳北里建國三路60號,22.637982,120.296105,07-2866688
07,高雄市,上仁診所,3502051491,高雄市三民區鳳南里中華三路285號,22.635902,120.293115,07-2155510
07,高雄市,明榮診所,3502055275,高雄市三民區熱河一街370號1至2樓,22.64395,120.305815,07-3222875
07,高雄市,維揚耳鼻喉科診所,3507321390,高雄市三民區熱河一街402號,22.644017,120.304745,07-3131066
07,高雄市,厚澤九如診所,3507321710,高雄市三民區九如二路205號1樓,22.640671,120.308069,07-3137168
07,高雄市,四季康和診所,3507300935,高雄市三民區遼北街209號1樓,22.647929,120.289593,07-3432349
07,高雄市,南山自立診所,3507321676,高雄市三民區九如二路548號1樓,22.641895,120.296597,07-3230623
07,高雄市,家祥診所,3507090041,高雄市大社區中山路252號,22.731691,120.348568,07-3557711
07,高雄市,微恩診所,3507090050,高雄市大社區自強街26-1號,22.730703,120.34712,07-3530781
07,高雄市,佳愛診所,3542091586,高雄市大社區自強街26-3號,22.730775,120.347142,07-3542888
07,高雄市,富安診所,3542090150,高雄市大社區金龍路138號,22.726886,120.353695,07-3528996
07,高雄市,吉田診所,3542090276,高雄市大社區中山路72號,22.731984,120.345304,07-3543381
07,高雄市,喉康診所,3507060070,高雄市大寮區中庄里仁愛路82號 ,22.63548,120.395123,07-7017100
07,高雄市,大承耳鼻喉科診所,3542062307,高雄市大寮區中庄里鳳屏一路464號 ,22.636091,120.39267,07-7013668
07,高雄市,大鋐診所,3507060043,高雄市大寮區中庄里鳳屏一路492號 ,22.636113,120.392853,07-7038188
07,高雄市,大順診所,3542060769,高雄市大寮區中庄里鳳屏一路562號 ,22.637101,120.394495,07-7038417
07,高雄市,洪耳鼻喉科診所,3542060401,高雄市大寮區中興里鳳林四路156號 ,22.616717,120.385792,07-7861305
07,高雄市,瑞生醫院,1542061148,高雄市大寮區中興里鳳林四路192號 ,22.617691,120.384874,07-7835175
07,高雄市,大統內兒科診所,3542062094,高雄市大寮區中興里鳳林四路56號 ,22.615085,120.387907,07-7836127
07,高雄市,高雄市大寮區衛生所,2342060013,高雄市大寮區永芳里進學路129巷2-1號 ,22.604531,120.393595,07-7811965
07,高雄市,張桐榮診所,3542061953,高雄市大寮區永芳里鳳林三路553號 ,22.6083,120.394756,07-7825382
07,高雄市,嘉德耳鼻喉科診所,3542062147,高雄市大寮區後庄里鳳屏一路441、443號 ,22.638162,120.395545,07-7022626
07,高雄市,圓明診所,3542062156,高雄市大寮區昭明里鳳林一路147號 ,22.541789,120.404208,07-6433298
07,高雄市,杏安診所,3542062290,高雄市大寮區琉球里林厝路53號1樓,22.614816,120.408203,07-7810565
07,高雄市,周俊仁診所,3507060061,高雄市大寮區會社里鳳林三路300號 ,22.601163,120.398303,07-7861168
07,高雄市,樂生婦幼醫院,1542061077,高雄市大寮區會社里鳳林三路532號 ,22.606815,120.395585,07-7862688
07,高雄市,宜和內兒科診所,3542060189,高雄市大寮區鳳林三路341號,22.601503,120.397711,07-7816825
07,高雄市,大新診所,3542060474,高雄市大寮區大寮路511號,22.592713,120.410694,07-7882651
07,高雄市,其靈診所,3507060105,高雄市大寮區鳳林三541號1-2樓,22.607652,120.395163,07-7823335
07,高雄市,尚文診所,3542071342,高雄市大樹區久堂里久堂路30號,22.659402,120.420754,07-6527978
07,高雄市,丰聯診所,3542070210,高雄市大樹區久堂里建村街74號,22.656555,120.41902,07-6519312
07,高雄市,立安診所,3542070149,高雄市大樹區水寮里中山路197號,22.6675,120.408996,07-6525768
07,高雄市,佛光聯合診所,3542071315,高雄市大樹區興田里興田路154號,22.747368,120.446597,07-6562605
07,高雄市,高雄市大樹區衛生所,2342070019,高雄市大樹區龍目路158號,22.68384,120.414039,07-6512935
07,高雄市,宏彰診所,3542071280,高雄市大樹區檨腳里中正一路423號,22.69468,120.434039,07-6527531
07,高雄市,潔揚診所,3542070069,高雄市大樹區大樹里大樹路北巷14-7號,22.687957,120.430037,07-6510000
07,高雄市,康泰診所,3507380228,高雄市小港區大鵬路66號,22.567153,120.358627,07-8060308
07,高雄市,蔡坤霖小兒科診所,3502111956,高雄市小港區二苓路148號1樓,22.565546,120.350086,07-8030816
07,高雄市,洪清中兒科診所,3502110646,高雄市小港區二苓路192號1樓,22.56556,120.349061,07-8063773
07,高雄市,高雄市立小港醫院,1102110011,高雄市小港區山明里山明路482號,22.567467,120.363369,07-8036783
07,高雄市,明義診所,3502110593,高雄市小港區孔鳳路542號,22.582145,120.358821,07-7916959
07,高雄市,孔鳳診所,3507380111,高雄市小港區孔鳳路571號1樓,22.584112,120.358625,07-7910311
07,高雄市,羅錦泉診所,3502110146,高雄市小港區平和路105號,22.565559,120.333158,07-8314168
07,高雄市,朝陽耳鼻喉科診所,3507380040,高雄市小港區平和路146號,22.566856,120.332475,07-8311228
07,高雄市,大佑診所,3507380157,高雄市小港區平和路26-1號,22.564466,120.334183,07-8218162
07,高雄市,施晉南診所,3502110637,高雄市小港區平治街1號,22.56762,120.358186,07-8021622
07,高雄市,長慶小兒科診所,3507380068,高雄市小港區漢民路413號1樓,22.56701,120.357744,07-8068170
07,高雄市,鳳林診所,3502112060,高雄市小港區鳳林路93－1號,22.526373,120.346337,07-8720822
07,高雄市,安泰醫院,1502110064,高雄市小港區學府路111號,22.565234,120.36143,07-8017856
07,高雄市,大鵬診所,3507380200,高雄市小港區大鵬路144號,22.569102,120.358591,07-8013288
07,高雄市,戴銘浚婦兒醫院,1502111089,高雄市小港區宏平路661號,22.569572,120.351192,07-8061289
07,高雄市,王瑞琦耳鼻喉科診所,3502110762,高雄市小港區桂陽路172-1號,22.582066,120.355602,07-7930037
07,高雄市,欣誼診所,3507380246,高雄市小港區漢民路693-2號,22.567743,120.361622,07-8039222
07,高雄市,蔡定洲耳鼻喉科診所,3507080036,高雄市仁武區京吉一路76號,22.687576,120.337317,07-3756161
07,高雄市,仁武好心診所,3507080063,高雄市仁武區中正路301號1樓,22.702843,120.35307,07-3719895
07,高雄市,劉內兒科診所,3542080047,高雄市仁武區仁心路6號,22.681815,120.355907,07-3718727
07,高雄市,陽光診所,3542081348,高雄市仁武區中華路255號,22.700291,120.351551,07-3755500
07,高雄市,易生診所,3542080190,高雄市仁武區中華路306號,22.70044,120.352909,07-3746901
07,高雄市,廣安診所,3542080118,高雄市仁武區仁雄路13之19號,22.680803,120.354082,07-3718819
07,高雄市,仁雄診所,3507080090,高雄市仁武區仁雄路15之1號1樓,22.680719,120.353236,07-3741298
07,高雄市,揚善診所,3507080045,高雄市仁武區仁樂街180號,22.703644,120.347246,07-3758419
07,高雄市,仁里診所,3542080109,高雄市仁武區仁樂街202號,22.703728,120.347802,07-3729603
07,高雄市,仁同小兒科診所,3507080205,高雄市仁武區永仁街694號1樓,22.690505,120.331784,07-3734890
07,高雄市,高雄市仁武區衛生所,2342080015,高雄市仁武區地政街23號,22.700797,120.351568,07-3711434
07,高雄市,康寧診所,3507080223,高雄市仁武區京吉六路5號1-2樓,22.685241,120.342371,07-3720307
07,高雄市,長恩聯合診所,3542081231,高雄市仁武區仁忠路83號,22.677365,120.355785,07-3747975
07,高雄市,翔賀診所,3507080312,高雄市仁武區京吉二路200號1樓,22.682986,120.340784,07-3735568
07,高雄市,觀亭診所,3542241059,高雄市內門區中正路168號,22.918244,120.454604,07-6674882
07,高雄市,高雄市內門區衛生所,2342240011,高雄市內門區觀亭里中埔頭20號,22.924516,120.453989,07-6671088
07,高雄市,高雄市六龜區衛生所,2342210013,高雄市六龜區六龜里民治路16號,22.998336,120.633315,07-6891244
07,高雄市,大嘉診所,3542211257,高雄市六龜區義寶里太平路114號,22.995201,120.637516,07-6895789
07,高雄市,好心腸診所,3507301718,高雄市左營區華夏路1212號1-2樓,22.684828,120.310357,07-3430630
07,高雄市,高雄榮民總醫院,0602030026,高雄市左營區大中一路386號,22.677696,120.322256,07-3422121
07,高雄市,大中診所,3507301861,高雄市左營區大中二路619號,22.683368,120.307204,07-3500348
07,高雄市,沈嘉充診所,3502030750,高雄市左營區中華一路5號,22.669658,120.286816,07-5851778
07,高雄市,江春木診所,3502030170,高雄市左營區天祥二路103、105號,22.668565,120.313693,07-5567377
07,高雄市,蘇峯民耳鼻喉科診所,3507300499,高雄市左營區文自路842號1樓,22.684343,120.315166,07-3507990
07,高雄市,李凱斌小兒科診所,3502032227,高雄市左營區文莊路53號,22.677264,120.312129,07-3454784
07,高雄市,國聖診所,3502030947,高雄市左營區文慈路150號,22.681833,120.318117,07-3506203
07,高雄市,振亮診所,3507300819,高雄市左營區左營大路156號,22.683758,120.28922,07-5879799
07,高雄市,長安診所,3502030616,高雄市左營區左營大路253號1樓,22.686184,120.290476,07-5821864
07,高雄市,加安耳鼻喉科診所,3502030554,高雄市左營區左營大路95號,22.682679,120.288363,07-5816899
07,高雄市,德安診所,3502030821,高雄市左營區民族一路901巷1號,22.681183,120.318234,07-3464695
07,高雄市,常安診所,3507301763,高雄市左營區立大路175號,22.677094,120.303382,07-3503551
07,高雄市,立馨診所,3507301450,高雄市左營區立大路78號,22.675305,120.302526,07-3590639
07,高雄市,鄭倩寧家醫科診所,3502033064,高雄市左營區自由二路226號1樓,22.663993,120.308522,07-5507919
07,高雄市,黃昭文診所,3502030643,高雄市左營區自由二路255號,22.662472,120.308241,07-5592289
07,高雄市,豐田診所,3507301129,高雄市左營區自由二路309號,22.663242,120.308143,07-5506000
07,高雄市,裕興診所,3502032129,高雄市左營區自由二路320號1樓,22.665291,120.308882,07-5583277
07,高雄市,文仁小兒科診所,3507301334,高雄市左營區自由三路172號1樓,22.671695,120.311348,07-3455959
07,高雄市,張簡耳鼻喉科診所,3502032110,高雄市左營區自由三路300號1樓,22.674068,120.312325,07-3454185
07,高雄市,康澤小兒科診所,3502032790,高雄市左營區自由三路382號,22.67498,120.31259,07-3453356
07,高雄市,九大自由診所,3507300453,高雄市左營區自由三路410號1樓,22.675615,120.312759,07-3591963
07,高雄市,恩欣小兒科診所,3502033082,高雄市左營區自由四路324號1樓,22.684915,120.316579,07-3451966
07,高雄市,彌馨診所,3507300097,高雄市左營區至聖路288號,22.659789,120.304354,07-5586080
07,高雄市,永霖小兒科診所,3502033304,高雄市左營區孟子路415號,22.6755,120.307683,07-3498118
07,高雄市,賴孟德診所,3507300186,高雄市左營區孟子路608號,22.677985,120.303923,07-3439801
07,高雄市,許志榮診所,3507301852,高雄市左營區孟子路686號1樓,22.679093,120.302409,07-3506056
07,高雄市,楊宜璋耳鼻喉科診所,3502030723,高雄市左營區明誠二路362號,22.661249,120.307227,07-5591007
07,高雄市,馨蕙馨醫院,1502031095,高雄市左營區明誠二路541號,22.660969,120.303828,07-5586080
07,高雄市,馬遠成診所,3502030385,高雄市左營區果峰街2巷3號,22.670463,120.289197,07-5873771
07,高雄市,欣正中診所,3502032576,高雄市左營區南屏路245號1樓,22.669663,120.297991,07-5555171
07,高雄市,蔡鶴峰診所,3502030483,高雄市左營區後昌路601號,22.707706,120.29952,07-3661818
07,高雄市,國軍左營總醫院,0502030015,高雄市左營區軍校路553號,22.700351,120.292231,07-5817121
07,高雄市,福山診所,3502033297,高雄市左營區重愛路218號,22.685597,120.315601,07-3482323
07,高雄市,文愛診所,3507300908,高雄市左營區重愛路303號1.2樓,22.686491,120.314109,07-3430123
07,高雄市,蔡昌學復健科診所,3502033028,高雄市左營區崇德路287號,22.675844,120.303349,07-3502290
07,高雄市,德仁診所,3502030072,高雄市左營區勝利路190號,22.681598,120.288534,07-5819228
07,高雄市,博愛蕙馨醫院,1507300022,高雄市左營區博愛二路20號,22.656832,120.303458,07-8628880
07,高雄市,王聖智耳鼻喉科診所,3502032101,高雄市左營區博愛二路292號1樓,22.662416,120.303471,07-5586755
07,高雄市,豐田博愛診所,3507301610,高雄市左營區博愛四路16號,22.681519,120.310987,07-3418880
07,高雄市,宗禾診所,3507300748,高雄市左營區博愛四路80號,22.681764,120.311294,07-3500980
07,高雄市,富誠診所,3502033420,高雄市左營區富國路355號1樓,22.666858,120.307306,07-5560925
07,高雄市,王欽程診所,3502032316,高雄市左營區華夏路1141號,22.684322,120.308991,07-3491111
07,高雄市,金仁福診所,3502032192,高雄市左營區華夏路228號,22.669937,120.296711,07-5529843
07,高雄市,鈞安婦幼聯合醫院,1507300068,高雄市左營區華夏路609號,22.663242,120.308143,07-3480088
07,高雄市,薛智峰耳鼻喉科診所,3502032432,高雄市左營區華夏路703號,22.678187,120.302074,07-3439190
07,高雄市,華夏診所,3502032325,高雄市左營區華夏路708號1樓,22.677824,120.30224,07-3453961
07,高雄市,陳進成診所,3502032594,高雄市左營區華夏路985號1樓,22.681533,120.305338,07-3503387
07,高雄市,安生診所,3502030634,高雄市左營區裕誠路166號1樓,22.66432,120.31133,07-5586166
07,高雄市,謝宗哲耳鼻喉科診所,3502032334,高雄市左營區裕誠路424號1樓,22.665821,120.305456,07-5584717
07,高雄市,董永豪診所,3507300855,高雄市左營區廍後街4號,22.683672,120.288469,07-5850268
07,高雄市,晨田耳鼻喉科診所,3502032781,高雄市左營區榮佑路41號,22.681702,120.320644,07-3508893
07,高雄市,維寧好耳鼻喉科診所,3507301656,高雄市左營區重愛路196號1樓,22.685195,120.316115,07-3500850
07,高雄市,自由心胸診所,3507301816,高雄市左營區自由二路340號1-2樓,22.66572,120.309004,07-5588001
07,高雄市,陳乃銘診所,3507302000,高雄市左營區重愛路198號1樓,22.68524,120.316083,07-3506797
07,高雄市,信川內科診所,3507302028,高雄市左營區重信路431號1樓,22.683385,120.310765,07-3451621
07,高雄市,陳乃菁診所,3507301790,高雄市左營區博愛三路621號1樓及623號1樓,22.679673,120.308342,07-3453468
07,高雄市,葉乙力小兒科診所,3502032343,高雄市左營區華夏路700號,22.677745,120.302171,07-3456256
07,高雄市,高雄市永安區衛生所,2342180010,高雄市永安區永安路26號,22.818791,120.225365,07-6912015
07,高雄市,高雄市田寮區衛生所,2342130010,高雄市田寮里崗北路32號,22.873036,120.359363,07-6361504
07,高雄市,高雄市甲仙區衛生所,2342220019,高雄市甲仙區中山路52號,23.083935,120.587453,07-6751029
07,高雄市,高雄市杉林區衛生所,2342230015,高雄市杉林區上平里山仙路93巷2號,22.976932,120.538613,07-6771319
07,高雄市,立恩診所,3507230072,高雄市杉林區清水路98號1樓,22.966605,120.53379,07-6771193
07,高雄市,上平診所,3507230063,高雄市杉林區山仙路137號1樓,22.975584,120.542312,07-6773677
07,高雄市,高雄市那瑪夏區衛生所,2342270019,高雄市那瑪夏區瑪雅里平和巷252號,23.246904,120.702305,07-6701142
07,高雄市,新博愛診所,3542021986,高雄市岡山區大德一路15號,22.79665,120.29732,07-6215799
07,高雄市,蔣榮福診所,3542020532,高雄市岡山區中山南路452號,22.790309,120.299558,07-6212405
07,高雄市,盧榮福內兒科診所,3542020201,高雄市岡山區仁壽路39號,22.792596,120.289765,07-6221515
07,高雄市,翁仁茂診所,3542020069,高雄市岡山區公園西路三段123號,22.793282,120.284745,07-6220039
07,高雄市,皇明診所,3542020596,高雄市岡山區公園西路三段86號,22.79438,120.284267,07-6263592
07,高雄市,吳宗慶診所,3542020738,高雄市岡山區中山北路47號,22.793821,120.298665,07-6229868
07,高雄市,瑜楊診所,3542022214,高雄市岡山區岡山路203號,22.791164,120.29531,07-6233598
07,高雄市,王宏育診所,3542020434,高雄市岡山區岡山路260號,22.792539,120.296173,07-6228972
07,高雄市,黃耳鼻喉科診所,3542020130,高雄市岡山區岡山路347之1號,22.797674,120.295132,07-6230011
07,高雄市,光雄長安醫院,1542020067,高雄市岡山區岡山路380-1號,22.794253,120.295956,07-6219156
07,高雄市,劉嘉修醫院,1542020058,高雄市岡山區岡山路428號,22.795756,120.295867,07-6222836
07,高雄市,陳國俊小兒科診所,3542022250,高雄市岡山區岡山路73號,22.789225,120.296074,07-6297200
07,高雄市,惠川醫院,1542021171,高雄市岡山區岡山路92號,22.787987,120.296788,07-6229292
07,高雄市,林怡仁診所,3542022170,高雄市岡山區岡燕路320號,22.791357,120.306027,07-6228926
07,高雄市,黃子育診所,3542020676,高雄市岡山區前峰路39號,22.794696,120.288569,07-6270101
07,高雄市,得安診所,3542020461,高雄市岡山區前峰路90-2號,22.795456,120.287871,07-6258387
07,高雄市,翁明清婦產科診所,3542020363,高雄市岡山區前峰路73號,22.795735,120.286924,07-6222997
07,高雄市,蔡百豐內科家醫科診所,3542020792,高雄市岡山區柳橋西路62之1號,22.790713,120.287539,07-6229221
07,高雄市,黃仲達診所,3542022303,高雄市岡山區柳橋東路9之2號,22.790766,120.294884,07-6297985
07,高雄市,高雄市立岡山醫院,0942020019,高雄市岡山區壽天路12號,22.796612,120.294443,07-6222131
07,高雄市,金禾美診所,3507020192,高雄市岡山區維仁路26號,22.792695,120.292539,07-6223028
07,高雄市,劉志廷家庭醫學科診所,3542020309,高雄市岡山區維新路51號,22.793187,120.294462,07-6228617
07,高雄市,岡山區衛生所,2342020019,高雄市岡山區壽天里公園路50號,22.796115,120.291073,07-6212015
07,高雄市,岡山家福耳鼻喉科診所,3507020021,高雄市岡山區岡山路312-1號1樓、312號1樓,22.793696,120.296014,07-6219595
07,高雄市,康誠診所,3507020147,高雄市岡山區維仁路81號,22.793559,120.292182,07-6217335
07,高雄市,維馨診所,3507020156,高雄市岡山區維仁路81號,22.793559,120.292182,07-6217335
07,高雄市,建佑醫院,1542050056,高雄市林園區東林西路360號,22.503844,120.386635,07-6437901
07,高雄市,建芳診所,3542052034,高雄市林園區東林東路28號1樓,22.50376,120.396568,07-6467666
07,高雄市,黃英豪診所,3542050361,高雄市林園區林園北路188號,22.50769,120.395045,07-6412134
07,高雄市,霖園醫院,1542051151,高雄市林園區林園北路244號,22.509011,120.395301,07-6413399
07,高雄市,川宏診所,3542052043,高雄市林園區鳳林路一段83號1樓,22.503567,120.397471,07-6452520
07,高雄市,珈一診所,3507050127,高雄市林園區仁愛路163號,22.507794,120.392117,07-6413139
07,高雄市,阿蓮康健診所,3507140028,高雄市阿蓮區中正路383號,22.880538,120.33298,07-6317288
07,高雄市,高雄市阿蓮區衛生所,2342140016,高雄市阿蓮區民生路94-1號,22.882809,120.327524,07-6317141
07,高雄市,陳振雄診所,3507140037,高雄市阿蓮區忠孝路300巷15號,22.879016,120.327341,07-6313016
07,高雄市,玉焜診所,3542141456,高雄市阿蓮區信義路115號 ,22.87937,120.326176,07-6311914
07,高雄市,佑鎮診所,3507360182,高雄市前鎮區平等里樹人路128號,22.588885,120.319849,07-8121606
07,高雄市,鄰好西醫診所,3507360557,高雄市前鎮區民權里民權二路180號二樓,22.607129,120.311554,07-3350802
07,高雄市,維康診所,3502098261,高雄市前鎮區民權里鄭和路45號,22.607471,120.313528,07-3345373
07,高雄市,蕭基昌耳鼻喉科診所,3502098163,高雄市前鎮區永豐路91，93號,22.60601,120.333254,07-7510098
07,高雄市,曾長安診所,3507360360,高雄市前鎮區竹北里二聖一路170號,22.612366,120.323151,07-7219955
07,高雄市,新正薪醫院,1507360028,高雄市前鎮區竹南里一心一路233號,22.607869,120.317587,07-9705335
07,高雄市,前鎮長青診所,3507360271,高雄市前鎮區竹南里凱旋三路83號,22.606843,120.324713,07-7170443
07,高雄市,王祚祥診所,3507360468,高雄市前鎮區竹南里管仲南路368號,22.605087,120.313727,07-5361823
07,高雄市,楊榮超診所,3502091271,高雄市前鎮區西山里一心二路133號,22.612089,120.308336,07-3326188
07,高雄市,宋銘宏診所,3502097415,高雄市前鎮區西山里一心二路49號,22.611281,120.310202,07-5378812
07,高雄市,陳方明診所,3502097237,高雄市前鎮區西山里一心二路59號,22.611336,120.310085,07-5374381
07,高雄市,宇平診所,3507360575,高雄市前鎮區良和里中山二路46號,22.608644,120.306944,07-3342608
07,高雄市,慶大診所,3502098092,高雄市前鎮區忠純里中華五路993號,22.602598,120.305875,07-5366226
07,高雄市,宏恩診所,3502098190,高雄市前鎮區忠純里正勤路71號,22.602872,120.305389,07-5370666
07,高雄市,宏昇診所,3507360342,高雄市前鎮區明正里草衙二路470號,22.580079,120.323004,07-8112522
07,高雄市,聖青診所,3502090309,高雄市前鎮區明禮里草衙一路112號,22.584226,120.32223,07-8310970
07,高雄市,黃裕峯耳鼻喉科診所,3502097291,高雄市前鎮區保泰路427號,22.60426,120.336098,07-7268385
07,高雄市,杏心耳鼻喉科診所,3507360655,高雄市前鎮區班超路11號1樓,22.599112,120.326151,07-8212666
07,高雄市,美德聯合診所,3502091146,高雄市前鎮區草衙里草衙二路385號,22.578354,120.322333,07-8156375
07,高雄市,安悅診所,3507360744,高雄市前鎮區梧州街66號,22.614944,120.315333,07-3381018
07,高雄市,吳泰成耳鼻喉科診所,3502090694,高雄市前鎮區盛豐里林森三路150號,22.613571,120.308862,07-3361136
07,高雄市,南隆小兒科診所,3507360413,高雄市前鎮區盛豐里復興三路391號,22.613485,120.308807,07-3382967
07,高雄市,祥全診所,3507360066,高雄市前鎮區盛豐里復興三路393號,22.613467,120.311436,07-3340393
07,高雄市,吳信宏耳鼻喉科小兒科診所,3502091208,高雄市前鎮區復國里三多二路401號,22.617787,120.316652,07-3334258
07,高雄市,永豐診所,3502097362,高雄市前鎮區瑞昌里永豐路110號,22.606544,120.333681,07-7517969
07,高雄市,永祥診所,3502097755,高雄市前鎮區瑞昌里永豐路110號,22.606544,120.333681,07-7515678
07,高雄市,謝麗煌小兒科內科診所,3502090041,高雄市前鎮區瑞崗里隆興街151號,22.605815,120.327817,07-7716485
07,高雄市,昭哲診所,3502097835,高雄市前鎮區瑞華里永豐路214號,22.608737,120.333427,07-7136366
07,高雄市,吉泰內科診所,3502098010,高雄市前鎮區瑞隆里保泰路419號,22.60407,120.335837,07-7616000
07,高雄市,保泰長慶小兒科診所,3507360548,高雄市前鎮區瑞隆里保泰路425號,22.604223,120.336063,07-7210089
07,高雄市,陳文宏診所,3502090621,高雄市前鎮區瑞隆里瑞隆路319號,22.605457,120.332297,07-7131516
07,高雄市,瑞安診所,3502090884,高雄市前鎮區瑞興里公正路268號,22.607878,120.330837,07-7616420
07,高雄市,永興診所,3502097175,高雄市前鎮區興邦里鎮興路222號,22.593014,120.311705,07-8157006
07,高雄市,嘉祐耳鼻喉科診所,3507360075,高雄市前鎮區興東里一心一路388號,22.609086,120.316102,07-3318012
07,高雄市,親親診所,3502090569,高雄市前鎮區興東里一心一路402號,22.60951,120.315164,07-3391078
07,高雄市,林正宗診所,3502090514,高雄市前鎮區興東里一心一路404號,22.60958,120.314972,07-3303615
07,高雄市,劉志明耳鼻喉科診所,3502091039,高雄市前鎮區興東里一心一路482號,22.609912,120.314235,07-3363311
07,高雄市,吳昆哲婦產小兒科醫院,1502090209,高雄市前鎮區興東里民權二路430號,22.612079,120.31439,07-3319611
07,高雄市,博聖診所,3502090685,高雄市前鎮區鎮北里擴建一路59號,22.591318,120.306597,07-8218252
07,高雄市,美和診所,3502098109,高雄市前鎮區鎮昌里翠亨北路577號,22.592286,120.312972,07-8120053
07,高雄市,邱仲禮診所,3502090096,高雄市前鎮區鎮榮里鎮榮街45號,22.590439,120.311622,07-8211363
07,高雄市,沐尚耳鼻喉科診所,3507360771,高雄市前鎮區二聖一路83號1樓,22.611922,120.324535,07-7220520
07,高雄市,美濃區衛生所,2342040011,高雄市美濃區合和里美中路246號,22.895215,120.541286,07-6812064
07,高雄市,龍肚診所,3507040023,高雄市美濃區龍肚里中華路60號,22.878177,120.570368,07-6851861
07,高雄市,三聖醫院,1542040050,高雄市美濃區合和里合和路56號及58號，成功路182-2號,22.894009,120.54808,07-6818495
07,高雄市,冬勝診所,3507350515,高雄市苓雅區中正一路472號,22.630047,120.323795,07-7278392
07,高雄市,馨田診所,3507350417,高雄市苓雅區中正里光華一路148-59號,22.623746,120.315989,07-7172688
07,高雄市,泰順聯合診所,3502081659,高雄市苓雅區中正里光華一路148-95號,22.626225,120.314992,07-2241595
07,高雄市,邱靖媛小兒專科診所,3502083395,高雄市苓雅區五福里大順三路172號,22.633171,120.326053,07-7215153
07,高雄市,聖安診所,3502083822,高雄市苓雅區五福里大順三路186號,22.633461,120.326154,07-7277057
07,高雄市,黃武雄診所,3502084472,高雄市苓雅區五福里建國一路286號1樓,22.633082,120.326285,07-7275889
07,高雄市,宗天一皮膚科診所,3502084267,高雄市苓雅區日中里四維三路121-3號,22.61814,120.308009,07-5361100
07,高雄市,羅吉雄內外科診所,3502080787,高雄市苓雅區日中里興中一路259號,22.617463,120.310372,07-3348118
07,高雄市,信君耳鼻喉科診所,3502084230,高雄市苓雅區正大里武廟路196號,22.630064,120.332218,07-7168385
07,高雄市,惠霖診所,3502081971,高雄市苓雅區正大里建國一路111號,22.630958,120.334369,07-7159500
07,高雄市,新鴻遠診所,3507350211,高雄市苓雅區正大里建國一路113-2號,22.631322,120.33324,07-7229860
07,高雄市,林國坤診所,3502080894,高雄市苓雅區正大里建國一路115-4號,22.631492,120.332736,07-7131315
07,高雄市,鎮安診所,3502081846,高雄市苓雅區正大里輔仁路116號,22.630801,120.333556,07-7156166
07,高雄市,立佳診所,3507350024,高雄市苓雅區正大里輔仁路149號,22.63022,120.333015,07-7710966
07,高雄市,愛欣診所,3502083877,高雄市苓雅區正仁里正義路136號3樓,22.630855,120.339434,07-7497077
07,高雄市,林勁甫耳鼻喉科診所,3502081364,高雄市苓雅區正心里建國一路122號,22.632273,120.331327,07-7256515
07,高雄市,許桂庭外科診所,3502080732,高雄市苓雅區正文里福德二路47號,22.631399,120.327847,07-7222634
07,高雄市,國軍高雄總醫院附設民眾診療服務處,0502080015,高雄市苓雅區建軍路5號,22.627051,120.342027,07-7496751
07,高雄市,劉永豐診所,3502082209,高雄市苓雅區正義里建國一路15-1號,22.628869,120.340528,07-7492636
07,高雄市,邱康程內科診所,3507350097,高雄市苓雅區民主里建國一路336號,22.63293,120.324657,07-2231118
07,高雄市,天主教聖功醫療財團法人聖功醫院,1107350015,高雄市苓雅區民主里建國一路352號,22.633118,120.323927,07-2238153
07,高雄市,吳三江內科診所,3502084187,高雄市苓雅區民主里憲政路240號,22.6367,120.321586,07-2222088
07,高雄市,富元健康管理診所,3507350622,高雄市苓雅區永定街58號,22.618876,120.311864,07-5867227
07,高雄市,許耳鼻喉科診所,3502080036,高雄市苓雅區和煦里復興二路71號,22.621504,120.309633,07-3340225
07,高雄市,王勇智耳鼻喉科診所,3502081908,高雄市苓雅區林中里四維二路247號,22.621556,120.317143,07-7253460
07,高雄市,宇安診所,3507350060,高雄市苓雅區林泉里四維二路94-18號,22.622713,120.319622,07-7511779
07,高雄市,麗水診所,3502083715,高雄市苓雅區林泉里四維二路96之4號,22.62253,120.319066,07-7174989
07,高雄市,許國泰診所,3502081944,高雄市苓雅區林貴里和平二路316號,22.615746,120.322782,07-7213916
07,高雄市,英明診所,3507350462,高雄市苓雅區林貴里英明路153號之1,22.616951,120.324577,07-7273688
07,高雄市,吳國松心臟科診所,3502080670,高雄市苓雅區林興里三多二路283號,22.618714,120.319856,07-7614892
07,高雄市,安田婦產科診所,3502080214,高雄市苓雅區林興里三多二路353號,22.618227,120.318057,07-7255167
07,高雄市,盛田婦產科診所,3502080401,高雄市苓雅區城西里興中二路12號,22.615347,120.303165,07-3312686
07,高雄市,同慶診所,3502083902,高雄市苓雅區奏捷里同慶路78號,22.628354,120.322976,07-2260957
07,高雄市,高雄市立中醫醫院,0807350018,高雄市苓雅區奏捷里凱旋二路132號,22.625924,120.323972,07-7133186
07,高雄市,高雄市立民生醫院,0102080017,高雄市苓雅區奏捷里凱旋二路134號,22.626491,120.323736,07-7511131
07,高雄市,柯武鎮診所,3502081631,高雄市苓雅區奏捷里福壽街193號1樓,22.626418,120.32637,07-7131840
07,高雄市,邱外科醫院,1502081175,高雄市苓雅區苓雅里成功一路137號,22.614661,120.297304,07-3364131
07,高雄市,張清雲內科小兒科診所,3502080107,高雄市苓雅區苓雅里成功一路155號,22.61586,120.29684,07-3314071
07,高雄市,光田診所,3502081515,高雄市苓雅區苓雅里苓雅二路199號,22.616183,120.296218,07-3338336
07,高雄市,信義醫療財團法人高雄基督教醫院,1202080029,高雄市苓雅區苓雅里華新街86號,22.613969,120.296421,07-3321111
07,高雄市,高雄市立凱旋醫院,0102080026,高雄市苓雅區凱旋二路130號,22.62519,120.324271,07-7513171
07,高雄市,小太陽診所,3502083911,高雄市苓雅區凱旋里和平一路150號,22.627631,120.319158,07-2267753
07,高雄市,健維診所,3502081793,高雄市苓雅區普天里福建街25號,22.618763,120.316578,07-3344637
07,高雄市,向生診所,3502083680,高雄市苓雅區普照里復興二路88號,22.618524,120.311187,07-3319393
07,高雄市,信基骨外科診所,3507350275,高雄市苓雅區華堂里林森二路11-3、11-4號,22.616531,120.307858,07-3383886
07,高雄市,阮綜合醫院,0902080013,高雄市苓雅區鼓中里成功一路162號,22.615583,120.297377,07-3351121
07,高雄市,徐獨立診所,3502080929,高雄市苓雅區福人里武慶三路144號,22.621423,120.331734,07-7133284
07,高雄市,童春診所,3502083546,高雄市苓雅區福人里武慶三路98號,22.621604,120.33152,07-7210983
07,高雄市,五塊厝診所,3502080011,高雄市苓雅區福東里三多一路141號,22.623028,120.33239,07-7614545
07,高雄市,懷恩婦產科診所,3502083377,高雄市苓雅區福海里三多一路205號,22.622467,120.33098,07-7273738
07,高雄市,林文樹小兒科內科診所,3502080027,高雄市苓雅區福康里武慶三路89號,22.62148,120.331532,07-7611286
07,高雄市,陳清裕小兒科診所,3502081499,高雄市苓雅區福隆里三多一路327號,22.621666,120.328586,07-7517221
07,高雄市,維謙耳鼻喉科診所,3507350668,高雄市苓雅區英明路號199號1樓,22.618677,120.323731,07-7276617
07,高雄市,茂林區衛生所,2342250017,高雄市茂林區茂林里8-4號,22.88641,120.664111,07-6801046
07,高雄市,高雄市茄萣區衛生所,2342170014,高雄市茄萣區吉定里濱海路二段1號,22.88801,120.185222,07-6989275
07,高雄市,顏診所,3542170037,高雄市茄萣區茄萣路１段151號,22.891354,120.184787,07-6901481
07,高雄市,茄萣好診所,3507170044,高雄市茄萣區保定里仁愛路二段72號1樓,22.895879,120.185188,07-6900208
07,高雄市,醫生館診所,3507170017,高雄市茄萣區嘉樂里茄萣路二段121號,22.899543,120.183081,07-6907088
07,高雄市,華榮診所,3507170035,高雄市茄萣區嘉樂里仁愛路三段２巷75號1樓,22.899933,120.188381,07-6909097
07,高雄市,永恩診所,3542171374,高雄市茄萣區茄萣路二段270、270-1號,22.901974,120.183067,07-6921055
07,高雄市,吳南寬診所,3542171338,高雄市茄萣區白砂路257號1樓,22.913516,120.185132,07-6921275
07,高雄市,加昇診所,3542171383,高雄市茄萣區仁愛路三段56巷1-5號、2號1樓,22.900589,120.184745,07-6900268
07,高雄市,桃源區衛生所,2342260013,高雄市桃源區桃源里南進巷188之1號,23.158453,120.764176,07-6861126
07,高雄市,梓安診所,3542201466,高雄市梓官區中正路71號,22.726718,120.258022,07-6177429
07,高雄市,梓官區衛生所,2342200017,高雄市梓官區公館路45號,22.764612,120.267571,07-6177331
07,高雄市,李宗恩內科診所,3507200056,高雄市梓官區光明路106號,22.732343,120.250698,07-6176338
07,高雄市,嘉田診所,3507200038,高雄市梓官區進學路124號,22.760468,120.263373,07-6107738
07,高雄市,崇安診所,3542200307,高雄市梓官區進學路9號,22.760548,120.266419,07-6179387
07,高雄市,蔡政達診所,3542200272,高雄市梓官區廣澤路２號２樓,22.729702,120.255346,07-6173295
07,高雄市,藍偉宏診所,3542100124,高雄市鳥松區學堂路105-1號,22.658334,120.391828,07-7338715
07,高雄市,劉金龍診所,3542100062,高雄市鳥松區學堂路78-5號,22.658363,120.390332,07-7313935
07,高雄市,聯安診所,3542101185,高雄市鳥松區中正路343號,22.662286,120.363404,07-7335076
07,高雄市,高雄長庚紀念醫院,1142100017,高雄市鳥松區大埤路123號,22.649847,120.356029,07-7317123
07,高雄市,健康湖內診所,3507160020,高雄市湖內區保生路168號1樓,22.907246,120.222363,07-6998699
07,高雄市,高雄市湖內區衛生所,2342160018,高雄市湖內區湖中路203號,22.905245,120.222385,07-6993009
07,高雄市,蕭志文醫院,1502060014,高雄市新興區七賢一路102號,22.633944,120.314331,07-2240252
07,高雄市,惠仁醫院,1502060149,高雄市新興區大明里中山一路67之2號,22.62986,120.301466,07-2010196
07,高雄市,原祿骨科醫院,1502060112,高雄市新興區中正三路52號,22.631122,120.309113,07-2371013
07,高雄市,毛重富耳鼻喉科診所,3502061139,高雄市新興區中東里復興一路107之1號,22.632897,120.308082,07-2350168
07,高雄市,周玉祺診所,3507330237,高雄市新興區文昌里六合路157號,22.631941,120.31485,07-2262128
07,高雄市,家佳診所,3502062976,高雄市新興區文昌里和平一路193號,22.630779,120.317573,07-2234383
07,高雄市,張正國診所,3507330228,高雄市新興區正氣里忠孝一路19號1樓,22.622361,120.307016,07-2161238
07,高雄市,雄大診所,3507330595,高雄市新興區民族二路90號2樓,22.633417,120.313877,07-2232000
07,高雄市,新華醫院,1502061208,高雄市新興區長驛里七賢二路97號,22.633849,120.298417,07-2876080
07,高雄市,吳國欽內科診所,3502063302,高雄市新興區長驛里民主路71號1樓,22.632598,120.298658,07-2870789
07,高雄市,七賢脊椎外科,1507330011,高雄市新興區南港里七賢一路420號,22.634512,120.306079,07-2385878
07,高雄市,馬敘強診所,3507330291,高雄市新興區振成里林森一路37-1號1樓,22.623906,120.305021,07-2817220
07,高雄市,蘇榮茂診所,3502062725,高雄市新興區順昌里民族二路76號1至4樓,22.633057,120.313835,07-2231243
07,高雄市,王育彥耳鼻喉科診所,3502061059,高雄市新興區新江里七賢一路476號,22.634651,120.304306,07-2352268
07,高雄市,健和診所,3502063115,高雄市新興區德生里五福一路140之一號,22.627026,120.31219,07-2299968
07,高雄市,偉峰診所,3502063259,高雄市新興區德望里復興一路16號,22.628446,120.304592,07-2222123
07,高雄市,紀耳鼻喉科診所,3502060534,高雄市新興區蕉園里林森一路154-1號,22.629749,120.304734,07-2719087
07,高雄市,忠孝泌尿專科醫院,1507330039,高雄市新興區忠孝一路２５５號Ｂ１－９樓,22.631446,120.305926,07-2361761
07,高雄市,蘇素環神經科診所,3502061577,高雄市新興區忠孝一路508號,22.636205,120.306567,07-2376661
07,高雄市,容康診所,3507330684,高雄市新興區中正三路63、65號1樓,22.631084,120.302663,07-2413388
07,高雄市,劉應炎診所,3502010329,高雄市鹽埕區中山里大公路98號100號,22.62789,120.282514,07-5511051
07,高雄市,施家庭醫學科診所,3502010427,高雄市鹽埕區中山里新興街118號,22.627065,120.282072,07-5324460
07,高雄市,盧榮坤小兒科診所,3502010463,高雄市鹽埕區河濱里莒光街137號,22.622795,120.284122,07-5315657
07,高雄市,汪昇勳耳鼻喉科診所,3502010507,高雄市鹽埕區瀨南街225之1號1樓,22.628022,120.284116,07-5216655
07,高雄市,康得診所,3507280081,高雄市鹽埕區五福四路106、108號1樓,22.626238,120.278657,07-5319191
07,高雄市,安心銘燦皮膚科診所,3502072043,高雄市前金區社東里民生二路129號1樓,22.624887,120.295202,07-2618500
07,高雄市,大郭診所,3507340199,高雄市前金區林投里成功一路412號,22.624056,120.295621,07-2412233
07,高雄市,宏祐診所,3502072258,高雄市前金區長興里中正四路124號,22.63016,120.297467,07-2856777
07,高雄市,吉田耳鼻喉科診所,3507340028,高雄市前金區後金里自強一路63號B1至2樓,22.631042,120.292936,07-2113165
07,高雄市,上琳醫院,1507340026,高雄市前金區後金里自強一路67號,22.631197,120.292903,07-2828668
07,高雄市,高雄市立大同醫院,0102070020,高雄市前金區復元里中華三路68號,22.626989,120.297205,07-2911101
07,高雄市,余國榮耳鼻咽喉科診所,3502070825,高雄市前金區中華三路227號1樓,22.633792,120.293929,07-2167126
07,高雄市,高大美杏生醫院,1507310037,高雄市楠梓區大學東路1號,22.724997,120.289635,07-3658885
07,高雄市,小學堂兒科診所,3507310566,高雄市楠梓區大學南路232號,22.732344,120.292196,07-3655601
07,高雄市,金安心醫院,1507310019,高雄市楠梓區加昌路606號,22.715882,120.29898,07-3649890
07,高雄市,季建華耳鼻喉科診所,3507310351,高雄市楠梓區加昌路618號,22.71554,120.298018,07-3663331
07,高雄市,長春醫院,1502041108,高雄市楠梓區右昌街331號1-5樓,22.714272,120.2891,07-3612995
07,高雄市,康東原診所,3502040685,高雄市楠梓區右昌街376號,22.715042,120.28898,07-3610115
07,高雄市,仁安診所,3502042036,高雄市楠梓區宏昌里後昌路1182號,22.717558,120.290677,07-3684128
07,高雄市,吉豐耳鼻喉科診所,3502040318,高雄市楠梓區建楠路143號,22.726814,120.326588,07-3515056
07,高雄市,高耿耀診所,3502040596,高雄市楠梓區建楠路１79號1樓,22.726845,120.325804,07-3529803
07,高雄市,九大聯合診所,3502040747,高雄市楠梓區建楠路２15號１-2樓,22.726894,120.324856,07-3531510
07,高雄市,台灣中油股份有限公司煉製事業部國光聯合診所,2702040071,高雄市楠梓區後昌路546巷2號,22.709584,120.301102,07-5824141-6460
07,高雄市,聖昌診所,3502040809,高雄市楠梓區後昌路773號,22.710221,120.295993,07-3639666
07,高雄市,顏威裕醫院,1502040076,高雄市楠梓區後昌路826號,22.711168,120.295692,07-3639053
07,高雄市,郭士彰耳鼻喉科診所,3502041824,高雄市楠梓區後昌路862-1號,22.712391,120.294621,07-3683235
07,高雄市,歐慈德內科診所,3502040078,高雄市楠梓區後昌路915號,22.71339,120.293728,07-3633900
07,高雄市,賴聰宏小兒科診所,3502040354,高雄市楠梓區軍校路664號,22.70693,120.293054,07-3630769
07,高雄市,右昌聯合醫院,1502041117,高雄市楠梓區軍校路930號,22.713799,120.290879,07-3643388
07,高雄市,孫欲珍小兒科家庭醫學科診所,3502041860,高雄市楠梓區海專路237號1樓,22.72484,120.312595,07-3613709
07,高雄市,林邑樵耳鼻喉科診所,3507310164,高雄市楠梓區益群路6號1樓,22.72363,120.297783,07-3600819
07,高雄市,慕恩診所,3507310208,高雄市楠梓區高楠公路1762號1樓,22.72852,120.321627,07-3638188
07,高雄市,陳其新診所,3502040569,高雄市楠梓區楠梓路28號,22.728607,120.329956,07-3521077
07,高雄市,健仁醫院,1502040021,高雄市楠梓區楠陽路136號,22.72362,120.328988,07-3517166
07,高雄市,日月光半導體製造股份有限公司附設員工醫務室,3402040512,高雄市楠梓區經五路123號6樓,22.722204,120.3014,07-3617131
07,高雄市,新家恩診所,3507310600,高雄市楠梓區旗楠路883-8號1樓,22.741502,120.338018,07-3551133
07,高雄市,建霖診所,3507310342,高雄市楠梓區鳳楠路248號,22.726123,120.329623,07-3523006
07,高雄市,康兒診所,3507310539,高雄市楠梓區德民路1003-3號1,22.71921,120.286572,07-3639263
07,高雄市,廣佑安診所,3502042248,高雄市楠梓區德民路782號,22.721993,120.292606,07-3605998
07,高雄市,王建安小兒科診所,3502042223,高雄市楠梓區德民路949號,22.720534,120.289114,07-3600680
07,高雄市,杏美診所,3507310217,高雄市楠梓區德祥路149號1樓,22.726586,120.309347,07-3645599
07,高雄市,楊宗憲診所,3507310271,高雄市楠梓區德賢路165號1.2樓,22.726592,120.306568,07-3663511
07,高雄市,陳顯明診所,3502040667,高雄市楠梓區德賢路265號,22.726113,120.303945,07-3648127
07,高雄市,沐仁耳鼻喉科診所,3507310486,高雄市楠梓區德賢路530巷29號,22.726814,120.326588,07-3652233
07,高雄市,弘達診所,3507310324,高雄市楠梓區德賢路573號1樓,22.725169,120.299886,07-3655995
07,高雄市,徐嘉賢診所,3507310548,高雄市楠梓區藍昌路413號,22.728701,120.291698,07-3613338
07,高雄市,馨美診所,3542151532,高雄市路竹區大社路157號,22.864929,120.263458,07-6074999
07,高雄市,祐民診所,3542151498,高雄市路竹區中和街180號,22.858903,120.257628,07-6072211
07,高雄市,長星診所,3542150348,高雄市路竹區中興路237號,22.862939,120.262155,07-6973411
07,高雄市,溫賀睿和醫院,1542150033,高雄市路竹區延平路57號,22.857968,120.258689,07-6965136
07,高雄市,富竹診所,3507150113,高雄市路竹區中興路12號．14號1樓,22.860921,120.260642,07-6960995
07,高雄市,蘇玉良診所,3542151587,高雄市路竹區大同路326號,22.858511,120.266572,07-6968248
07,高雄市,高新醫院,1542150042,高雄市路竹區中山路627號,22.865456,120.257157,07-6975903
07,高雄市,蘇進添小兒科診所,3542151596,高雄市路竹區中興路236號,22.857113,120.262745,07-6971769
07,高雄市,仁澤診所,3542151676,高雄市路竹區國昌路331號,22.861698,120.255696,07-6076000
07,高雄市,高雄市路竹區衛生所,2342150012,高雄市路竹區國昌路86巷22號,22.855301,120.258937,07-6962449
07,高雄市,祐安小兒科診所,3502022114,高雄市鼓山區九如四路1410號,22.658166,120.279236,07-5318616
07,高雄市,腎美診所,3502020549,高雄市鼓山區中華一路336號1至2樓及6樓,22.662277,120.292203,07-5544900
07,高雄市,高雄市立聯合醫院,0102020011,高雄市鼓山區中華一路976號B1至9樓,22.654924,120.291698,07-5552565
07,高雄市,禾家安診所,3507290890,高雄市鼓山區文信路252號,22.664667,120.299358,07-5526355
07,高雄市,朱光興診所,3507290318,高雄市鼓山區文信路256號1樓,22.664736,120.299177,07-5227188
07,高雄市,正大醫院,1502020065,高雄市鼓山區民族里鼓山三路128-9號,22.663874,120.279559,07-5823989
07,高雄市,新聖明診所,3507290425,高雄市鼓山區民族里鼓山三路52號1-2樓,22.663229,120.279019,07-5313755
07,高雄市,為好診所,3507290336,高雄市鼓山區忠正里九如四路957號,22.655795,120.278766,07-5215489
07,高雄市,倫詠診所,3507290505,高雄市鼓山區明倫路458號,22.6641,120.297901,07-5501193
07,高雄市,宏澤耳鼻喉科診所,3502021902,高雄市鼓山區明誠里文信路238號,22.664691,120.300396,07-5552533
07,高雄市,吳展名診所,3502022203,高雄市鼓山區明誠里明誠三路598號,22.661335,120.297421,07-5535658
07,高雄市,建元診所,3502020503,高雄市鼓山區明誠里裕誠路1143號,22.665634,120.297679,07-5543957
07,高雄市,家安診所,3502020316,高雄市鼓山區明誠里裕誠路1515號,22.664864,120.295186,07-5541515
07,高雄市,敏德診所,3507290845,高雄市鼓山區美術北三路105號1樓,22.662438,120.289063,07-5228928
07,高雄市,建生診所,3502022150,高雄市鼓山區美術東四路325號,22.660824,120.290101,07-5555366
07,高雄市,國立中山大學附設醫務室,2402020519,高雄市鼓山區桃源里蓮海路70號東1003室,22.62646,120.265991,07-5250115
07,高雄市,瑞芳耳鼻喉科診所,3502020530,高雄市鼓山區華豊里華榮路298號,22.666278,120.297016,07-5527887
07,高雄市,柯文良小兒科診所,3502020254,高雄市鼓山區華豊里華榮路352號,22.667704,120.296152,07-5535760
07,高雄市,華榮謝耳鼻喉科診所,3502022196,高雄市鼓山區華榮路205號,22.6655,120.296747,07-5546226
07,高雄市,鄭廣仁小兒科診所,3502022230,高雄市鼓山區華榮路207號,22.665538,120.296747,07-5555350
07,高雄市,祐琳小兒科診所,3502021733,高雄市鼓山區華豐里裕誠路1180號,22.666021,120.297486,07-5551870
07,高雄市,晴朗親子診所,3507290943,高雄市鼓山區裕誠路2050號,22.662854,120.294041,07-5223396
07,高雄市,黃柏翰皮膚科診所,3502021948,高雄市鼓山區龍子里大順一路823號,22.655283,120.300259,07-5501711
07,高雄市,吳錦明婦產科診所,3507290854,高雄市鼓山區華榮路409號,22.668735,120.294656,07-5226670
07,高雄市,明新診所,3502021920,高雄市鼓山區龍子里裕誠路1940號,22.659201,120.294006,07-5551880
07,高雄市,生安婦產小兒科醫院,1507290012,高雄市鼓山區龍水里美術東二路177號,22.662316,120.28831,07-5223138
07,高雄市,劉水壽診所,3507290443,高雄市鼓山區鼓山二路166-7號,22.637174,120.28088,07-5211891
07,高雄市,嘉樂家醫診所,3507290925,高雄市鼓山區美術東五路141號,22.658846,120.290696,07-5521542
07,高雄市,慶豐診所,3502021715,高雄市鼓山區華寧1號,22.666408,120.293094,07-5542285
07,高雄市,重安醫院,1542030018,高雄市旗山區大德里大仁街18號,22.88302,120.484821,07-6618471
07,高雄市,衛生福利部旗山醫院,0142030019,高雄市旗山區大德里中學路60號,22.880693,120.483277,07-6613811
07,高雄市,林博仁診所,3542030403,高雄市旗山區延平一路229號,22.894926,120.483716,07-6621000
07,高雄市,溪洲醫院,1542030116,高雄市旗山區延平一路408．412號,22.882318,120.488155,07-6621985
07,高雄市,民愛診所,3542030547,高雄市旗山區復新街15號,22.884792,120.482544,07-6617221
07,高雄市,宋俊輝診所,3507030125,高雄市旗山區中正路232號1樓,22.89066,120.480301,07-6626336
07,高雄市,格林耳鼻喉科診所,3507030090,高雄市旗山區大德里大同街39號,22.883507,120.485107,07-6623958
07,高雄市,王致瑋小兒科診所,3542031731,高雄市旗山區新山里延平一路677號1樓,22.88389,120.483215,07-6629922
07,高雄市,嘉惠診所,3507030072,高雄市旗山區大德里大同街42號,22.883289,120.484803,07-6621900
07,高雄市,聖星診所,3507030116,高雄市旗山區延平一路689號,22.883617,120.483223,07-6622555
07,高雄市,晴美旗后診所,3507370035,高雄市旗津區中華里旗津三路962巷2號,22.607534,120.270472,07-5710522
07,高雄市,白鋒釗診所,3502100079,高雄市旗津區北汕里中洲三路99-1號,22.598161,120.280224,07-5718239
07,高雄市,高雄市立旗津醫院(委託財團法人私立高雄醫學大學經營),1307370011,高雄市旗津區南汕里旗港路33號,22.590209,120.285113,07-5711188
07,高雄市,徐誌忠內科診所,3502100097,高雄市旗津區振興里中洲三路775號,22.61192,120.269795,07-5710063
07,高雄市,賴顯忠診所,3502101101,高雄市旗津區商港街14巷92弄18號,22.576063,120.295068,07-5718773
07,高雄市,國民小兒科診所,3542010723,高雄市鳳山區中正路37號,22.625259,120.359213,07-7427925
07,高雄市,文華耳鼻喉科診所,3542014856,高雄市鳳山區文化路117號1樓,22.634284,120.351927,07-7902555
07,高雄市,大欣診所,3507010025,高雄市鳳山區文化路25號1樓,22.633281,120.357799,07-7993009
07,高雄市,文德診所,3507010150,高雄市鳳山區文衡路301號1-2樓,22.64017,120.353537,07-7805189
07,高雄市,陳柏蒼耳鼻喉科診所,3542013984,高雄市鳳山區文衡路480號,22.641076,120.35029,07-7775388
07,高雄市,董石城診所,3507011004,高雄市鳳山區文龍東路353號,22.640405,120.365052,07-7407636
07,高雄市,文山長慶小兒科診所,3507010454,高雄市鳳山區文龍東路738號1樓,22.64282,120.353965,07-7774098
07,高雄市,德恩診所,3542012049,高雄市鳳山區王生明路133號,22.619879,120.362635,07-7194722
07,高雄市,高內兒科診所,3542010036,高雄市鳳山區民生路81號,22.626352,120.360888,07-7424597
07,高雄市,陳重志聯合診所,3542014098,高雄市鳳山區光復路一段139號,22.629114,120.350668,07-7427329
07,高雄市,郭崇志診所,3542014114,高雄市鳳山區光復路一段171號,22.62913,120.349913,07-7100192
07,高雄市,上承診所,3507011077,高雄市鳳山區青年路一段367號,22.627189,120.349073,07-7102666
07,高雄市,高丹榕診所,3507010650,高雄市鳳山區光復路二段223號1樓,22.629275,120.344787,07-7475556
07,高雄市,大東醫院,1542010052,高雄市鳳山區光遠路171-2號,22.625359,120.362012,07-7463762
07,高雄市,正宏耳鼻喉科診所,3507010301,高雄市鳳山區中山東路563號,22.625511,120.361199,07-7451196
07,高雄市,林錦浩黃正宗耳鼻喉科診所,3542011471,高雄市鳳山區光遠路260號,22.625558,120.362291,07-7419880
07,高雄市,新高鳳醫院,1507010014,高雄市鳳山區光遠路360號1-7樓,22.626208,120.35883,07-7472320
07,高雄市,王楩楠內兒科診所,3542010054,高雄市鳳山區光遠路82號,22.624088,120.366202,07-7460334
07,高雄市,賴其盈小兒科診所,3507010883,高雄市鳳山區自由路136號之1號,22.625793,120.350742,07-7107998
07,高雄市,優生婦產科醫院,1542010141,高雄市鳳山區自由路189號,22.625567,120.35099,07-7478629
07,高雄市,仁惠婦幼醫院,1542011246,高雄市鳳山區自由路81號,22.625812,120.35335,07-7104397
07,高雄市,柏雅診所,3507011193,高雄市鳳山區青年路二段30號,22.628616,120.349389,07-7465832
07,高雄市,葉耳鼻喉科診所,3542014927,高雄市鳳山區青年路二段373號1樓,22.641719,120.35114,07-7778783
07,高雄市,黃大沅小兒科診所,3542012076,高雄市鳳山區青年路二段468號,22.644126,120.351512,07-7679299
07,高雄市,牛伯伯兒科診所,3507010703,高雄市鳳山區建國路三段338號1樓及夾層,22.637968,120.349511,07-7808123
07,高雄市,詹文祥耳鼻喉科診所,3507010169,高雄市鳳山區曹公路14號1樓,22.628475,120.357322,07-7425003
07,高雄市,博新診所,3507010829,高雄市鳳山區博愛路19號1樓及21號1樓,22.626315,120.374399,07-7019595
07,高雄市,鳳山全民診所,3542011800,高雄市鳳山區博愛路328號1-2樓,22.630827,120.368622,07-7037038
07,高雄市,聖壹診所,3507010678,高雄市鳳山區瑞興路482號1樓及490號1樓,22.630898,120.371765,07-7014755
07,高雄市,林誓揚診所,3542012469,高雄市鳳山區經武路18號,22.62618,120.362213,07-7482228
07,高雄市,高雄市立鳳山醫院,1142010518,高雄市鳳山區經武路42號,22.628564,120.363086,07-7418151
07,高雄市,誠愛診所,3507010794,高雄市鳳山區誠愛路1號1樓,22.60881,120.358804,07-7556008
07,高雄市,欣診所,3507010801,高雄市鳳山區誠義路31號1-2樓,22.608633,120.360382,07-7537532
07,高雄市,陳茂展診所,3542011882,高雄市鳳山區鳳松路61號1-3樓,22.634564,120.36152,07-7107302
07,高雄市,江泰興耳鼻喉科診所,3542010090,高雄市鳳山區澄清路97號,22.628952,120.344307,07-7422296
07,高雄市,楊誠恕診所,3507010954,高雄市鳳山區工協街４７號１樓,22.629694,120.371695,07-7016090
07,高雄市,文衡診所,3542011551,高雄市鳳山區文衡路344號,22.640205,120.355006,07-7768185
07,高雄市,九大五甲診所,3507010641,高雄市鳳山區五甲二路348號1-2樓,22.599526,120.337587,07-7276789
07,高雄市,聖恩診所,3507010632,高雄市鳳山區五甲二路395號、397號1樓,22.597559,120.335452,07-7219819
07,高雄市,陳弘列內兒科診所,3542010563,高雄市鳳山區五甲二路697號,22.593579,120.329033,07-8111227
07,高雄市,家康診所,3542014687,高雄市鳳山區五甲三路111號1樓,22.59138,120.326055,07-8118967
07,高雄市,李威德診所,3542012352,高雄市鳳山區五甲三路48號1樓,22.592924,120.327309,07-8227676
07,高雄市,新石津診所,3542014785,高雄市鳳山區自強二路112號,22.5959,120.327626,07-7682288
07,高雄市,錦明小兒科診所,3542011364,高雄市鳳山區自強二路171號,22.597079,120.326915,07-7633688
07,高雄市,朝仁耳鼻喉科診所,3507010374,高雄市鳳山區自強二路172號1樓,22.597028,120.327256,07-8110527
07,高雄市,和成診所,3507010963,高雄市鳳山區和成路71號1-2樓,22.590007,120.337929,07-7961900
07,高雄市,何鴻鈞診所,3542011864,高雄市鳳山區林森路324號,22.596792,120.338004,07-7716819
07,高雄市,健元內科診所,3542014552,高雄市鳳山區武慶二路126號,22.612755,120.332879,07-7164100
07,高雄市,聯欣診所,3507011228,高雄市鳳山區高鳳一路91號,22.588038,120.366771,07-7926390
07,高雄市,凱旋診所,3542011382,高雄市鳳山區凱旋路261號,22.613218,120.349155,07-7637639
07,高雄市,瑞文診所,3507010927,高雄市鳳山區新富路330號1樓,22.612684,120.342606,07-7675688
07,高雄市,韓台基診所,3542011506,高雄市鳳山區新富路333號,22.613261,120.344944,07-7662525
07,高雄市,瑞合耳鼻喉科診所,3507011246,高雄市鳳山區保泰路2-2號1-2樓,22.598928,120.326673,07-7688800
07,高雄市,禾恩診所,3507011237,高雄市鳳山區海洋二路39號1樓,22.610568,120.346513,07-7650908
07,高雄市,蘇河名診所,3507011308,高雄市鳳山區海涵路581號,22.592098,120.344106,07-7923267
07,高雄市,惠德醫院,1542011237,高雄市鳳山區福祥街81號,22.592033,120.325113,07-8126000
07,高雄市,杏和醫院,1542011282,高雄市鳳山區五甲二路385、387、389、391號B1-9樓、470號1樓,22.597685,120.335608,07-7613111
07,高雄市,瑞良診所,3507011219,高雄市鳳山區瑞隆東路212號,22.606354,120.340154,07-7151118
07,高雄市,元富診所,3542014525,高雄市鳳山區新富路237號,22.612956,120.33883,07-7638666
07,高雄市,泰和醫院,1542110020,高雄市橋頭區成功路101號,22.758759,120.309606,07-6111128
07,高雄市,陳性良診所,3542110326,高雄市橋頭區隆豐路220號,22.753717,120.307143,07-6113516
07,高雄市,高雄市橋頭區衛生所,2342110018,高雄市橋頭區隆豐路5號,22.7573,120.305453,07-6113516
07,高雄市,孫琮淵診所,3542111378,高雄市橋頭區成功南路79號,22.75391,120.311868,07-6130567
07,高雄市,張民傑診所,3507110020,高雄市橋頭區新興路95號,22.758658,120.307378,07-6118991
07,高雄市,正心診所,3542111396,高雄市橋頭區隆豐路170號1樓,22.75457,120.306432,07-6128080
07,高雄市,廖俊安診所,3542111369,高雄市橋頭區樹德路63號,22.760237,120.304503,07-6115040
07,高雄市,高雄市燕巢區衛生所,2342120014,高雄市燕巢區中興路2號,22.79303,120.361659,07-6161148
07,高雄市,吳宏彰診所,3542121356,高雄市燕巢區安招里中民路861號,22.792225,120.353072,07-6163160
07,高雄市,燕巢家庭診所,3507120044,高雄市燕巢區南燕里中興路16號,22.792601,120.361773,07-6161810
07,高雄市,高雄市彌陀區衛生所,2342190016,高雄市彌陀區中華路一巷五弄一號,22.782146,120.250575,07-6175307
43,屏東縣,屏基醫療財團法人屏東基督教醫院,1143010012,屏東縣屏東市華山里大連路60號,22.682041,120.502588,08-7363026
43,屏東縣,衛生福利部屏東醫院,0143010011,屏東縣屏東市興樂里自由路270號,22.673264,120.495546,08-7363011
43,屏東縣,國軍高雄總醫院屏東分院附設民眾診療服務處,0543010019,屏東縣屏東市龍華里大湖路58巷22號,22.633503,120.487574,08-7560756
43,屏東縣,寶建醫療社團法人寶建醫院,0943010017,屏東縣屏東市空翔里中山路123號,22.681802,120.484426,08-7665995
43,屏東縣,優生醫療社團法人優生醫院,0943010035,屏東縣屏東市華山里瑞光路三段103號,22.686112,120.50391,08-7382222
43,屏東縣,安和醫療社團法人安和醫院,0943010026,屏東縣屏東市崇蘭里自由路598號,22.683409,120.483684,08-7651828
43,屏東縣,國仁醫院,1543010109,屏東縣屏東市瑞光里民生東路12-2號,22.658297,120.514591,08-7223000
43,屏東縣,民眾醫院,1543010190,屏東縣屏東市泰安里忠孝路120-1號,22.676407,120.487604,08-7325455
43,屏東縣,蔡長禧診所,3543011135,屏東縣屏東市長春里民生路12之16號1樓,22.665668,120.501413,08-7227766
43,屏東縣,芯禾診所,3543014823,屏東縣屏東市永城里青島街135號,22.67822,120.481979,08-7321060
43,屏東縣,哲明診所,3543010745,屏東縣屏東市興樂里林森路100號,22.673439,120.491337,08-7329410
43,屏東縣,正大聯合診所,3543013291,屏東縣屏東市斯文里中正路191-1號,22.679825,120.491104,08-7327015
43,屏東縣,前進診所,3543014690,屏東縣屏東市前進里清進路736號,22.651489,120.464288,08-7517176
43,屏東縣,小太陽兒科聯合診所,3543014565,屏東縣屏東市豐田里建豐路169號,22.675816,120.505348,08-7379591
43,屏東縣,張俊智診所,3543013577,屏東縣屏東市博愛路215號,22.678294,120.481001,08-7667010
43,屏東縣,林志忠診所,3543011671,屏東縣屏東市中正里華正路265號,22.684382,120.498083,08-7364741
43,屏東縣,海豐診所,3543013568,屏東縣屏東市海豐里海豐街36－5號,22.700854,120.510968,08-7387135
43,屏東縣,梁宏志診所,3543011911,屏東縣屏東市溝美里自由路379-4號,22.680544,120.495431,08-7364494
43,屏東縣,河南診所,3543010085,屏東縣屏東市明正里中正路95號,22.67259,120.488798,08-7322066
43,屏東縣,林長興診所,3543013399,屏東縣屏東市豐源里廣東路72號,22.67142,120.499206,08-7236266
43,屏東縣,宋的祥診所,3543014172,屏東縣屏東市北興里公裕街158號,22.689108,120.491234,08-7651318
43,屏東縣,曾競鋒診所,3543014332,屏東縣屏東市崇蘭里廣東路1020號1樓,22.68766,120.484936,08-7324355
43,屏東縣,健丞診所,3543013746,屏東縣屏東市崇武里華盛街1－30號 ,22.66411,120.478624,08-7530011
43,屏東縣,健康123診所,3543014798,屏東縣屏東市潭墘里大同北路249號,22.681526,120.473741,08-7321216
43,屏東縣,崇蘭診所,3543014065,屏東縣屏東市潭墘里大同北路47號,22.679984,120.474799,08-7332716
43,屏東縣,大豐診所,3543014592,屏東縣屏東市安鎮里大豐路9號1樓,22.666519,120.472219,08-7539333
43,屏東縣,林連風診所,3543013899,屏東縣屏東市平和里民權路46號,22.671721,120.491793,08-7336168
43,屏東縣,博醫診所,3543014403,屏東縣屏東市崇蘭里廣東路1013號1樓,22.687374,120.483202,08-7325992
43,屏東縣,江耳鼻喉科診所,3543011555,屏東縣屏東市端正里中華路49號,22.67237,120.489864,08-7669471
43,屏東縣,屏東縣屏東市衛生所,2343010017,屏東縣屏東市厚生里建國路92號,22.665065,120.482435,08-7538701
43,屏東縣,安泰醫療社團法人潮州安泰醫院,0943020013,屏東縣潮州鎮三星里四維路162號,22.55403,120.546964,08-7800888
43,屏東縣,大展診所,3543022129,屏東縣潮州鎮中山路145號,22.54924,120.539069,08-7893155
43,屏東縣,王尹星診所,3543022058,屏東縣潮州鎮朝昇路267號,22.55616,120.540859,08-7800258
43,屏東縣,大福診所,3543022236,屏東縣潮州鎮中山路89號 ,22.549496,120.540923,08-7895556
43,屏東縣,愛生診所,3543022156,屏東縣潮州鎮同榮里中山路107號,22.549474,120.540486,08-7882355
43,屏東縣,大華診所,3543020509,屏東縣潮州鎮興隆路108號,22.542476,120.540561,08-7801002
43,屏東縣,張耳鼻喉科診所,3543021800,屏東縣潮州鎮新榮里新生路33號,22.548074,120.537882,08-7882248
43,屏東縣,賴信宏耳鼻喉科診所,3543021962,屏東縣潮州鎮新生里公園路42、46、48號,22.552809,120.537062,08-7886201
43,屏東縣,洪福枝診所,3543022138,屏東縣潮州鎮新生路72-2號,22.549063,120.538788,08-7883702
43,屏東縣,黃志忠診所,3543020438,屏東縣潮州鎮中山路33號,22.549496,120.543111,08-7884486
43,屏東縣,屏東縣潮州鎮衛生所,2343020013,屏東縣潮州鎮三共里永坤路107號,22.553018,120.542229,08-7882131
43,屏東縣,輔英科技大學附設醫院,1343030018,屏東縣東港鎮興台里中山路5號,22.465198,120.452734,08-8323146
43,屏東縣,安泰醫療社團法人安泰醫院,0943030019,屏東縣東港鎮興東里中正路一段210號,22.474326,120.459127,08-8329966
43,屏東縣,李澤診所,3543031600,屏東縣東港鎮新勝里中山路36號,22.466408,120.451164,08-8323560
43,屏東縣,家欣診所,3543031566,屏東縣東港鎮興東里光復路一段210號,22.468719,120.455181,08-8330810
43,屏東縣,正輝耳鼻喉科診所,3543031619,屏東縣東港鎮興東里中正路159號,22.472707,120.456559,08-8353183
43,屏東縣,林瑛豐兒科診所,3543031520,屏東縣東港鎮朝安里朝隆路88號,22.468737,120.446685,08-8339868
43,屏東縣,蔡清鄉診所,3543031468,屏東縣東港鎮新勝里中山路50號,22.466633,120.450721,08-8322475
43,屏東縣,宋耳鼻喉科診所,3543030274,屏東縣東港鎮新勝里光復路二段88號,22.466439,120.452766,08-8353681
43,屏東縣,東霖耳鼻喉科診所,3543030283,屏東縣東港鎮興台里中山路1-3號,22.464946,120.454318,08-8326000
43,屏東縣,張憲爵診所,3543030309,屏東縣東港鎮新勝里新勝街168號,22.467943,120.451847,08-8326035
43,屏東縣,嘉恩耳鼻喉科診所,3543031459,屏東縣東港鎮興東里中正路一段27號,22.470842,120.453751,08-8326828
43,屏東縣,德鴻吳小兒科診所,3543031539,屏東縣東港鎮朝安里新生三路226號,22.467621,120.444967,08-8329454
43,屏東縣,新仁愛診所,3543031440,屏東縣東港鎮興台里中山路23號,22.465792,120.451704,08-8350623
43,屏東縣,蔡仲凡診所,3543031628,屏東縣東港鎮新勝里光復路二段76號,22.466667,120.452858,08-8351666
43,屏東縣,侯友益耳鼻喉科診所,3543031646,屏東縣東港鎮新勝里光復路一段311號,22.465978,120.453104,08-8337001
43,屏東縣,屏東縣東港鎮衛生所,2343030019,屏東縣東港鎮朝安里新生三路23號,22.467096,120.446098,08-8325310
43,屏東縣,南門醫療社團法人南門醫院,0943040015,屏東縣恆春鎮南門路10號,22.000858,120.745389,08-8894568
43,屏東縣,衛生福利部恆春旅遊醫院,0143040019,屏東縣恆春鎮城南里恆南路188號,22.001369,120.744352,08-8892704
43,屏東縣,恆基醫療財團法人恆春基督教醫院,1143040010,屏東縣恆春鎮山腳里恆西路21號,22.00232,120.741162,08-8892293
43,屏東縣,屏東縣恆春鎮衛生所,2343040015,屏東縣恆春鎮城南里文化路78號,22.003226,120.746859,08-8892140
43,屏東縣,宏祥診所,3543051497,屏東縣萬丹鄉寶厝村中興路2段327號,22.579286,120.484959,08-7770558
43,屏東縣,李診所,3543050150,屏東縣萬丹鄉萬全村大憲街323號,22.590195,120.488614,08-7776353
43,屏東縣,天醫診所,3543051308,屏東縣萬丹鄉萬惠村萬丹路一段40號,22.584795,120.489048,08-7771830
43,屏東縣,陳琪銘診所,3543051479,屏東縣萬丹鄉萬後村萬壽路2段275號,22.586948,120.487641,08-7770488
43,屏東縣,慈愛診所,3543051344,屏東縣萬丹鄉萬後村萬壽路二段271號,22.586942,120.487729,08-7764028
43,屏東縣,陳宗仁診所,3543050105,屏東縣萬丹鄉萬全村萬丹路一段440號,22.591832,120.489092,08-7770066
43,屏東縣,安可診所,3543051522,屏東縣萬丹鄉萬全村萬丹路一段357號1樓,22.591664,120.488857,08-7775689
43,屏東縣,禾興診所,3543051460,屏東縣萬丹鄉萬全村丹榮路631號,22.58913,120.491947,08-7772313
43,屏東縣,鴻基診所,3543050249,屏東縣萬丹鄉社皮村大昌路543號,22.616139,120.468404,08-7074596
43,屏東縣,欣林診所,3543051504,屏東縣萬丹鄉萬安村萬丹路一段190號,22.587039,120.489807,08-7772608
43,屏東縣,張家瑜診所,3543051362,屏東縣萬丹鄉社中村社皮路三段228號,22.618362,120.470596,08-7070342
43,屏東縣,屏東縣萬丹鄉衛生所,2343050011,屏東縣萬丹鄉四維村萬丹路一段501號,22.594946,120.488551,08-7772049
43,屏東縣,屏東榮民總醫院龍泉分院,0643130018,屏東縣內埔鄉龍潭村昭勝路安平一巷1號,22.674417,120.599009,08-7702212
43,屏東縣,豐田育晨診所,3543131623,屏東縣內埔鄉豐田村中正路340號,22.632196,120.543642,08-7782108
43,屏東縣,屏東縣內埔鄉衛生所,2343130014,屏東縣內埔鄉內埔村中興路191號,22.612404,120.569014,08-7792414
43,屏東縣,枋寮醫療社團法人枋寮醫院,0943160012,屏東縣枋寮鄉安樂村中山路139號,22.364024,120.596293,08-8789991
43,屏東縣,迦美診所,3543160222,枋寮鄉新龍村中山路327號,22.371092,120.592504,08-8782900
43,屏東縣,屏東縣枋寮鄉衛生所,2343160012,屏東縣枋寮鄉枋寮村德興路77號,22.365644,120.593037,08-8782940
43,屏東縣,里港米蘭診所,3543091259,里港鄉鐵店村永豐路二段5號,22.779284,120.499785,08-7751630
43,屏東縣,文章診所,3543090092,屏東縣里港鄉春林村里港路87號,22.776727,120.49605,08-7757077
43,屏東縣,屏東縣里港鄉衛生所,2343090015,屏東縣里港鄉大平村中山路103-1號,22.779228,120.494156,08-7751711
43,屏東縣,陳宗得診所,3543060101,長治鄉繁隆村中山路22號,22.70287,120.576177,08-7625818
43,屏東縣,屏東縣長治鄉衛生所,2343060017,屏東縣長治鄉進興村潭頭路3號,22.6766,120.526801,08-7368734
43,屏東縣,屏東縣九如鄉衛生所,2343080019,屏東縣九如鄉九清村九如路二段247號,22.736011,120.4892,08-7392006
43,屏東縣,屏東縣麟洛鄉衛生所,2343070013,屏東縣麟洛鄉麟蹄村中山路150號,22.650261,120.527402,08-7221152
43,屏東縣,仁山診所,3543110197,屏東縣高樹鄉高樹村南興路143-5號,22.824715,120.601141,08-7965597
43,屏東縣,佑昌診所,3543110142,屏東縣高樹鄉高樹村南興路74-2號,22.822316,120.602059,08-7960245
43,屏東縣,嘉誠診所,3543111318,屏東縣高樹鄉高樹村南興路118－1號,22.823485,120.601718,08-7962772
43,屏東縣,徳樹診所,3543111336,屏東縣高樹鄉長榮村信義路26號,22.823387,120.600134,08-7962600
43,屏東縣,屏東縣高樹鄉衛生所,2343110012,屏東縣高樹鄉長榮村南昌路12-2號,22.817079,120.594296,08-7962026
43,屏東縣,屏東縣鹽埔鄉衛生所,2343100016,屏東縣鹽埔鄉鹽北村中山路92號,22.758479,120.576543,08-7932474
43,屏東縣,尚禾診所,3543121216,屏東縣萬巒鄉萬和村褒忠路151號,22.573066,120.569295,08-7812963
43,屏東縣,賴家醫科診所,3543121190,屏東縣萬巒鄉萬巒村褒忠路126號,22.573639,120.568969,08-7814069
43,屏東縣,屏東縣萬巒鄉衛生所,2343120018,屏東縣萬巒鄉萬全村褒忠路14-2號,22.571746,120.574507,08-7811794
43,屏東縣,屏東縣竹田鄉衛生所,2343140010,屏東縣竹田鄉竹田村中山路25號,22.586369,120.543137,08-7712434
43,屏東縣,屏東縣新埤鄉衛生所,2343150016,屏東縣新埤鄉新埤村中正路38號,22.470451,120.550083,08-7971090
43,屏東縣,江逸詩診所,3543171378,屏東縣新園鄉仙吉村仙吉路19-1號,22.540282,120.459875,08-8683228
43,屏東縣,屏東縣新園鄉衛生所,2343170018,屏東縣新園鄉仙吉村仙吉路89-2號,22.5436,120.460911,08-8681293
43,屏東縣,長領診所,3543181105,屏東縣崁頂鄉圍內村大庭路19-3號,22.535914,120.506658,08-8631083
43,屏東縣,屏東縣崁頂鄉衛生所,2343180014,屏東縣崁頂鄉崁頂村興農路29-9號,22.514662,120.507335,08-8633217
43,屏東縣,邱診所,3543190177,屏東縣林邊鄉永樂村中山路234-1號,22.435818,120.513949,08-8758438
43,屏東縣,欣生診所,3543190195,屏東縣林邊鄉中林村中山路106-2號,22.43345,120.516471,08-8750747
43,屏東縣,鄭耳鼻喉科診所,3543190186,屏東縣林邊鄉中山路184號,22.43467,120.514883,08-8751900
43,屏東縣,陳家醫科診所,3543191263,屏東縣林邊鄉中興路6號,22.4597,120.529545,08-8750090
43,屏東縣,屏東縣林邊鄉衛生所,2343190010,屏東縣林邊鄉光林村和平路45號,22.431094,120.509698,08-8752076
43,屏東縣,楷和診所,3543201139,屏東縣南州鄉溪南村三民路89號,22.489992,120.508332,08-8645886
43,屏東縣,屏東縣南州鄉衛生所,2343200011,屏東縣南州鄉溪南村人和路239號,22.48607,120.502965,08-8642224
43,屏東縣,林子銘診所,3543210067,屏東縣佳冬鄉石光村中山路154-4號,22.434404,120.562871,08-8668615
43,屏東縣,佳和診所,3543211082,屏東縣佳冬鄉佳冬村佳和路98-1號,22.415074,120.549846,08-8660445
43,屏東縣,佳冬鄉農會附設診所,3443210029,屏東縣佳冬鄉佳冬村佳和路64號,22.41278,120.55763,08-8664279
43,屏東縣,大佳診所,3543211073,屏東縣佳冬鄉佳冬村佳和路98-6號,22.41512,120.549633,08-8666680
43,屏東縣,胡家醫診所,3543211091,屏東縣佳冬鄉佳冬村佳昌路6號,22.418901,120.55206,08-8669208
43,屏東縣,屏東縣佳冬鄉衛生所,2343210017,屏東縣佳冬鄉六根村佳和路87-1號,22.414263,120.549584,08-8662018
43,屏東縣,洪國清診所,3543221177,屏東縣琉球鄉大福村中正路172號,22.33944,120.370389,08-861-3587
43,屏東縣,屏東縣琉球鄉衛生所,2343220013,屏東縣琉球鄉本福村中山路51號,22.348526,120.378547,08-8612513
43,屏東縣,安康診所,3543240538,屏東縣滿州鄉滿州村中山路40號,22.019794,120.83861,08-8801928
43,屏東縣,屏東縣滿州鄉衛生所,2343240015,屏東縣滿州鄉滿州村中山路31號,22.018982,120.83805,08-8801279
43,屏東縣,福安診所,3543231075,屏東縣車城鄉福興村中山路40號,22.07335,120.71392,08-8825575
43,屏東縣,屏東縣車城鄉衛生所,2343230019,屏東縣車城鄉福安村福安路2-30號,22.069865,120.712515,08-8821300
43,屏東縣,屏東縣枋山鄉衛生所,2343250011,屏東縣枋山鄉枋山村枋山路98號,22.26464,120.652705,08-8761150
43,屏東縣,宋金峰家庭醫學科診所,3543261064,屏東縣三地門鄉青山村民族巷52號,22.819208,120.636055,08-7964993
43,屏東縣,屏東縣三地門鄉衛生所,2343260017,屏東縣三地門鄉三地村行政街4號,22.714662,120.653063,08-7991284
43,屏東縣,晨安診所,3543281191,屏東縣瑪家鄉北葉村風景1－3號,22.709346,120.64778,08-7991787
43,屏東縣,重仁診所,3543281100,屏東縣瑪家鄉三和村美園巷90號,22.695323,120.598775,08-7995959
43,屏東縣,屏東縣瑪家鄉衛生所,2343280019,屏東縣瑪家鄉北葉村風景巷86號,22.708797,120.649846,08-7993210
43,屏東縣,屏東縣霧台鄉衛生所,2343270013,屏東縣霧台鄉霧台村神山巷68號,22.749731,120.726066,08-7902480
43,屏東縣,屏東縣泰武鄉衛生所,2343290015,屏東縣泰武鄉佳平村佳平巷179號,22.592122,120.632685,08-7832059
43,屏東縣,屏東縣來義鄉衛生所,2343300016,屏東縣來義鄉古樓村中正路90號,22.525839,120.631987,08-7850103
43,屏東縣,屏東縣春日鄉衛生所,2343310012,屏東縣春日鄉春日村春日路176號,22.37029,120.625502,08-8782297
43,屏東縣,屏東縣獅子鄉衛生所,2343320018,屏東縣獅子鄉楓林村2巷31號,22.196387,120.708327,08-8771324
43,屏東縣,屏東縣牡丹鄉衛生所,2343330014,屏東縣牡丹鄉石門村石門路19號,22.125496,120.774314,08-8831013
43,屏東縣,屏東榮民總醫院,0643010011,屏東縣屏東市崇武里榮總東路1號,22.662631,120.475691,08-7557885
43,屏東縣,大新醫院,1543110033,屏東縣高樹鄉興中路208號,22.823792,120.599646,08-7960833
43,屏東縣,怡仁診所,3543111327,屏東縣高樹鄉三民路3之33號,22.786997,120.610937,08-7957598
43,屏東縣,仁興診所,3543151134,屏東縣新埤鄉中正路91號,22.470046,120.550534,08-7972797
44,澎湖縣,衛生福利部澎湖醫院,0144010015,澎湖縣馬公市中正路10號,23.564553,119.565423,06-9261151
44,澎湖縣,三軍總醫院澎湖分院,0544010031,澎湖縣馬公市前寮里90號,23.554615,119.583681,06-9211116
44,澎湖縣,馬公市第一衛生所,2344010011,澎湖縣馬公市樹德路36號,23.56902,119.567111,06-9273958
44,澎湖縣,馬公市第二衛生所,2344011027,澎湖縣馬公市鎖港里240號,23.529357,119.600866,06-9951354
44,澎湖縣,馬公市第三衛生所,2344011036,澎湖縣馬公市西文里118-2號,23.568128,119.583648,06-9211723
44,澎湖縣,湖西鄉衛生所,2344020017,澎湖縣湖西鄉151之1號,23.583931,119.66137,06-9921271
44,澎湖縣,白沙鄉衛生所,2344030013,澎湖縣白沙鄉赤崁村359號,23.666692,119.598156,06-9931044
44,澎湖縣,澎湖縣白沙鄉鳥嶼衛生所,2344030022,澎湖縣白沙鄉鳥嶼村漁港新村3號,23.660077,119.659897,06-9916234
44,澎湖縣,澎湖縣白沙鄉吉貝衛生所,2344030031,澎湖縣白沙鄉吉貝村8-13號,23.740565,119.613817,06-9911430
44,澎湖縣,西嶼鄉衛生所,2344040019,澎湖縣西嶼鄉池東村222號,23.599252,119.510239,06-9981115
44,澎湖縣,望安鄉衛生所,2344050015,澎湖縣望安鄉西安村36-7號,23.361605,119.497221,06-9991036
44,澎湖縣,澎湖縣望安鄉將軍衛生所,2344050024,澎湖縣望安鄉將軍村12鄰將軍澳1之3號 ,23.361504,119.521569,06-9902066
44,澎湖縣,七美鄉衛生所,2344060011,澎湖縣七美鄉中和村10鄰54號,23.204103,119.430963,06-9971005
39,雲林縣,二崙台全診所,3539111426,雲林縣二崙鄉中山路119號,23.769897,120.41262,05-5981111
39,雲林縣,二崙鄉衛生所,2339110013,雲林縣二崙鄉中興路9號,23.771872,120.412634,05-5981004
39,雲林縣,口湖鄉衛生所,2339190011,雲林縣口湖鄉中正路一段114號,23.582308,120.185753,05-7892004
39,雲林縣,土庫台全診所,3539051390,雲林縣土庫鎮中正路110號,23.675481,120.390122,05-6629666
39,雲林縣,土庫鎮衛生所,2339050012,雲林縣土庫鎮中山路254號,23.678336,120.392679,05-6622638
39,雲林縣,大埤鄉衛生所,2339080010,雲林縣大埤鄉中山路4號,23.64565,120.432024,05-5912214
39,雲林縣,元長鄉衛生所,2339170019,雲林縣元長鄉元中路8號   ,23.649892,120.314318,05-7882004
39,雲林縣,李嘉盛小兒科診所,3539011109,雲林縣斗六市太平路169號,23.707601,120.541186,05-5326466
39,雲林縣,小太陽小兒科診所,3539012464,雲林縣斗六市永安路71-73號,23.709188,120.547959,05-5346041
39,雲林縣,優生耳鼻喉科診所,3539010424,雲林縣斗六市愛國街2之4號,23.711234,120.54255,05-5328693
39,雲林縣,吳佳錄診所,3539013041,雲林縣斗六市中山路339號,23.700906,120.538377,05-5376166
39,雲林縣,簡光甫診所,3539010326,雲林縣斗六市大同路103號,23.709652,120.545084,05-5330990
39,雲林縣,長冠診所,3539012964,雲林縣斗六市莊敬路210號,23.703461,120.548053,05-5377858
39,雲林縣,塗勝雄小兒科診所,3539010791,雲林縣斗六市榮譽路73號,23.705044,120.553361,05-5352328
39,雲林縣,佑體健診所,3539013014,雲林縣斗六市中華路583號,23.708483,120.553275,05-5338599
39,雲林縣,永安診所,3539012526,雲林縣斗六市中華路468號,23.708456,120.551698,05-5376998
39,雲林縣,小幼苗小兒科診所,3539012660,雲林縣斗六市中山路311號,23.701644,120.538533,05-5362982
39,雲林縣,淳安耳鼻喉科診所,3539013050,雲林縣斗六市中正路83號,23.708306,120.544607,05-5371625
39,雲林縣,斗六市衛生所,2339010018,雲林縣斗六市公園路75號,23.697742,120.527109,05-5345140
39,雲林縣,臺灣大學醫學院附設醫院雲林分院,0439010518,雲林縣斗六市雲林路二段579號,23.697662,120.525929,05-5323911
39,雲林縣,成功大學醫學院附設醫院斗六分院,0439010527,雲林縣斗六市莊敬路345號,23.703133,120.545625,05-5332121
39,雲林縣,洪揚醫院,1539010048,雲林縣斗六市文化路138號,23.710837,120.548815,05-5323039
39,雲林縣,佛教慈濟醫療財團法人斗六慈濟醫院,1139010013,雲林縣斗六市雲林路二段248號,23.702283,120.529957,05-5372000
39,雲林縣,劉泰成診所,3539020206,雲林縣斗南鎮中山路12號,23.673628,120.480438,05-5964566
39,雲林縣,賴成宏外科診所,3539020180,雲林縣斗南鎮中山路36號,23.674261,120.480003,05-5971788
39,雲林縣,宏佑診所,3539021570,雲林縣斗南鎮文元街86號,23.675246,120.476705,05-5950456
39,雲林縣,斗南鎮衛生所,2339020014,雲林縣斗南鎮福德街153號,23.679133,120.478917,05-5973329
39,雲林縣,水林鄉衛生所,2339200012,雲林縣水林鄉水林路8號,23.572686,120.246334,05-7852612
39,雲林縣,北港鎮衛生所,2339060018,雲林縣北港鎮北辰路3號,23.576343,120.302681,05-7832103
39,雲林縣,中國醫藥大學北港附設醫院,1339060017,雲林縣北港鎮新德路123號,23.591763,120.30782,05-7837901
39,雲林縣,安泰家庭醫學科診所,3539070064,雲林縣古坑鄉中山路81號,23.643667,120.562109,05-5822020
39,雲林縣,林炳煌家庭醫學科診所,3539070171,雲林縣古坑鄉中山路234號,23.648413,120.560925,05-5827493
39,雲林縣,世銘診所,3539071285,雲林縣古坑鄉文化路105之1號,23.683554,120.568974,05-5267429
39,雲林縣,光生診所,3539070117,雲林縣古坑鄉光昌路77號,23.625226,120.552958,05-5827457
39,雲林縣,古坑鄉衛生所,2339070014,雲林縣古坑鄉西平村中山路391號,23.654105,120.559917,05-5825234
39,雲林縣,四湖鄉衛生所,2339180015,雲林縣四湖鄉中山西路118號,23.637843,120.221715,05-7872890
39,雲林縣,西螺鎮衛生所,2339040016,雲林縣西螺鎮修文路110號,23.802076,120.459671,05-5862130
39,雲林縣,雲林基督教醫院,1139040011,雲林縣西螺鎮市場南路375號,23.78122,120.441205,05-5871111
39,雲林縣,東勢鄉衛生所,2339140011,雲林縣東勢鄉懷恩街40號,23.677077,120.252566,05-6991190
39,雲林縣,林內鄉衛生所,2339100017,雲林縣林內鄉新興路54號,23.759943,120.612602,05-5896747
39,雲林縣,蔡鼎族小兒科診所,3539031772,雲林縣虎尾鎮光復路300號,23.710084,120.438768,05-6362211
39,雲林縣,林嘉祈婦產科診所,3539032091,雲林縣虎尾鎮民生路11號,23.70877,120.438021,05-6320078
39,雲林縣,太安診所,3539030659,雲林縣虎尾鎮公安路178-18號,23.709848,120.433819,05-6326650
39,雲林縣,偉哲內小兒科診所,3539030640,雲林縣虎尾鎮仁愛路67號,23.708949,120.434228,05-6323409
39,雲林縣,虎尾台全診所,3539032331,雲林縣虎尾鎮林森路一段346號,23.712202,120.436387,05-6366111
39,雲林縣,虎尾鎮衛生所,2339030010,雲林縣虎尾鎮明正路11號,23.714607,120.43369,05-6322211
39,雲林縣,天主教若瑟醫院,1139030015,雲林縣虎尾鎮新生路74號,23.708214,120.437886,05-6337333
39,雲林縣,崙背台全診所,3539121422,雲林縣崙背鄉建國路52號,23.760082,120.354798,05-6969888
39,雲林縣,崙背鄉衛生所,2339120019,雲林縣崙背鄉南光路34號,23.759812,120.353142,05-6962009
39,雲林縣,台全診所,3539131811,雲林縣麥寮鄉新興路16號,23.74704,120.252374,05-6930099
39,雲林縣,麥寮鄉衛生所,2339130015,雲林縣麥寮鄉光復路4號,23.74689,120.256052,05-6932268
39,雲林縣,雲林長庚紀念醫院,1139130010,雲林縣麥寮鄉工業路1500號,23.795183,120.218341,05-6915151
39,雲林縣,莿桐台全診所,3539091321,雲林縣莿桐鄉中正路168號,23.757524,120.499052,05-5842222
39,雲林縣,莿桐鄉衛生所,2339090016,雲林縣莿桐鄉和平路53-2號,23.761123,120.502106,05-5842575
39,雲林縣,臺西鄉衛生所,2339160013,雲林縣台西鄉民生路36號,23.699154,120.19952,05-6982148
39,雲林縣,褒忠鄉衛生所,2339150017,雲林縣褒忠鄉中勝村添財街21號,23.693465,120.304164,05-6972004
22,嘉義市,戴德森醫療財團法人嘉義基督教醫院,1122010012,嘉義市東區忠孝路539號,23.4994,120.45005,05-2765041
22,嘉義市,天主教中華聖母修女會醫療財團法人天主教聖馬爾定醫院,1122010021,嘉義市東區大雅路二段565號,23.47568,120.4671,05-2756000
22,嘉義市,陽明醫院,1522011115,嘉義市東區吳鳯北路252號,23.48057,120.45319,05-2252000
22,嘉義市,臺中榮民總醫院嘉義分院,0622020017,嘉義市西區世賢路二段600號,23.467549,120.42297,05-2359630
22,嘉義市,衛生福利部嘉義醫院,0122020517,嘉義市西區北港路312號,23.481169,120.42907,05-2319090
22,嘉義市,文祥小兒科診所,3522010923,嘉義市東區民權路300號之4號,23.482659,120.45135,05-2770777
22,嘉義市,羅大德診所,3522013264,嘉義市東區新生路588號1、2樓,23.49246,120.457939,05-2788297
22,嘉義市,仁和診所,3522010398,嘉義市東區吳鳳北路423號,23.48499,120.45208,05-2782762
22,嘉義市,大心診所,3522013586,嘉義市東區吳鳳北路116號,23.47728,120.45362,05-2279237
22,嘉義市,華山診所,3522010950,嘉義市東區吳鳳北路151號,23.47738,120.45335,05-2248777
22,嘉義市,安家診所,3522013684,嘉義市東區台林街221號,23.497615,120.455158,05-2775367
22,嘉義市,吳長宗診所,3522011617,嘉義市東區光華路2之1號,23.47691,120.45545,05-2239036
22,嘉義市,黃靖修內科診所,3522013371,嘉義市東區吳鳳北路389號,23.48421,120.45215,05-2776108
22,嘉義市,信安診所,3522012838,嘉義市東區民權路278號,23.482856,120.451815,05-2785681
22,嘉義市,潘內兒科診所,3522010236,嘉義市東區公明路352號,23.47983,120.45223,05-2284757
22,嘉義市,福康診所,3522013406,嘉義市東區新生路667-2號,23.494021,120.456594,05-2715688
22,嘉義市,孫小兒科診所,3522011046,嘉義市東區吳鳳北路289號,23.480789,120.452879,05-2222829
22,嘉義市,林仙明診所,3522013095,嘉義市東區大雅路二段599號,23.47706,120.46714,05-2770233
22,嘉義市,楊澍青診所,3522013291,嘉義市東區民權路110號,23.48364,120.45811,05-2776001
22,嘉義市,宏醫診所,3522012794,嘉義市東區中山路262號,23.48029,120.45018,05-2254868
22,嘉義市,趙善楷耳鼻喉科診所,3522011555,嘉義市東區新生路230號,23.48412,120.46093,05-2759956
22,嘉義市,怡康診所,3522013497,嘉義市東區林森東路496號,23.491959,120.47069,05-2770236
22,嘉義市,傅林診所,3522013184,嘉義市東區金龍街8號,23.47801,120.472399,05-2716666
22,嘉義市,王國哲診所,3522023224,嘉義市西區福全里博愛路二段359號1－2樓,23.475819,120.43495,05-2310550
22,嘉義市,聯弘診所,3522024490,嘉義市西區博愛路二段52號,23.48317,120.4407,05-2331379
22,嘉義市,陳明煌診所,3522021364,嘉義市西區保安里北興街442號,23.48751,120.434929,05-2337036
22,嘉義市,六福診所,3522024481,嘉義市西區福民里興業西路333號1樓,23.467469,120.43787,05-2853300
22,嘉義市,大恩整體自然醫學診所,3522023608,嘉義市西區林森西路200號1、2樓,23.48215,120.44452,05-2234829
22,嘉義市,崇安診所,3522023457,嘉義市西區竹圍四路72號,23.48864,120.429109,05-2810729
22,嘉義市,德方平安診所,3522024525,嘉義市西區八德路278號,23.490138,120.430336,05-2910567
22,嘉義市,嘉義慈濟診所,4022020019,嘉義市西區仁愛路383號1樓,23.47635,120.441959,05-2167000
22,嘉義市,家馨診所,3522024212,嘉義市西區中山路621號,23.478017,120.441301,05-2251589
22,嘉義市,政康診所,3522024543,嘉義市西區興業西路36號,23.46862,120.44504,05-2163000
22,嘉義市,弘仁診所,3522021177,嘉義市西區忠義街101號,23.478649,120.44738,05-2226119
22,嘉義市,欣愛診所,3522024310,嘉義市西區國華街298號,23.484369,120.44765,05-2285980
22,嘉義市,全安診所,3522024267,嘉義市西區興達路353號,23.485866,120.436426,05-2911919
22,嘉義市,好生診所,3522021266,嘉義市西區國華街416號,23.48827,120.44665,05-2324630
22,嘉義市,東區衛生所,2322010017,嘉義市東區大雅路2段625號,23.476849,120.46629,05-2750423
22,嘉義市,西區衛生所,2322020013,嘉義市西區德明路1號,23.479949,120.43119,05-2337355
40,嘉義縣,祥和診所,3540111307,嘉義縣太保市太保二路145號,23.454927,120.295103,05-3621712
40,嘉義縣,定安診所,3540111272,嘉義縣太保市中山路一段311號,23.498351,120.3784,05-2371777
40,嘉義縣,超群診所,3540111138,嘉義縣太保市春珠里164之10號,23.453526,120.33382,05-3716323
40,嘉義縣,吳源益診所,3540111263,嘉義縣太保市中山路二段202號,23.499641,120.370369,05-2382001
40,嘉義縣,王士虹小兒科診所,3540010332,嘉義縣朴子市山通路41號,23.465465,120.244682,05-3700539
40,嘉義縣,尚群診所,3540010270,嘉義縣朴子市海通路98-8號,23.463915,120.240253,05-3705678
40,嘉義縣,顏診所,3540010289,嘉義縣朴子市文化北路118號,23.466797,120.241287,07-6901481
40,嘉義縣,鼎和診所,3540011535,嘉義縣朴子市八德路43號之1樓、45號1樓,23.462975,120.240888,05-3661101
40,嘉義縣,德家診所,3540011599,嘉義縣朴子市平和路11-6號1-2樓,23.464473,120.246399,05-3707190
40,嘉義縣,侯守恩診所,3540011697,嘉義縣朴子市山通路106-1號1樓,23.466086,120.245368,05-3707700
40,嘉義縣,平安診所,3540021362,嘉義縣布袋鎮上海東路15號,23.378675,120.167525,05-3476000
40,嘉義縣,崇德家庭醫學科診所,3540020025,嘉義縣布袋鎮東安里76-3號,23.417451,120.181034,05-3451341
40,嘉義縣,邱炳川診所,3540020132,嘉義縣布袋鎮永安里大寮227-1號,23.371662,120.186335,05-3476031
40,嘉義縣,鄭兆陽診所,3540030110,嘉義縣大林鎮中正路586號,23.60461,120.454396,05-2658448
40,嘉義縣,丘傑隆診所,3540031338,嘉義縣大林鎮中興一路26號,23.604142,120.453537,05-2648772
40,嘉義縣,陳憲立診所,3540030094,嘉義縣大林鎮中興路29號,23.604056,120.454931,05-2650222
40,嘉義縣,蕭賜彥診所,3540040161,嘉義縣民雄鄉雙福村建國路三段252號,23.526282,120.439072,05-2200858
40,嘉義縣,賴政友診所,3540040036,嘉義縣民雄鄉東榮村和平路9號,23.555419,120.431199,05-2262624
40,嘉義縣,佳恩診所,3540041542,嘉義縣民雄鄉福樂村埤角551號,23.527014,120.444874,05-2212389
40,嘉義縣,吉田診所,3540041640,嘉義縣民雄鄉興中村江厝店1號,23.52495,120.421522,05-2206698
40,嘉義縣,惠德診所,3540041659,嘉義縣民雄鄉三興村大學路一段281號,23.556913,120.475064,05-2721665
40,嘉義縣,國泰診所,3540041668,嘉義縣民雄鄉福樂村埤角519號1樓,23.526216,120.442854,05-2215260
40,嘉義縣,黃威雄診所,3540041766,嘉義縣民雄鄉建國路三段191號1樓,23.524145,120.439143,05-2133556
40,嘉義縣,陳景昇診所,3540050078,嘉義縣溪口鄉坪頂村溪民路19號,23.604075,120.400304,05-2697296
40,嘉義縣,錦洲診所,3540050050,嘉義縣溪口鄉溪東村民生街56號,23.604064,120.398416,05-2696058
40,嘉義縣,李龍駒診所,3540060190,嘉義縣新港鄉福德村中山路72巷18、20號,23.554124,120.344532,05-3747911
40,嘉義縣,嘉其耳鼻喉科診所,3540061295,嘉義縣新港鄉宮前村登雲路50號,23.555695,120.348674,05-3746800
40,嘉義縣,勝博診所,3540081064,嘉義縣東石鄉猿樹村143之1號,23.4584,120.152316,05-3730998
40,嘉義縣,佑全診所,3540091168,嘉義縣義竹鄉六桂村156-6號,23.337464,120.244649,05-3417807
40,嘉義縣,德仁診所,3540091159,嘉義縣義竹鄉六桂村235-2號,23.335998,120.244069,05-3415266
40,嘉義縣,政國內科小兒科診所,3540100019,嘉義縣鹿草鄉鹿草村長壽路241號,23.412886,120.308068,05-3752324
40,嘉義縣,簡崑山診所,3540120155,嘉義縣水上鄉水頭村中正路118號,23.428196,120.402131,05-2689679
40,嘉義縣,全民診所,3540121269,嘉義縣水上鄉中庄村中庄71之21號,23.421467,120.439145,05-2891966
40,嘉義縣,嘉恩診所,3540121303,嘉義縣水上鄉水頭村中興路265號1樓,23.43015,120.402171,05-2603661
40,嘉義縣,陳炳憲診所,3540120217,嘉義縣水上鄉水頭村正義路7、9號,23.429921,120.399052,05-2681100
40,嘉義縣,宏恩診所,3540130295,嘉義縣中埔鄉中埔村中正路38號,23.424218,120.523709,05-2532722
40,嘉義縣,柯診所,3540131541,嘉義縣中埔鄉中埔村170-25號,23.42404,120.52238,05-2531616
40,嘉義縣,台大佳醫診所,3540131498,嘉義縣中埔鄉金蘭村頂山門34-51號,23.446431,120.493889,05-2399199
40,嘉義縣,仁新診所,3540140120,嘉義縣竹崎鄉竹崎村中山路95號,23.521885,120.550925,05-2611456
40,嘉義縣,活泉診所,3540141225,嘉義縣竹崎鄉和平村坑仔坪153-11號,23.516658,120.548496,05-2614943
40,嘉義縣,璟文診所,3540140166,嘉義縣竹崎鄉竹崎村中華路84號,23.520382,120.548074,05-2616925
40,嘉義縣,聖光診所,3540161067,嘉義縣番路鄉下坑村下坑46之15號,23.472961,120.538366,05-2590395
40,嘉義縣,嘉義縣慢性病防治所,2240110018,嘉義縣太保市祥和二路東段3號,23.457536,120.292894,05-3620568
40,嘉義縣,和榮內科小兒科診所,3540150028,嘉義縣梅山鄉中山路１９５號,23.582996,120.558301,05-2621313
40,嘉義縣,太保市衛生所,2340110010,嘉義縣太保市後潭里443號,23.452984,120.339524,05-3711273
40,嘉義縣,朴子市衛生所,2340010015,嘉義縣朴子市光復路40號,23.465593,120.246579,05-3792037
40,嘉義縣,布袋鎮衛生所,2340020011,嘉義縣布袋鎮新厝里21號,23.381436,120.169906,05-3472032
40,嘉義縣,大林鎮衛生所,2340030017,嘉義縣大林鎮中山路252號,23.606779,120.455747,05-2652042
40,嘉義縣,民雄鄉衛生所,2340040013,嘉義縣民雄鄉中樂村文化路7-2號,23.551449,120.427999,05-2262018
40,嘉義縣,溪口鄉衛生所,2340050019,嘉義縣溪口鄉溪北村中山路1號,23.606411,120.394889,05-2691046
40,嘉義縣,新港鄉衛生所,2340060015,嘉義縣新港鄉宮後村嘉民北路5號,23.552354,120.347671,05-3741274
40,嘉義縣,六腳鄉衛生所,2340070011,嘉義縣六腳鄉蒜頭村73-1號,23.492885,120.290468,05-3802016
40,嘉義縣,東石郷衛生所,2340080017,嘉義縣東石鄉東石村3之7號,23.459258,120.154086,05-3732340
40,嘉義縣,義竹郷衛生所,2340090013,嘉義縣義竹鄉仁里村422-1號,23.337188,120.243041,05-3415555
40,嘉義縣,鹿草鄉衛生所,2340100014,嘉義縣鹿草鄉西井村長壽路226巷2號,23.410931,120.308358,05-3752080
40,嘉義縣,水上鄉衛生所,2340120016,嘉義縣水上鄉水上村正義路145號,23.42826,120.397682,05-2682059
40,嘉義縣,中埔鄉衛生所,2340130012,嘉義縣中埔鄉中埔村中埔130-1號,23.425588,120.522737,05-2531008
40,嘉義縣,竹崎鄉衛生所,2340140018,嘉義縣竹崎鄉竹崎村文化路19之1號,23.521512,120.552015,05-2611264
40,嘉義縣,梅山鄉衛生所,2340150014,嘉義縣梅山鄉華山路18號,23.5864,120.555456,05-2621249
40,嘉義縣,番路鄉衛生所,2340160010,嘉義縣番路鄉下坑村2鄰菜公店60號,23.463189,120.553771,05-2591148
40,嘉義縣,大埔鄉衛生所,2340170016,嘉義縣大埔鄉大埔村53之1號,23.295278,120.593247,05-2521214
40,嘉義縣,阿里山郷衛生所,2340180012,嘉義縣阿里山鄉樂野村97之2號,23.466598,120.701886,05-2561573
40,嘉義縣,長庚醫療財團法人嘉義長庚紀念醫院,1140010510,嘉義縣朴子市仁和里長庚一路6號及嘉朴路西段8號,23.464805,120.284043,05-3621000
40,嘉義縣,佛教慈濟醫療財團法人大林慈濟醫院,1140030012,嘉義縣大林鎮民生路2號,23.596312,120.457449,05-2648000
40,嘉義縣,衛生福利部朴子醫院,0140010028,嘉義縣朴子市永和里42-50號,23.464433,120.234633,05-3790600
40,嘉義縣,台中榮民總醫院灣橋分院,0640140012,嘉義縣竹崎鄉灣橋村石麻園38號,23.48778,120.506379,05-2791072
40,嘉義縣,立佳診所 ,3540011768,嘉義縣朴子市大同路149號,22.63022,120.333015,07-7710966
40,嘉義縣,怡和診所,3540030236,嘉義縣大林鎮平林里瑞德路45號,23.605464,120.457322,05-2659231
40,嘉義縣,陳志暐診所,3540031368,嘉義縣大林鎮新興街153號,23.598032,120.458532,05-2650003
40,嘉義縣,劉鎮嘉診所,3540031340,嘉義縣大林鎮中興路264號,23.602685,120.46135,05-2649000
40,嘉義縣,陳霆昌安糖診所,3540031377,嘉義縣大林鎮四維街22號,23.601762,120.459981,05-2648169
40,嘉義縣,郭宗豪診所,3540031260,嘉義縣大林鎮中正路486號,23.60217,120.453815,05-2655112
40,嘉義縣,良成診所,3540031359,嘉義縣大林鎮過溪里449號,23.602938,120.504327,05-2956858
40,嘉義縣,杏茹診所,3540031313,嘉義縣大林鎮7之6號,23.614217,120.486244,05-2955877
40,嘉義縣,奇恩診所,3540151196,嘉義縣梅山鄉梅北村中正路154號1樓,23.584292,120.557703,05-2625585
40,嘉義縣,裕生診所,3540150037,嘉義縣梅山鄉中山路106號,23.58256,120.558758,05-2621326
40,嘉義縣,家麟診所,3540151123,嘉義縣梅山鄉中山路12號,23.579203,120.55941,05-2620532
05,臺南市,臺南市東區衛生所,2321010013,臺南市東區龍山里林森路一段418號,22.985012,120.222043,06-2674085
05,臺南市,臺南市立醫院,0905320023,臺南市東區崇德路670號,22.968534,120.226743,06-2609926
05,臺南市,佳一家庭診所,3521013680,臺南市東區東光路1段132號,22.994752,120.23145,06-2360513
05,臺南市,王正賜診所,3521012870,臺南市東區東明里東安路48巷34號,22.991792,120.227401,06-2008992
05,臺南市,王肇陽皮膚科診所,3521010554,臺南市東區德光里崇明路79號,22.980426,120.217271,06-2891634
05,臺南市,陳勃旭耳鼻喉科診所,3521013108,臺南市東區崇德里崇善路438號,22.973756,120.22918,06-3358868
05,臺南市,良田蔡明峻小兒科診所,3521013519,臺南市東區崇明路201號,22.97811,120.219843,06-2607698
05,臺南市,侯世婷小兒科診所,3521013591,臺南市東區崇善路511號,22.974353,120.229305,06-3369131
05,臺南市,呂怡璋小兒科診所,3521010956,臺南市東區東門里前鋒路41號,22.990269,120.212678,06-2748014
05,臺南市,幼馨診所,3521011328,臺南市東區東聖里裕農路584之2號,22.988402,120.234624,06-2680207
05,臺南市,黃三元耳鼻喉科診所,3521010812,臺南市東區德光里崇明路7號,22.981849,120.216297,06-2606169
05,臺南市,謝明憲內科診所,3521011097,臺南市東區中西里長榮路2段93號,22.990492,120.220648,06-2086360
05,臺南市,衛生福利部胸腔病院門診部,0141270019,臺南市東區大同路一段69號,22.975462,120.241802,06-2146006
05,臺南市,德東診所,3505320171,臺南市東區大智里德東街23號,22.961831,120.229855,06-2899616
05,臺南市,曾立榮內科診所,3521013064,臺南市東區自強里中華東路2段339號,22.981451,120.229916,06-3353678
05,臺南市,高榮志家庭醫學科診所,3521011382,臺南市東區東光里東安路50號,22.993672,120.226785,06-2763456
05,臺南市,徐慶鐘小兒科診所,3521011435,臺南市東區中西里長榮路2段306號,22.991342,120.221654,06-2369954
05,臺南市,丁慶雄耳鼻喉科診所,3521012610,臺南市東區後甲里裕農路613號1樓,22.988734,120.235236,06-2371000
05,臺南市,王舒岳耳鼻喉科診所,3521013046,臺南市東區崇文里生產路281號,22.965031,120.228988,06-2902816
05,臺南市,陳沛植診所,3505320439,臺南市東區富強里裕農路302號,22.986515,120.228708,06-2080298
05,臺南市,華恆輝家庭醫學科診所,3521012549,臺南市東區崇善路616號,22.969176,120.230788,06-3358088
05,臺南市,喜樂小兒科診所,3521012745,臺南市東區東光里東光路１段106號,22.994121,120.231404,06-2757958
05,臺南市,臺灣基督長老教會新樓醫療財團法人臺南新樓醫院,1121010018,臺南市東區東門路一段57號,22.989158,120.212807,06-2748316
05,臺南市,富田診所,3521011168,臺南市東區東聖里裕農路594號,22.988415,120.234975,06-2683023
05,臺南市,高愛文內科專科診所,3505320368,臺南市東區東光里怡東路157號,22.994223,120.228241,06-2353789
05,臺南市,楊博文耳鼻喉科診所,3505320331,臺南市東區崇善里仁和路76-8號,22.975262,120.230704,06-2903911
05,臺南市,石荃小兒科診所,3521011480,臺南市東區文聖里裕農1街158號,22.984665,120.23837,06-3363558
05,臺南市,陳錦標診所,3521011239,臺南市東區富裕里東門路2段213號,22.984622,120.224881,06-2350889
05,臺南市,呂品宜小兒科診所,3521011337,臺南市東區崇德里崇明路415號,22.973572,120.224127,06-2674333
05,臺南市,康福內科診所,3521013582,臺南市東區崇德里中華東路3段207號,22.976241,120.225472,06-2890910
05,臺南市,仁愛醫療社團法人仁愛醫院,0905320014,臺南市東區北門路一段10號,22.989768,120.211613,06-2213111
05,臺南市,惠民診所,3505320920,臺南市東區長榮路一段15號,22.982693,120.215998,06-2080195
05,臺南市,陳煌奇耳鼻喉科診所,3521010616,臺南市東區崇學路271號之4,22.982436,120.225407,06-2680472
05,臺南市,侯娟妃婦產科診所,3521013573,臺南市東區府連路289號,22.985323,120.21499,06-2091328
05,臺南市,欣姿診所,3505320448,臺南市東區東門路二段300號,22.98374,120.225575,06-2903977
05,臺南市,吳美華小兒科診所,3521011051,臺南市東區凱旋路42號,22.993079,120.232087,06-2740172
05,臺南市,彭亞萱小兒科診所,3505320037,臺南市東區崇明路477號,22.972769,120.22501,06-2899047
05,臺南市,臺南市南區衛生所,2321020019,臺南市南區南都里南和路6號,22.960677,120.188068,06-2618578
05,臺南市,葉太原診所,3521020854,臺南市南區新興里夏林路172號,22.980561,120.194766,06-2633011
05,臺南市,林黑潮診所,3521020470,臺南市南區金華路一段377號,22.969694,120.190265,06-2656789
05,臺南市,王日榮耳鼻喉科診所,3521022116,臺南市南區新生里大同路2段102號,22.980509,120.212113,06-2149955
05,臺南市,泰立診所,3521020916,臺南市南區府南里西門路1段199號,22.974573,120.197526,06-2636629
05,臺南市,唐勳樟診所,3521020943,臺南市南區明興里金華路1段160號,22.965263,120.189999,06-2642266
05,臺南市,張士澎內科家醫科診所,3521020809,臺南市南區新昌里西門路1段611號,22.985316,120.197345,06-2216216
05,臺南市,林大傑耳鼻喉科診所,3521020612,臺南市南區金華里金華路2段171號,22.981265,120.191295,06-2915660
05,臺南市,張祐禎家庭醫學科診所,3521020827,臺南市南區南華里中華南路2段72號,22.961611,120.188872,06-2920909
05,臺南市,民安診所,3521020890,臺南市南區喜南里喜樹路272號,22.940085,120.177937,06-2622143
05,臺南市,霍永惠診所,3521020738,臺南市南區新興里健康路2段35號,22.981313,120.196551,06-2658666
05,臺南市,良典內科小兒科診所,3521020309,臺南市南區大林里大同路2段356號,22.975656,120.213873,06-2158491
05,臺南市,信龍診所,3521020514,臺南市南區佛壇里明興路1360號,22.92237,120.184546,06-2628733
05,臺南市,文賓小兒科內科診所,3521020050,臺南市南區新興路361號,22.975482,120.191443,06-2643548
05,臺南市,吳南宏家庭醫學科診所,3521020747,臺南市南區文南里文南路76號,22.983604,120.189963,06-2920800
05,臺南市,迦南內科診所,3521020970,臺南市南區明興里金華路1段32號,22.962161,120.189518,06-2614718
05,臺南市,美侖診所,3521022198,臺南市南區金華里健康路2段237號,22.98148,120.190794,06-2915730
05,臺南市,林宗潔小兒科診所,3521020452,臺南市南區再興里健康路2段191號,22.981432,120.192492,06-2631916
05,臺南市,洪允宗診所,3521020792,臺南市南區明亮里金華路一段246號,22.967493,120.19031,06-2915632
05,臺南市,林俊良耳鼻喉科診所,3521020658,臺南市南區廣州里金華路2段346號,22.983951,120.191821,06-2286959
05,臺南市,青禾診所,3505330088,臺南市南區明興里金華路一段128號,22.964396,120.18986,06-2658288
05,臺南市,仁和診所,3505330168,臺南市南區永寧里灣裡路224號1樓,22.927804,120.181496,06-2622640
05,臺南市,加恩耳鼻喉專科診所,3505330300,臺南市南區明亮里金華路一段450號,22.972232,120.190805,06-2616598
05,臺南市,國民家醫科診所,3505330355,臺南市南區大恩里國民路209號,22.967638,120.210978,06-2679181
05,臺南市,欣祐診所,3505330435,臺南市南區興農里明興路1111號,22.928246,120.186445,06-2626588
05,臺南市,君安診所,3505330391,臺南市南區大同路二段186巷1號,22.976845,120.213381,06-2158218
05,臺南市,蘇柏蒼耳鼻喉科診所,3521020765,臺南市南區金華路二段64號2樓,22.97715,120.191273,06-2918818
05,臺南市,李昭榮內科診所,3505330140,臺南市南區金華路二段281號 ,22.984172,120.191526,06-2610266
05,臺南市,臺南市北區衛生所,2321040011,臺南市北區公園里西華街50號,23.000114,120.210875,06-2252404
05,臺南市,蘇耳鼻喉科診所,3521042538,臺南市北區大豐里文賢路261、263號,23.009553,120.193717,06-2092820
05,臺南市,張金石小兒科診所,3521040945,臺南市北區玉皇里公園路191號,22.999265,120.207567,06-2216695
05,臺南市,陳文峯耳鼻喉科診所,3521040838,臺南市北區正覺里公園路703號,23.016742,120.214586,06-2833398
05,臺南市,楊宏義小兒科診所,3521040552,臺南市北區國興里開元路426號,23.010748,120.22582,06-2742678
05,臺南市,國立成功大學醫學院附設醫院,0421040011,臺南市北區勝利路138號,23.00221,120.21923,06-2353535
05,臺南市,惠幼小兒科診所,3521040749,臺南市北區玉皇里公園路167號,22.998766,120.207288,06-2251179
05,臺南市,志誠醫院,1521040050,臺南市北區公園路315號,23.00352,120.209963,06-2210423
05,臺南市,大道診所,3521042716,臺南市北區光武里長榮路５段305號,23.01274,120.216792,06-2526863
05,臺南市,德幼小兒科診所,3521042618,臺南市北區文元里和緯路3段322號,23.010219,120.195836,06-2584000
05,臺南市,幼之園小兒科診所,3521042805,臺南市北區北華里忠義路三段24號,22.999314,120.205395,06-2213434
05,臺南市,海安小兒科診所,3521042609,臺南市北區元美里海安路三段761、761-1號,23.015355,120.199951,06-2820566
05,臺南市,文賢內科診所,3521042627,臺南市北區大和里文賢路629號,23.013301,120.193651,06-2502588
05,臺南市,柯中文皮膚科診所,3521042430,臺南市北區和順里公園南路356號,23.003028,120.202751,06-2289333
05,臺南市,王克紹診所,3521040061,臺南市北區裕民里成功路516號,23.001442,120.1966,06-2211177
05,臺南市,蕭震亞診所,3521042234,臺南市北區賢北里和緯路5段46號,23.006557,120.185095,06-2808288
05,臺南市,王克生小兒科診所,3521042494,臺南市北區元寶里開元路479號,23.010165,120.224436,06-2362201
05,臺南市,安田耳鼻喉科診所,3521042305,臺南市北區和順里臨安路2段151號,23.00421,120.200263,06-3583360
05,臺南市,傅耳鼻喉科診所,3521041022,臺南市北區大和里文賢路877號,23.017828,120.193017,06-2507089
05,臺南市,永昌診所,3505350142,臺南市北區勝安里開元路95號,23.006497,120.217501,06-2374841
05,臺南市,風典聯合門診,3521041111,臺南市北區小東路171號,23.000384,120.227152,06-2752882
05,臺南市,王界三小兒科診所,3521042216,臺南市北區文元里文賢路1068號,23.015305,120.193763,06-3583770
05,臺南市,芳德診所,3505350446,臺南市北區裕民里成功路608號,23.002768,120.194727,06-2588740
05,臺南市,第一聯合診所,3521041059,臺南市北區中樓里勝利路421號,23.004746,120.218778,06-2350116
05,臺南市,邱外科診所,3505350473,臺南市北區小北里公園路435之5號,23.008061,120.209719,06-2511916
05,臺南市,潮代診所,3505350366,臺南市北區振興里林森路3段165號,22.664736,120.299111,07-5531313
05,臺南市,陳威文耳鼻喉科診所,3521040909,臺南市北區國興里開元路418號,23.010667,120.225643,06-2750471
05,臺南市,開元寺慈愛醫院,1521041137,臺南市北區北園街89之1號,23.010726,120.222908,06-2384111
05,臺南市,邱泉正耳鼻喉科診所,3521040678,臺南市北區大豐里文賢路291號,23.006135,120.193445,06-2501686
05,臺南市,安康耳鼻喉科診所,3521042985,臺南市北區成功里海安路3段718號,23.014982,120.200648,06-2525889
05,臺南市,王俊富耳鼻喉科診所,3521041157,臺南市北區興南里西門路4段156號,23.009246,120.207936,06-2812179
05,臺南市,邱盈禎診所,3521041031,臺南市北區正覺里公園路635號,23.015432,120.21352,06-2520056
05,臺南市,劉伊薰小兒科診所,3505350302,臺南市北區成德里北安路一段259號,23.018995,120.20677,06-2832111
05,臺南市,陳澤彥婦產科醫院,1505350015,臺南市北區中華北路二段101號1、2、3樓,23.019783,120.198375,06-2267301
05,臺南市,雨欣診所,3505350428,臺南市北區成德里北安路一段259號1樓,23.018995,120.20677,06-2832111
05,臺南市,黃仁宏診所,3521041175,臺南市北區東興里小東路347號,22.999075,120.23145,06-2759287
05,臺南市,劉明奇耳鼻喉科診所,3521041004,臺南市北區正覺里公園路599之4號1樓,23.014444,120.212639,06-2826270
05,臺南市,李孟峰內科診所,3521042449,臺南市北區海安路三段356號,23.009426,120.200154,06-2526949
05,臺南市,永昕耳鼻喉科診所,3505350679,臺南市北區文賢路677號,23.013998,120.19364,06-3587366
05,臺南市,曾泌尿科診所,3505350115,臺南市北區海安路三段972號,23.019456,120.199939,06-2525533
05,臺南市,蔡妟倩皮膚科診所,3521042921,臺南市北區公園路375之2號,23.005927,120.210211,06-2826566
05,臺南市,維摩詰診所,3505350204,臺南市北區和緯路五段210號,23.005181,120.181783,06-3501999
05,臺南市,仁欣診所,3505350651,臺南市北區公園路998之1號,23.016895,120.215016,06-2513066
05,臺南市,臺南市中西區衛生所,2321030015,臺南市中西區淺草里環河街94號,22.995076,120.192734,06-2252403
05,臺南市,衛生福利部臺南醫院,0121050011,臺南市中西區中山路125號,22.995819,120.209228,06-2200055
05,臺南市,小天使婦兒診所,3521052930,臺南市中西區大涼里府前一街9巷14號1樓,22.993179,120.187825,06-2930888
05,臺南市,李朝泰小兒科診所,3521030378,臺南市中西區普濟里成功路319號,22.999849,120.200418,06-2256618
05,臺南市,永川醫院,1521050010,臺南市中西區成功路169號,22.998025,120.2063,06-2245771
05,臺南市,郭重德診所,3521050638,臺南市中西區永福里民生路1段90號,22.993744,120.201916,06-2262953
05,臺南市,紀冠廷診所,3521052678,臺南市中西區青年里青年路119號,22.992137,120.208603,06-2263931
05,臺南市,洪敏元耳鼻喉科診所,3521030298,臺南市中西區南廠里大勇街111號,22.989905,120.192742,06-2212257
05,臺南市,湖美耳鼻喉科診所,3521030467,臺南市中西區西賢里湖美街215巷9號,23.003643,120.179648,06-2801561
05,臺南市,陳欽富診所,3521030403,臺南市中西區民權里民族路3段99號,22.99842,120.196817,06-2295940
05,臺南市,張富全診所,3521030494,臺南市中西區民生里永華路一段198號,22.988364,120.191568,06-2220516
05,臺南市,張永昌小兒科診所,3521051528,臺南市中西區建國里新美街66之1號,22.995313,120.200453,06-2292360
05,臺南市,呂宗禧耳鼻喉科診所,3521031722,臺南市中西區青年里民權路1段261號1樓,22.992994,120.206909,06-2282155
05,臺南市,沈俊良診所,3521052801,臺南市中西區青年里青年路43、45號1樓,22.991465,120.211249,06-2213257
05,臺南市,南門蔡內科診所,3521080047,臺南市中西區大南里南門路72號1樓,22.98195,120.203655,06-2133637
05,臺南市,楊介元診所,3505340404,臺南市中西區西湖里和緯路5段129號1、2樓,23.005534,120.183762,06-3587769
05,臺南市,郭宗男婦產科診所,3521030396,臺南市中西區民主里金華路3段124號,22.991962,120.193062,06-2295230
05,臺南市,郭明慧診所,3521031651,臺南市中西區淺草里中正路324號1樓,22.993641,120.19506,06-2264118
05,臺南市,李明鎧診所,3521051644,臺南市中西區永華里開山路90號,22.989829,120.20686,06-2260303
05,臺南市,高惠峰皮膚科診所,3521051153,臺南市中西區法華里府連路41號,22.982472,120.209588,06-2133363
05,臺南市,陳俊達小兒科診所,3505340226,臺南市中西區三民里中山路19、21、21-1號1樓,22.9931,120.205727,06-2221867
05,臺南市,廖健良診所,3521080065,臺南市中西區赤嵌里民生路一段30號1樓,22.993206,120.204007,06-2252983
05,臺南市,康維昌小兒科診所,3521050861,臺南市中西區萬昌里民權路1段8號,22.989363,120.210982,06-2216760
05,臺南市,謝智超達恩診所,3521031786,臺南市中西區普濟里西門路2段375號3樓,22.998304,120.200284,06-2285505
05,臺南市,蘇文彬婦產科,3521050218,臺南市中西區小西里西門路1段670號,22.989046,120.197672,06-2155155
05,臺南市,忠群診所,3505340093,臺南市中西區安海里民生路二段403號1樓,22.99745,120.188241,06-2280808
05,臺南市,陸健邦耳鼻喉科診所,3521030387,臺南市中西區安海里金華路3段277號,22.995837,120.193665,06-2209888
05,臺南市,郭綜合醫院,1521031104,臺南市中西區民生路二段22號,22.994862,120.198504,06-2221111
05,臺南市,康健內兒科診所,3521052838,臺南市中西區法華里健康路1段176號1-6樓,22.981476,120.206827,06-2146928
05,臺南市,莊金城診所,3521051457,臺南市中西區萬昌里民權路1段171號,22.991371,120.208028,06-2224381
05,臺南市,國泰功醫診所,3505340342,臺南市中西區小西里永福路一段185號2樓,22.986588,120.199994,06-2158500
05,臺南市,十全診所,3521051564,臺南市中西區福安里永福路2段3號,22.9902,120.200252,06-2269719
05,臺南市,康田診所,3505340039,臺南市中西區兌悅里成功路443號1樓,23.000897,120.19685,06-2273570
05,臺南市,方世錝婦產科診所,3521051297,臺南市中西區永福里民生路1段111號,22.993566,120.20173,06-2266592
05,臺南市,世澤居家醫療診所,3505340682,臺南市中西區南美里永福路二段152巷7號,22.99434,120.202759,06-2210147
05,臺南市,大安婦幼醫院,1505340019,臺南市中西區府前里金華路三段167號,22.993065,120.192984,06-2278899
05,臺南市,永和醫院,1521051160,臺南市中西區府前路一段310號,22.990307,120.198916,06-2231191
05,臺南市,奇聖診所,3505340593,臺南市中西區文賢路199號1樓,23.003744,120.193566,06-3584561
05,臺南市,澤康診所,3521080109,臺南市中西區永華一街89號1-3樓,22.990877,120.18919,06-2992112
05,臺南市,陳慧菁婦產科診所,3521051519,臺南市中西區健康路一段98號,22.98147,120.209256,06-2132858
05,臺南市,蔡佳玲婦產科診所,3521051322,臺南市中西區北門路一段25號,22.989681,120.211299,06-2244266
05,臺南市,維仁診所,3521051439,臺南市中西區府前路一段298號 ,22.990283,120.199116,06-2224556
05,臺南市,臺南市安南區衛生所,2321060013,臺南市安南區仁安路70號2樓,23.050087,120.176047,06-2567406
05,臺南市,董哲樑骨外科診所,3521061015,臺南市安南區海佃路一段205號,23.024594,120.191258,06-3584688
05,臺南市,陳本全家庭醫學科診所,3521060983,臺南市安南區安中路三段41號1樓,23.047241,120.182937,06-2558673
05,臺南市,溫聯合診所,3521060634,臺南市安南區安和路一段166號,23.029879,120.213725,06-2562283
05,臺南市,北安診所,3521060812,臺南市安南區北安路二段133號,23.027588,120.204623,06-2503006
05,臺南市,郭文山家庭醫學婦產科診所,3521062316,臺南市安南區海佃路二段648號1樓,23.044011,120.186445,06-2560688
05,臺南市,臺南市立安南醫院-委託中國醫藥大學興建經營,1305370013,臺南市安南區長和路二段66號,23.064232,120.223192,06-3553111
05,臺南市,安南高家醫診所,3505370206,臺南市安南區安中路二段166號,23.046541,120.187398,06-2475699
05,臺南市,魏大倫耳鼻喉科診所,3521062389,臺南市安南區安和路一段356號,23.03328,120.212543,06-2568119
05,臺南市,吳孟輯皮膚科診所,3505370153,臺南市安南區安和路一段80號1樓,23.027484,120.215097,06-2826655
05,臺南市,李宗勳耳鼻喉科診所,3505370162,臺南市安南區海佃路一段282號,23.026344,120.191365,06-2502345
05,臺南市,群康耳鼻喉科診所,3505370180,臺南市安南區安和路一段184號1樓,23.030196,120.213562,06-2565466
05,臺南市,北一診所,3505370064,臺南市安南區安中路一段538號1樓,23.040409,120.20034,06-2468046
05,臺南市,朱嘉生診所,3521060643,臺南市安南區安中路六段620號,23.063652,120.129185,06-2573180
05,臺南市,蔡清祥小兒科診所,3505370108,臺南市安南區同安路46號1樓,23.039262,120.18886,06-2477127
05,臺南市,顏家庭醫學科診所,3521060474,臺南市安南區安和路五段88號1樓,23.064951,120.218636,06-3565814
05,臺南市,陳昱成耳鼻喉科診所,3521062478,臺南市安南區海佃路一段196號1樓,23.02494,120.191692,06-2800178
05,臺南市,鴻仁內科小兒科診所,3521060152,臺南市安南區海佃路一段215-2號,23.024982,120.191197,06-2581853
05,臺南市,蔡添祥耳鼻喉科診所,3521062487,臺南市安南區海佃路一段90號,23.022168,120.192221,06-3587722
05,臺南市,戴明崑診所,3521060723,臺南市安南區郡安路四段79號1樓,23.027933,120.210436,06-2833360
05,臺南市,十二佃診所,3521060385,臺南市安南區海佃路四段388巷107弄22號,23.066441,120.175737,06-2465658
05,臺南市,明德診所,3521060830,臺南市安南區安和路一段156號,23.028991,120.214228,06-2830034
05,臺南市,長安診所,3521060732,臺南市安南區長溪路三段395號,23.06794,120.196293,06-2472684
05,臺南市,羅景穗診所,3505370251,臺南市安南區安中路四段262號,23.050999,120.167118,06-2452123
05,臺南市,順安耳鼻喉科診所,3505370224,臺南市安南區安和路一段55號,23.027062,120.214733,06-2833973
05,臺南市,台灣基督長老教會新樓醫療財團法人新樓安南診所,4005370010,臺南市安南區海佃路二段658號,23.044193,120.186322,06-2562363
05,臺南市,許文錦家庭醫學科診所,3521060929,臺南市安南區同安路400號,23.044412,120.193634,06-2455511
05,臺南市,賴俊良骨外科診所,3521060858,臺南市安南區安和路2段267號,23.042511,120.215861,06-3559260
05,臺南市,應達儀內科診所,3521062441,臺南市安南區安和路四段316號,23.057459,120.218791,06-3559216
05,臺南市,長逸小兒科診所,3521062334,臺南市安南區安和路四段525號,23.061295,120.218436,06-3552277
05,臺南市,禎祿診所,3521062129,臺南市安南區安和路五段215號,23.066986,120.217085,06-3559009
05,臺南市,張銘顯診所,3521060947,臺南市安南區安和路三段92號,23.045579,120.217772,06-3559613
05,臺南市,林志哲診所,3521062245,臺南市安南區海佃路二段742號,23.045293,120.185519,06-2476907
05,臺南市,海佃診所,3505370117,臺南市安南區海佃路二段620號 ,23.043382,120.186845,06-2560202
05,臺南市,育堂診所,3521062325,臺南市安南區同安路1號2、3樓,23.03914,120.188131,06-2477896
05,臺南市,陳建杉耳鼻喉科診所,3521062307,臺南市安南區海佃路三段360號,23.053488,120.178588,06-2450731
05,臺南市,奇安內科診所,3505370126,臺南市安南區頂安里北安路三段138號,23.04218,120.203494,06-2471101
05,臺南市,臺南市安平區衛生所,2321070019,臺南市安平區育平路310號,22.994347,120.168083,06-2996885
05,臺南市,吳國堯小兒科診所,3521071520,臺南市安平區文平路438號1樓,22.993589,120.178932,06-2933358
05,臺南市,慶平美耳鼻喉科診所,3521071342,臺南市安平區慶平路559號,22.997395,120.170424,06-2976670
05,臺南市,同心小兒科診所,3521071539,臺南市安平區國平路306號1樓,22.991859,120.171361,06-2993699
05,臺南市,陳建霖內科診所,3521071502,臺南市安平區府前路二段616號1樓,22.993352,120.184265,06-2983577
05,臺南市,穠田聯合診所,3521070327,臺南市安平區永華路二段1059號,22.991444,120.166246,06-2950808
05,臺南市,陽光小兒科診所,3521071422,臺南市安平區華平路501號,22.99349,120.17524,06-2937711
05,臺南市,石門診所,3521070201,臺南市安平區安平路21號,22.998996,120.167862,06-2242666
05,臺南市,黃義盛小兒科診所,3505380140,臺南市安平區民權路四段141號,22.998974,120.182576,06-2599589
05,臺南市,周恭維診所,3521071440,臺南市安平區華平路595號,22.995766,120.175603,06-2938599
05,臺南市,健全診所,3521070149,臺南市安平區平通路444號,22.993366,120.173661,06-2995356
05,臺南市,佳暘骨科診所,3505380024,臺南市安平區華平路545號,22.994547,120.175408,06-2980099
05,臺南市,平安聯合診所,3505380266,臺南市安平區府平路7號,22.986297,120.174118,06-2970500
05,臺南市,維特健康診所,3505380417,臺南市安平區安平路23號,22.999013,120.167811,06-2215566
05,臺南市,宏安耳鼻喉科診所,3505380211,臺南市安平區華平路575號,22.995199,120.175531,06-2986262
05,臺南市,臺南市永康區衛生所,2341310014,臺南市永康區文化路51號,23.016518,120.261162,06-2326507
05,臺南市,奇美醫療財團法人奇美醫院,1141310019,臺南市永康區中華路901號,23.020606,120.221897,06-2812811
05,臺南市,高雄榮民總醫院臺南分院,0641310018,臺南市永康區復興路427號,22.997218,120.240316,06-3125101
05,臺南市,光田診所,3541311203,臺南市永康區鹽行里中正路535號,23.039603,120.238924,06-2425866
05,臺南市,史地分小兒科診所,3541312997,臺南市永康區大橋一街57號,23.016926,120.227418,06-3039099
05,臺南市,永大診所,3541312577,臺南市永康區中山路17號,23.026914,120.256887,06-2310932
05,臺南市,許進賢耳鼻喉科診所,3541311098,臺南市永康區民族路376號,23.007929,120.266668,06-2724321
05,臺南市,復華耳鼻喉科診所,3541312424,臺南市永康區復國一路469號,23.014842,120.245053,06-2025392
05,臺南市,蔡尚均小兒科診所,3541312960,臺南市永康區中華路675之1號,23.015964,120.228954,06-3020188
05,臺南市,利民內科診所,3541311249,臺南市永康區中正路258之2號,23.03122,120.250197,06-2039513
05,臺南市,丞康小兒科診所,3541310715,臺南市永康區中山北路30號,23.026013,120.257971,06-2332400
05,臺南市,中正耳鼻喉科診所,3541313172,臺南市永康區正強街231號,23.029662,120.251574,06-2333566
05,臺南市,仁享診所,3541311301,臺南市永康區富強路一段20號,23.014019,120.272283,06-2719351
05,臺南市,永慶診所,3541312862,臺南市永康區復國一路198號,23.006328,120.246246,06-3133996
05,臺南市,王建章婦產科診所,3541312657,臺南市永康區中華路580號,23.012968,120.231301,06-2336605
05,臺南市,杏新耳鼻喉科診所,3505310264,臺南市永康區中山南路12-2號,23.011683,120.226952,06-3029066
05,臺南市,阮嵩翔耳鼻喉科診所,3541312871,臺南市永康區大灣路930號1樓,22.999642,120.255268,06-2728333
05,臺南市,成美診所,3505310068,臺南市永康區中華路393號1樓,23.009423,120.233076,06-3039028
05,臺南市,黃建雄耳鼻喉科,3505310120,臺南市永康區中華路842號1樓,23.01864,120.226365,06-3038262
05,臺南市,永康姜林診所,3505310031,臺南市永康區中華路219號1樓,23.005206,120.235197,06-3127738
05,臺南市,翁韶嶽耳鼻喉科診所,3541312808,臺南市永康區中華二路383號,23.008306,120.231531,06-3135216
05,臺南市,昕安內科診所,3541312488,臺南市永康區永大路二段1010、1012號,23.027082,120.260825,06-2725237
05,臺南市,楊燿郎耳鼻喉科,3541312497,臺南市永康區中山路83號,23.029796,120.256075,06-3013101
05,臺南市,怡人診所,3541312620,臺南市永康區復興路15號,22.998494,120.25004,06-2720777
05,臺南市,龍潭診所,3541312586,臺南市永康區自強路469號,23.032509,120.257343,06-2317186
05,臺南市,李俊杰診所,3541313029,臺南市永康區中山北路91號,23.026821,120.259018,06-2320399
05,臺南市,永德康內科診所,3505310335,臺南市永康區中山路118號1樓,23.029218,120.256516,06-2032258
05,臺南市,鄭飛良診所,3541310788,臺南市永康區大灣路390號1樓,23.000789,120.261309,06-2733337
05,臺南市,滕內科診所,3541311070,臺南市永康區永大路二段215號,23.0078,120.261943,06-2715857
05,臺南市,張耀仁小兒科診所,3541311123,臺南市永康區復國一路447號,23.014417,120.245417,06-2010199
05,臺南市,侯嘉修內科診所,3541310948,臺南市永康區中山南路33號,23.011889,120.226766,06-2027111
05,臺南市,德安小兒科診所,3541312559,臺南市永康區永大路二段1538號1樓,23.02544,120.261018,06-2032000
05,臺南市,富ㄦ康聯合診所,3505310433,臺南市永康區中山路42-1號,23.029212,120.256244,06-2318600
05,臺南市,大灣健全診所,3505310406,臺南市永康區大灣路276號1樓,23.007625,120.267821,06-2739652
05,臺南市,顏大翔內科診所,3541312415,臺南市永康區大灣路868號,22.999928,120.256631,06-2730320
05,臺南市,杏福內科診所,3541313136,臺南市永康區小東路509號,22.998676,120.235674,06-3126597
05,臺南市,楊寧娟內科診所,3505310013,臺南市永康區永大路二段153號,23.000716,120.258878,06-2721231
05,臺南市,鄭耳鼻喉科診所,3541310902,臺南市永康區永大路二段153號,23.005341,120.261143,06-2721231
05,臺南市,林獻諒小兒科診所,3541310813,臺南市永康區六合里中華路347號,23.008213,120.233726,06-3134761
05,臺南市,康橋診所,3505310077,臺南市永康區東橋里東橋一路156號,23.018111,120.234319,06-3036759
05,臺南市,中華誠康診所,3505310595,臺南市永康區西橋里中華路777號,23.018492,120.226014,06-3029110
05,臺南市,黃仲銘診所,3541312915,臺南市永康區大灣五街37號,23.006806,120.265974,06-2733268
05,臺南市,柯俊良診所,3505310200,臺南市永康區中華西街44號１樓,23.013576,120.227343,06-2333521
05,臺南市,隆安小兒科診所,3541313046,臺南市永康區中華二路191號2樓,23.00841,120.237709,06-3021686
05,臺南市,周劍文診所,3505310273,臺南市永康區小東路423巷2號1樓,22.999075,120.233146,06-3110218
05,臺南市,亮心診所,3505310040,臺南市永康區振興路50號1樓,23.011723,120.233864,06-3035160
05,臺南市,三愛診所,3541312899,臺南市永康區建國里復國路62號,23.001086,120.246566,06-3130970
05,臺南市,臺南市仁德區衛生所,2341270015,臺南市仁德區中山路606巷2號,22.972778,120.251461,06-2704153
05,臺南市,慈安診所,3541271580,臺南市仁德區太子路352-1號１樓,22.991485,120.257434,06-2739003
05,臺南市,泓仁診所,3541271697,臺南市仁德區中山路255號,22.970375,120.261368,06-2497031
05,臺南市,崇仁內科診所,3541271704,臺南市仁德區中山路515號,22.971232,120.253863,06-2793311
05,臺南市,黃怡方診所,3541270234,臺南市仁德區中正路二段683號,22.96017,120.253225,06-2794079
05,臺南市,林泰盟耳鼻喉科診所,3505270032,臺南市仁德區中山路362號1樓,22.97109,120.257481,06-2495278
05,臺南市,嘉大診所,3505270014,臺南市仁德區中正路一段179號1樓,22.920918,120.234808,06-2668716
05,臺南市,協和家醫科診所,3505270087,臺南市仁德區中正路三段79號1樓,22.973896,120.252574,06-2701507
05,臺南市,懷民診所,3541270485,臺南市仁德區中山路846號1樓,22.974307,120.242858,06-2494362
05,臺南市,德南家醫科診所,3541271651,臺南市仁德區中正路二段464號,22.953961,120.252289,06-2798071
05,臺南市,趙俊凱耳鼻喉科診所,3541270501,臺南市仁德區中正路二段1092號,22.969185,120.25251,06-2491886
05,臺南市,劉玉章耳鼻喉科診所,3541271713,臺南市仁德區中正路二段230號,22.948967,120.251498,06-2797888
05,臺南市,祥仁診所,3541270181,臺南市仁德區中正路二段438號 ,22.953509,120.252095,06-2703894
05,臺南市,李明禮診所,3541271571,臺南市仁德區二行一路98號,22.918678,120.225114,06-3661696
05,臺南市,仁德保安診所,3505270112,臺南市仁德區文賢路一段526號,22.932259,120.230811,06-2667220
05,臺南市,鄭建輝婦產科診所,3541270476,臺南市仁德區中正路三段10號,22.971968,120.251926,06-2702345
05,臺南市,三華診所,3541270314,臺南市仁德區太子路142號,22.991444,120.263112,06-2731826
05,臺南市,仁得內科診所,3541271731,臺南市仁德區義林12街136號,22.973004,120.261994,06-2496918
05,臺南市,吳長芳小兒科診所,3541271562,臺南市仁德區中正路二段795號,22.962916,120.253448,06-2797929
05,臺南市,衛生福利部胸腔病院,0141270019,臺南市仁德區中山路864號,22.975462,120.241802,06-2146006
05,臺南市,衛生福利部嘉南療養院,0141270028,臺南市仁德區裕忠路539號 ,22.976718,120.241951,06-2795019
05,臺南市,臺南市佳里區衛生所,2341050013,臺南市佳里區東寧里進學路159號,23.163823,120.177729,06-7224106
05,臺南市,奇美醫療財團法人佳里奇美醫院,1105050012,臺南市佳里區佳興里佳里興606號,23.181698,120.183662,06-7263333
05,臺南市,黃清相診所,3505050085,臺南市佳里區延平路72號2樓、78號1樓,23.155034,120.179467,06-7215777
05,臺南市,佳安診所,3505050183,臺南市佳里區中山路188號,23.158967,120.177228,06-7237768
05,臺南市,臺南市柳營區衛生所,2341090017,臺南市柳營區士林里54之5號,23.278625,120.310674,06-6220464
05,臺南市,奇美醫療財團法人柳營奇美醫院,1141090512,臺南市柳營區太康里201號,23.289269,120.324704,06-6226999
05,臺南市,蔡瑞頒診所,3541090101,臺南市柳營區光福里成功街210號,23.278623,120.313373,06-6224466
05,臺南市,臺南市麻豆區衛生所,2341040017,臺南市麻豆區興國路11號,23.182663,120.248463,06-5722215
05,臺南市,臺灣基督長老教會新樓醫療財團法人麻豆新樓醫院,1105040016,臺南市麻豆區麻佳路一段207號,23.179874,120.233033,06-5702228
05,臺南市,陳信宏小兒科診所,3541041493,臺南市麻豆區民生路36之8號,23.181726,120.25409,06-5719889
05,臺南市,王渭鵬內科診所,3541041500,臺南市麻豆區新生南路90號,23.182834,120.240994,06-5711117
05,臺南市,禾安診所,3505040070,臺南市麻豆區中正路59-3號1、2、3樓,23.185946,120.24917,06-5726166
05,臺南市,得恩診所,3505040089,臺南市麻豆區興國路56-23號,23.177053,120.247118,06-5711855
05,臺南市,臺南市善化區衛生所,2341070015,臺南市善化區中山路200號,23.132764,120.299922,06-5837035
05,臺南市,宏科醫院,1541070045,臺南市善化區三民路1-35號,23.127531,120.286956,06-5818868
05,臺南市,誼仁診所,3505070032,臺南市善化區中正路387號,23.127838,120.293978,06-5817237
05,臺南市,陳清煌診所,3541070127,臺南市善化區中山路296號,23.13213,120.295278,06-5831450
05,臺南市,大成診所,3505070087,臺南市善化區大成路98號,23.130611,120.303141,06-5833300
05,臺南市,蔡國麟診所,3541070243,臺南市善化區光復路40號,23.128779,120.292846,06-5813771
05,臺南市,東升診所,3505070121,臺南市善化區中山路230號,23.132441,120.298173,06-5851888
05,臺南市,吳建輝診所,3541071357,臺南市善化區大成路210號,23.130213,120.300471,06-5853466
05,臺南市,善化誠康診所,3505070158,臺南市善化區中山路36號,23.133509,120.305514,06-5830928
05,臺南市,希拉亞骨科診所,3541071375,臺南市善化區大成路196號,23.130251,120.300736,06-5853931
05,臺南市,聯合耳鼻喉科診所,3541071295,臺南市善化區大成路312之1號,23.129878,120.298002,06-5851696
05,臺南市,臺南市新市區衛生所,2341200013,臺南市新市區中興街12號,23.079004,120.295069,06-5992504
05,臺南市,臺南科學工業園區聯合診所,2741200511,臺南市新市區南科三路7號,23.098756,120.284209,06-5050225
05,臺南市,佳安小兒科診所,3541201319,臺南市新市區中正路331-1號,23.079875,120.294647,06-5995234
05,臺南市,愛欣診所,3541200223,臺南市新市區民權路25號,23.077805,120.291265,06-5996996
05,臺南市,宗詰診所,3541200232,臺南市新市區光華街38號,23.072982,120.297831,06-5991829
05,臺南市,玉興診所,3541200134,臺南市新市區中正路338號,23.078986,120.292951,06-5012504
05,臺南市,臺南市新化區衛生所,2341060019,臺南市新化區健康路143號,23.034397,120.304781,06-5905398
05,臺南市,徐小兒科診所,3541061691,臺南市新化區中山路193號,23.036697,120.310061,06-5901995
05,臺南市,陳相國聯合診所,3541060523,臺南市新化區中山路491之1號,23.035682,120.303045,06-5908878
05,臺南市,衛生福利部臺南醫院新化分院,0141060513,臺南市新化區那拔里牧場72號,23.062491,120.336408,06-5911929
05,臺南市,劉琳榕小兒科診所,3541061682,臺南市新化區忠孝路120號,23.038004,120.304395,06-5970088
05,臺南市,崇祐聯合診所,3541061735,臺南市新化區忠孝路285號,23.036874,120.301062,06-5980342
05,臺南市,王覲瑜診所,3541060247,臺南市新化區民權街15號,23.036348,120.304741,06-5902773
05,臺南市,臺南市新營區衛生所,2341010019,臺南市新營區三民路72號,23.30769,120.317351,06-6355696
05,臺南市,衛生福利部新營醫院,0141010013,臺南市新營區信義街73號,23.309153,120.313203,06-6351131
05,臺南市,營新醫院,1541011126,臺南市新營區隋唐街228號,23.308389,120.299764,06-6592345
05,臺南市,陳俊達家醫科診所,3505010036,臺南市新營區民治路9號,23.310824,120.320575,06-6321211
05,臺南市,同慶診所,3541010621,臺南市新營區三民路37之6號,23.307312,120.319723,07-2260957
05,臺南市,樂恩聯合診所,3541012269,臺南市新營區三民路106號,23.307174,120.314398,06-6331666
05,臺南市,楊俊士診所,3541010916,臺南市新營區復興路129之4號,23.303322,120.309522,06-6353953
05,臺南市,曾建昌內兒科診所,3541010096,臺南市新營區中山路202號,23.303757,120.315545,06-6359119
05,臺南市,鄭立華小兒科診所,3541010667,臺南市新營區中正路205號,23.31847,120.316204,06-6353391
05,臺南市,張志仁診所,3541010738,臺南市新營區大同路6之6號,23.30862,120.322683,06-6356220
05,臺南市,新興醫療社團法人新興醫院,0941010019,臺南市新營區中興路10號,23.303654,120.316862,06-6330011
05,臺南市,麗安皮膚科診所,3541010943,臺南市新營區三民路76-11、12號,23.307403,120.316355,06-6377899
05,臺南市,杏仁診所,3541010247,臺南市新營區民有街27號,23.303663,120.314657,06-6332659
05,臺南市,臺南市歸仁區衛生所,2341280011,臺南市歸仁區中正北路一段1號,22.967445,120.294344,06-2393309
05,臺南市,洪志旺耳鼻喉科診所,3541281675,臺南市歸仁區中山路二段30號,22.96698,120.293124,06-3305903
05,臺南市,吳世安陳沛仁聯合診所,3541280178,臺南市歸仁區民族北街17巷6號,22.967784,120.292079,06-2393396
05,臺南市,裕文診所,3541280356,臺南市歸仁區民族南街1號,22.966636,120.29226,06-2397095
05,臺南市,林廷璋耳鼻喉科診所,3505280056,臺南市歸仁區民權三街98號,22.969353,120.290209,06-2309919
05,臺南市,蔡迪光小兒科診所,3541281602,臺南市歸仁區民權北路107號,22.969919,120.288058,06-2397839
05,臺南市,德安診所,3505280109,臺南市歸仁區民權北路75號,22.969242,120.287899,06-2300299
05,臺南市,懷仁內科診所,3541280301,臺南市歸仁區中山路一段530號,22.966702,120.295765,06-2303995
05,臺南市,祥瑞診所,3541280365,臺南市歸仁區民族南街22號,22.966293,120.291943,06-2397358
05,臺南市,陳沛仁家庭醫學科診所,3541281693,臺南市歸仁區民族北街17巷6號,22.967784,120.292079,06-2393396
05,臺南市,文化皮膚科診所,3505280010,臺南市歸仁區文化街二段147號,22.970607,120.289278,06-3386397
05,臺南市,張雅宜皮膚科診所,3541281666,臺南市歸仁區中山路三段14號1、2樓,22.967631,120.287381,06-2302217
05,臺南市,吳國榮聯合診所,3541280052,臺南市歸仁區中山路2段52號,22.96704,120.292584,06-2306239
05,臺南市,啟仁診所,3505280083,臺南市歸仁區中山路一段538號,22.966719,120.295595,06-2301858
05,臺南市,臺南市關廟區衛生所,2341290017,臺南市關廟區中正路1000號,22.963028,120.327248,06-5952395
05,臺南市,盈泰診所,3505290089,臺南市關廟區中正路1023、1025號,22.963224,120.326387,06-5962777
05,臺南市,林大凱耳鼻喉科診所,3541291180,臺南市關廟區中山路二段137之9號,22.960121,120.32583,06-5963685
05,臺南市,陳育瑄小兒科診所,3541291224,臺南市關廟區中山路一段251號,22.95906,120.330557,06-5960077
05,臺南市,祥和診所,3505290061,臺南市關廟區中正路931號,22.961993,120.329843,06-5967711
05,臺南市,佑康診所,3541291171,臺南市關廟區中山路一段620巷7號,22.96026,120.328502,06-5967581
05,臺南市,關新診所,3541291199,臺南市關廟區中山路二段125號,22.960018,120.326502,06-5950338
05,臺南市,吉安醫院,0905290020,臺南市關廟區中正路435號,22.967047,120.344314,06-6025115
05,臺南市,滿福診所,3541290165,臺南市關廟區南雄路二段500號,22.967554,120.327393,06-5965500
05,臺南市,臺南市白河區衛生所,2341030011,臺南市白河區國光路5號,23.352034,120.415814,06-6852024
05,臺南市,新生診所,3541030016,臺南市白河區中正路34號,23.349506,120.415549,06-6852246
05,臺南市,安聯診所,3505030038,臺南市白河區富民路62號,23.344826,120.415953,06-6852555
05,臺南市,豐安診所,3541030114,臺南市白河區玉豐里142之5號,23.377189,120.417147,06-6832046
05,臺南市,臺南市東山區衛生所,2341110014,臺南市東山區東山里236號,23.326281,120.404753,06-6802618
05,臺南市,康健診所,3505110013,臺南市東山區前大埔182號,23.265211,120.444264,06-6864268
05,臺南市,臺南市官田區衛生所,2341140012,臺南市官田區中山路一段128號,23.193068,120.3161,06-5791493
05,臺南市,宗政診所,3541140115,臺南市官田區中山路一段108號,23.192898,120.316907,06-5792170
05,臺南市,臺南市大內區衛生所,2341150018,臺南市大內區大內里2號,23.119268,120.356947,06-5761044
05,臺南市,大內高手診所,3505150026,臺南市大內區內江里內庄268-2號,23.117633,120.361354,06-5761766
05,臺南市,臺南市學甲區衛生所,2341080011,臺南市學甲區建國路38號,23.230277,120.181923,06-7833359
05,臺南市,侯瑞合診所,3541080061,臺南市學甲區華宗路365號,23.232129,120.18214,06-7836611
05,臺南市,順安診所,3541080178,臺南市學甲區建國路121號,23.23039,120.178488,06-7822389
05,臺南市,聖恩診所,3541081219,臺南市學甲區民權路65號,23.231199,120.18015,06-7833487
05,臺南市,六順診所,3505080029,臺南市學甲區濟生路94號,23.232771,120.18189,06-7832136
05,臺南市,臺南市西港區衛生所,2341160014,臺南市西港區中山路368號,23.12328,120.203262,06-7952338
05,臺南市,千日好診所,3541161114,臺南市西港區中山路350號,23.122012,120.20335,06-7954509
05,臺南市,健安診所,3541160073,臺南市西港區中山路325號,23.122174,120.202986,06-7959937
05,臺南市,徐春暉診所,3541160082,臺南市西港區慶安路95之8號,23.120863,120.200828,06-7961193
05,臺南市,鴻仁診所,3541160037,臺南市西港區慶安路156號,23.120885,120.199299,06-7952050
05,臺南市,臺南市將軍區衛生所,2341180016,臺南市將軍區忠興185-6號,23.201391,120.158615,06-7942007
05,臺南市,美地診所,3541181170,臺南市將軍區苓仔寮里苓保81號1樓,23.217893,120.164703,06-7946127
05,臺南市,王茂林診所,3505180024,臺南市將軍區將富50-2號,23.215464,120.135765,06-7946621
05,臺南市,臺南市北門區衛生所,2341190012,臺南市北門區永隆里港北50號,23.276433,120.126366,06-7862043
05,臺南市,永隆診所,3505190011,臺南市北門區永隆里37-1號,23.269608,120.123492,06-7862999
05,臺南市,大立診所,3541190035,臺南市北門區北門里72號,23.267258,120.124859,06-7860090
05,臺南市,臺南市安定區衛生所,2341210019,臺南市安定區安定里59號之1,23.121568,120.237089,06-5922022
05,臺南市,張榮昌診所,3541211299,臺南市安定區港南里港口206-4號,23.091325,120.23278,06-5936278
05,臺南市,海寮診所,3541210149,臺南市安定區海寮里7-9號,23.091543,120.210309,06-5932693
05,臺南市,顏慶山診所,3541210256,臺南市安定區保西里454號,23.122264,120.236746,06-5924777
05,臺南市,珉安診所,3541210229,臺南市安定區港口里235-4號,23.091282,120.234892,06-5932793
05,臺南市,佳祐診所,3505210018,臺南市安定區安定里安定47-16號,23.121749,120.238675,06-5976778
05,臺南市,臺南市下營區衛生所,2341120010,臺南市下營區中山路二段137號,23.231535,120.262393,06-6892149
05,臺南市,晨祐診所,3505120037,臺南市下營區中正南路55號1樓,23.233985,120.263255,06-6892525
05,臺南市,賴內兒科診所,3541120033,臺南市下營區中山路一段92號,23.235223,120.263098,06-6892820
05,臺南市,臺南市後壁區衛生所,2341100018,臺南市後壁區後壁里3號,23.36549,120.362212,06-6872624
05,臺南市,安安診所,3505100026,臺南市後壁區後壁里131-9號1樓,23.36578,120.362544,06-6873366
05,臺南市,臺南市南化區衛生所,2341250013,臺南市南化區南化里226-1號,23.044402,120.479266,06-5773493
05,臺南市,人愛診所,3541250018,臺南市南化區南化里222號,23.044084,120.478879,06-5773535
05,臺南市,臺南市左鎮區衛生所,2341260019,臺南市左鎮區中正里172-15號,23.056602,120.408886,06-5731114
05,臺南市,佳行診所,3541260032,臺南市左鎮區中正里156-10號,23.058886,120.408627,06-5731597
05,臺南市,臺南市山上區衛生所,2341220015,臺南市山上區山上里35-2號,23.098585,120.358174,06-5781013
05,臺南市,許獻帆診所,3541220109,臺南市山上區南洲里南洲130-3號,23.102364,120.353967,06-5782015
05,臺南市,臺南市楠西區衛生所,2341240017,臺南市楠西區中正路226號,23.174357,120.48601,06-5751006
05,臺南市,得安診所,3541241117,臺南市楠西區茄拔路167號,23.175314,120.486251,06-5753121
05,臺南市,臺南市六甲區衛生所,2341130016,臺南市六甲區中華路110號,23.224672,120.346879,06-6982013
05,臺南市,民生診所,3541130084,臺南市六甲區中正路531號,23.231106,120.351375,06-6986015
05,臺南市,泰和診所,3541130119,臺南市六甲區中山路101號,23.231009,120.349326,06-6989595
05,臺南市,守德診所,3541130093,臺南市六甲區中山路20號,23.230955,120.351011,06-6983009
05,臺南市,六甲宏仁診所,3541130048,臺南市六甲區中正路339號,23.226789,120.351274,06-6981505
05,臺南市,臺南市玉井區衛生所,2341230011,臺南市玉井區中正路5號,23.12235,120.459103,06-5742275
05,臺南市,雙美診所,3541231255,臺南市玉井區太子街39巷8號,23.122762,120.460641,06-5746996
05,臺南市,江榮展診所,3541230169,臺南市玉井區民生路17號,23.125095,120.460642,06-5745834
05,臺南市,臺南市鹽水區衛生所,2341020015,臺南市鹽水區武廟路1號,23.320245,120.265297,06-6521041
05,臺南市,臺南市七股區衛生所,2341170010,臺南市七股區大埕里379號,23.140159,120.138676,06-7872277
05,臺南市,謝宏榮診所,3541170033,臺南市七股區玉成里3之33號,23.138992,120.136657,06-7873238
05,臺南市,臺南市龍崎區衛生所,2341300018,臺南市龍崎區崎頂里新市子158號,22.965212,120.361824,06-5941397
45,花蓮縣,佛教慈濟醫療財團法人花蓮慈濟醫院,1145010010,花蓮縣花蓮市中央路三段707號,23.995729,121.592282,(03)8561825
45,花蓮縣,臺北榮民總醫院鳳林分院,0645020015,花蓮縣鳳林鎮中正路一段2號,23.727428,121.439215,(03)8764539
45,花蓮縣,臺北榮民總醫院玉里分院,0645030011,花蓮縣玉里鎮新興街91號,23.339213,121.312031,(03)8883141#5300~5301
45,花蓮縣,門諾醫院,1145010037,花蓮縣花蓮市民權路44號,23.988257,121.626626,(03)8241021
45,花蓮縣,秀林鄉衛生所,2345110010,花蓮縣秀林鄉秀林路88號,24.117994,121.625709,(03)8612122
45,花蓮縣,吉安鄉衛生所,2345050019,花蓮縣吉安鄉吉安路二段132號,23.973807,121.563847,(03)8521113
45,花蓮縣,新城鄉衛生所,2345040013,花蓮縣新城鄉北埔路160號,24.030874,121.605262,(03)8266781
45,花蓮縣,花蓮市衛生所,2345010015,花蓮縣花蓮市新興路200號,23.991433,121.617151,(03)8230232
99,臺東縣,台灣基督長老教會馬偕醫療財團法人台東馬偕紀念醫院,1146010014,臺東縣臺東市長沙街303巷1號,22.751293,121.140602,089-310150
99,臺東縣,衛生福利部臺東醫院,0146010013,臺東縣臺東市五權街1號,22.757808,121.149852,089-324112
99,臺東縣,東基醫療財團法人台東基督教醫院,1146010032,臺東縣臺東市開封街350號,22.763821,121.146016,089-323362
99,臺東縣,臺北榮民總醫院台東分院,0646010013,臺東縣臺東市更生路1000號 ,22.772345,121.132431,089-222995
99,臺東縣,佛教慈濟醫療財團法人關山慈濟醫院,1146030516,臺東縣關山鎮和平路125之5,23.057105,121.167123,089-814880
99,臺東縣,衛生福利部臺東醫院成功分院,0146020537,臺東縣成功鎮中山東路32號 ,23.099295,121.377829,089-854748
99,臺東縣,路瑪診所,3546012474,台東縣台東市吉泰路18號,22.706641,121.05743,089-510015
99,臺東縣,大慶家醫科外科診所,3546010238,台東縣台東市中山路267號,22.756105,121.151902,089-322221
99,臺東縣,大溪診所,3546010818,台東縣台東市大順路23號,22.707149,121.042067,089-511999
99,臺東縣,黃信揚診所,3546012483,台東市南京路135號,22.758386,121.147885,089-350385
99,臺東縣,尤憲明內科小兒科診所,3546012072,台東縣台東市中華路一段396號,22.754093,121.152801,089-323306
99,臺東縣,豐田診所,3546011931,台東縣台東市中興路四段495號,22.774339,121.092569, 089-382835
99,臺東縣,李旺駿耳鼻喉科診所,3546012358,台東縣台東市中華路一段317號,22.754933,121.153914,089-310568
99,臺東縣,李惠雄內科診所,3546012269,台東縣台東市中正路334號,22.75718,121.151849,089-361850
99,臺東縣,路加診所,3546010729,台東縣台東市新生路236號,22.754878,121.145596,089-352966
99,臺東縣,東興內科診所,3546012296,台東縣台東市四維路三段36號,22.766051,121.144424,089-228678
99,臺東縣,東和外科診所,3546010247,台東縣台東市大同路150號,22.754021,121.152564,089-311011
99,臺東縣,台東聖母醫院,1146010041,台東縣台東市杭州街2號,22.757629,121.146416,089-322833
99,臺東縣,台東市衛生所,2346010019,台東縣台東市大同路51號,22.750382,121.156238,089-362192
99,臺東縣,卑南鄉衛生所,2346040017,台東縣卑南鄉和平路132號,22.782094,121.088073, 089-382042
99,臺東縣,安健家醫科婦產科診所,3546061208,台東縣太麻里鄉外環路76號,22.611587,121.006559,089-780720
99,臺東縣,仁和內科外科診所,3546061191,台東縣太麻里鄉外環路218號,22.606106,121.003603,089-780310
99,臺東縣,太麻里衛生所,2346060019,臺東縣太麻里鄉民權路66號,22.615376,121.007423,089-781220
99,臺東縣,曾建元家醫科診所,3546021231,台東縣成功鎮中華路112號,23.101004,121.380011,089-851002
99,臺東縣,成功鎮衛生所,2346020015,台東縣成功鎮中山東路64號,23.099927,121.379504,089-851419
99,臺東縣,池上鄉衛生所,2346100018,台東縣池上鄉中山路104號,23.121687,121.214811,089-862609
99,臺東縣,延平鄉衛生所,2346120010,臺東縣延平鄉衛生所,22.902107,121.08564,089-561358
99,臺東縣,都蘭診所,3546071071,台東縣東河鄉96號,22.872971,121.227547,089-530021
99,臺東縣,東河鄉衛生所,2346070015,台東縣東河鄉300號,22.968494,121.303077,089-896289
99,臺東縣,金峰鄉衛生所,2346150018,台東縣金峰鄉14號,22.532428,120.960701,089-772201
99,臺東縣,長濱鄉衛生所,2346080011,台東縣長濱鄉長濱5鄰15號,23.31878,121.453925,089-831022
99,臺東縣,海端鄉衛生所,2346130016,台東縣海端鄉海端村山界29號,23.100942,121.176693, 089-931391
99,臺東縣,鹿野診所,3546090030,台東縣鹿野鄉中華路二段156號,22.913902,121.136393,089-550457
99,臺東縣,鹿野鄉衛生所,2346090017,台東縣鹿野鄉中華路一段418號,22.910277,121.136358,089-551074
99,臺東縣,達仁鄉衛生所,2346140012,台東縣達仁鄉復興路122號,22.293353,120.884945,089-702209
99,臺東縣,綠島鄉衛生所,2346110014,台東縣綠島鄉中寮1-1號,22.672905,121.469257,089-672511
99,臺東縣,民安診所,3546030105,台東縣關山鎮中華路58號,23.048558,121.163372,089-814568
99,臺東縣,東興關山診所,3546031166,台東縣關山鎮德高里永豐48－2號,23.071179,121.172623, 089-931575
99,臺東縣,關山鎮衛生所,2346030011,台東縣關山鎮中華路78號,23.049569,121.163854,089-811042
99,臺東縣,蘭嶼鄉衛生所,2346160014,台東縣蘭嶼鄉36之1號,22.024916,121.55465, 089-732575
99,臺東縣,大武鄉衛生所,2346050013,台東縣大武鄉復興路2-2號,22.364141,120.907819, 089-791143
32,桃園市,桃園區衛生所,2332010010,桃園市桃園區國豐三街123號4樓,24.990212,121.278678,03-3791888
32,桃園市,衛生福利部桃園醫院,0132010014,桃園市桃園區中山路1492號,24.977705,121.268092,03-3699721
32,桃園市,敏盛綜合醫院,1532011154,桃園市桃園區經國路168號,25.016313,121.306174,03-3179599
32,桃園市,沙爾德聖保祿修女會醫療財團法人聖保祿醫院,1132010024,桃園市桃園區建新街123號,24.982115,121.312507,03-3613141
32,桃園市,敏盛綜合醫院（三民院區）,1532011154,桃園市桃園區三民路三段106號,25.016313,121.306174,03-3179599
32,桃園市,臺北榮民總醫院桃園分院,0632010014,桃園市桃園區成功路三段100號,25.003741,121.325315,03-3384889
32,桃園市,聯新國際醫院桃新分院,1532010120,桃園市桃園區復興路195號,24.989179,121.309498,03-3325678
32,桃園市,林信佑診所,3532016508,桃園市桃園區大業路一段131號1樓,25.006195,121.316434,03-3371100
32,桃園市,謝秋梅診所,3532012635,桃園市桃園區大有路428號,25.01125,121.319355,03-3151100
32,桃園市,振興診所,3532015731,桃園市桃園區中正路543號,25.003003,121.305677,03-3332077
32,桃園市,蘇裕哲診所,3532014684,桃園市桃園區國鼎一街36號,24.987666,121.287642,03-3692335
32,桃園市,大順診所,3532016713,桃園市桃園區南平路302之3號,25.018514,121.298764,03-3167585
32,桃園市,李柏鋒診所,3532014782,桃園市桃園區中山路807號,24.989895,121.289171,03-2207480
32,桃園市,全家親子診所,3532016357,桃園市桃園區中正路605號,25.004721,121.304578,03-3358585
32,桃園市,永欣診所,3532014808,桃園市桃園區大興路193號1樓,25.015654,121.311981,03-3587669
32,桃園市,柯福順耳鼻喉科診所,3532012804,桃園市桃園區中山路613號,24.990919,121.294167,03-2201122
32,桃園市,永安診所,3532018253,桃園市桃園區永安路460號,25.000814,121.299387,03-3326415
32,桃園市,惠民診所,3532011441,桃園市桃園區三民路三段282號,24.990732,121.306439,03-3379496
32,桃園市,晨宏診所,3532017550,桃園市桃園區莊敬路二段101號,25.022469,121.293035,03-3019088
32,桃園市,晨暘診所,3532016446,桃園市桃園區寶山街235-2號,25.011683,121.315073,03-3175777
32,桃園市,昇暉診所,3532012564,桃園市桃園區永安路275號,24.998915,121.302193,03-3366368
32,桃園市,吉兒診所,3532014871,桃園市桃園區民光東路107號,25.007928,121.318372,03-3339995
32,桃園市,鴻林耳鼻喉科診所,3532012966,桃園市桃園區中正路567號,25.004038,121.304908,03-3377088
32,桃園市,明欣診所,3532015976,桃園市桃園區南平路206號之2,25.019476,121.301294,03-3169189
32,桃園市,桃庚聯合診所,3532012591,桃園市桃園區國際路二段38號,24.991254,121.288583,03-3020185
32,桃園市,永晉診所,3532015556,桃園市桃園區上海路110號,24.99153,121.282636,03-3441199
32,桃園市,尚群診所,3532014157,桃園市桃園區三民路三段512號,24.9832,121.307361,03-3672348
32,桃園市,孫德金小兒科診所,3532012948,桃園市桃園區桃鶯路209號,24.984812,121.318472,03-3778759
32,桃園市,何翊菁診所,3532014773,桃園市桃園區中埔六街123號,25.01789,121.295194,03-3551192
32,桃園市,李應燦診所,3532011218,桃園市桃園區中山路52號,24.995049,121.311725,03-3362578
32,桃園市,良祐診所,3532014997,桃園市桃園區南平路518號1樓,25.016297,121.293638,03-3167778
32,桃園市,奕恩小兒科診所,3532014728,桃園市桃園區天祥三街36號,25.016231,121.304291,03-3571580
32,桃園市,胡錕杰診所,3532014924,桃園市桃園區中埔二街121號1樓,25.011825,121.295907,03-3025371
32,桃園市,家和診所,3532016571,桃園市桃園區大業路二段13號1樓,25.016217,121.311201,03-3575170
32,桃園市,晨芳婦產科診所,3532015145,桃園市桃園區中正路847號,25.010679,121.300976,03-3167656
32,桃園市,曹景雄小兒科診所,3532014675,桃園市桃園區延平路113號,24.9843,121.314808,03-2183141
32,桃園市,智元診所,3532015270,桃園市桃園區大業路一段333號,25.011676,121.312569,03-3150708
32,桃園市,聖家小兒科診所,3532012617,桃園市桃園區中山路523號,24.99104,121.297107,03-3382886
32,桃園市,惠生保安婦幼診所,3532017818,桃園市桃園區介壽路493號1至3樓,24.977343,121.303642,03-2185678
32,桃園市,慈文診所,3532015896,桃園市桃園區中正路566號1樓,25.003736,121.30546,03-3355482
32,桃園市,大中骨科診所,3532016919,桃園市桃園區中正路566號1、2樓,25.003736,121.30546,03-3355482
32,桃園市,慧安耳鼻喉科診所,3532014086,桃園市桃園區莊敬路二段78號,25.022834,121.293256,03-3013223
32,桃園市,忠央診所,3532010104,桃園市桃園區中正路505號,25.002472,121.305966,03-3328427
32,桃園市,愛兒親子診所,3532017925,桃園市桃園區慈文路192號,25.009073,121.304089,03-3554766
32,桃園市,吳耳鼻喉科診所,3532017676,桃園市桃園區民生路202號,24.993887,121.313165,03-3373377
32,桃園市,陸勇亮診所,3532011414,桃園市桃園區大林里桃鶯路273號,24.978276,121.321817,03-3623368
32,桃園市,偉勝耳鼻喉科診所,3532014308,桃園市桃園區中正路558號,25.00353,121.30559,03-3473858
32,桃園市,家恩診所,3532017710,桃園市桃園區桃智路12號,24.96467,121.294961,03-3632300
32,桃園市,聖昕診所,3532017943,桃園市桃園區大興西路二段76巷10號1樓,25.012307,121.298368,03-3021278
32,桃園市,聖德診所,3532016517,桃園市桃園區大興西路二段69巷3號1樓,25.011163,121.298697,03-3562319
32,桃園市,寶順診所,3532018217,桃園市桃園區寶山街239號,25.011586,121.314787,03-3560127
32,桃園市,龍和診所,3532017130,桃園市桃園區龍安街153號,24.991439,121.279234,03-3786145
32,桃園市,中壢區衛生所,2332020016,桃園市中壢區溪洲街296號,24.962288,121.230012,03-4352666
32,桃園市,天成醫療社團法人天晟醫院,0932020025,桃園市中壢區延平路155號,24.962598,121.229069,03-4629292
32,桃園市,中壢長榮醫院,1532021338,桃園市中壢區環中東路150號,24.964414,121.257833,03-4631230
32,桃園市,新國民醫院,0932020034,桃園市中壢區復興路152號,24.954132,121.223571,03-4225180
32,桃園市,長慎醫院,1532021374,桃園市中壢區中山東路二段525號,24.94799,121.24637,03-4569779
32,桃園市,黃志焜診所,3532022793,桃園市中壢區慈惠三街135號,24.964224,121.225498,03-4277860
32,桃園市,吳家淦耳鼻喉科診所,3532022239,桃園市中壢區中山路21號,24.955278,121.227795,03-4272728
32,桃園市,林國揆小兒科診所,3532025570,桃園市中壢區中北路二段402號,24.954046,121.232304,03-4387023
32,桃園市,忠孝診所,3532026924,桃園市中壢區忠孝路73及75號,24.974253,121.255912,03-4630063
32,桃園市,葉欽池小兒科診所,3532022480,桃園市中壢區延平路553號,24.955424,121.222972,03-4222376
32,桃園市,趙葉林診所,3532024537,桃園市中壢區龍東路475號,24.934895,121.256663,03-4369911
32,桃園市,德祐診所,3532024475,桃園市中壢區榮民路10號,24.970455,121.260544,03-4353371
32,桃園市,中新小兒科聯合診所,3532022702,桃園市中壢區中北路二段54號,24.950316,121.224504,03-4682832
32,桃園市,長春診所,3532027234,桃園市中壢區長春路122號,24.978113,121.247579,03-4331309
32,桃園市,健興診所,3532024564,桃園市中壢區忠孝路80號,24.974504,121.256,03-4630526
32,桃園市,安康耳鼻喉科診所,3532024840,桃園市中壢區復興路54號1樓,24.957339,121.224997,03-4271212
32,桃園市,林診所,3532022275,桃園市中壢區龍東路354號,24.932293,121.255411,03-4659696
32,桃園市,吉康耳鼻喉科診所,3532022926,桃園市中壢區元化路56號,24.957539,121.22756,03-4228133
32,桃園市,宜安診所,3532022819,桃園市中壢區華勛街181號,24.949362,121.260796,03-4163898
32,桃園市,陳甘斌耳鼻喉科診所,3532025749,桃園市中壢區華勛街222號,24.949369,121.26051,03-4663739
32,桃園市,安倫診所,3532024313,桃園市中壢區環中東路241號,24.963449,121.257274,03-4635000
32,桃園市,黃曉生小兒科診所,3532025187,桃園市中壢區環中東路41號,24.966341,121.259995,03-4552725
32,桃園市,德美診所,3532026273,桃園市中壢區中山東路二段43號,24.95426,121.237612,03-4655599
32,桃園市,聯安家醫眼科診所,3532026335,桃園市中壢區中山東路一段331號1之2樓,24.955027,121.236346,03-4385239
32,桃園市,李經國診所,3532021312,桃園市中壢區中山東路二段191號,24.951763,121.240437,03-4659900
32,桃園市,中原診所,3532025383,桃園市中壢區中山東路一段313號,24.955293,121.236014,03-4569788
32,桃園市,同心海華診所,3532027207,桃園市中壢區六和路36號,24.964841,121.224337,03-4278960
32,桃園市,活力診所,3532026540,桃園市中壢區莊敬路160號,24.967963,121.257318,03-2713585
32,桃園市,敦仁診所,3532027163,桃園市中壢區忠孝路18號,24.972975,121.256894,03-4635353
32,桃園市,康庭診所,3532025758,桃園市中壢區莊敬路811巷6號,24.963998,121.254994,03-4336633
32,桃園市,吳瑞瓊小兒科,3532024297,桃園市中壢區元化路75號1樓,24.957872,121.22814,03-4268833
32,桃園市,陳瑞祥診所,3532025267,桃園市中壢區福州二街475號,24.96825,121.233509,03-4616600
32,桃園市,黃文昌診所,3532025052,桃園市中壢區龍岡路二段123號,24.94516,121.229533,03-2841928
32,桃園市,龍興診所,3532025945,桃園市中壢區龍勇路139號1樓及2樓,24.93821,121.235021,03-4288282
32,桃園市,東新診所,3532024411,桃園市中壢區中山東路三段72號,24.944849,121.247686,03-4375588
32,桃園市,智勇診所,3532027127,桃園市中壢區忠孝路6號,24.972642,121.25706,03-4511354
32,桃園市,佳康診所,3532027501,桃園市中壢區健行路153號1樓,24.949155,121.227549,03-4587188
32,桃園市,進華小兒科診所,3532024859,桃園市中壢區健行路226號1樓,24.947389,121.228167,03-4685858
32,桃園市,維坤診所,3532026568,桃園市中壢區健行路226號1樓,24.947389,121.228167,03-4685858
32,桃園市,愛麗康診所,3532026246,桃園市中壢區中正路110號1至2樓,24.954998,121.222894,03-4518830
32,桃園市,陳耳鼻喉科診所,3532021134,桃園市中壢區元化路105號,24.958553,121.228202,03-4250973
32,桃園市,敏昌診所,3532022515,桃園市中壢區福德路32號,24.973924,121.258833,03-4550348
32,桃園市,陳鍊生診所,3532022266,桃園市中壢區中華路一段698號1樓,24.968923,121.248873,03-4627301
32,桃園市,群青診所,3532027869,桃園市中壢區青商路141號,25.007024,121.218239,03-2873353
32,桃園市,詮順耳鼻喉科診所,3532024877,桃園市中壢區榮民路37號,24.969743,121.260998,03-4355300
32,桃園市,心安診所,3532026817,桃園市中壢區新中北路二段487號,24.955843,121.264314,03-4518808
32,桃園市,小樹苗診所,3532027654,桃園市中壢區正大街27號,24.958409,121.204747,03-4020968
32,桃園市,健康診所,3532022560,桃園市中壢區中山路394號,24.956574,121.218324,03-4953225
32,桃園市,佳國耳鼻喉科診所,3532027172,桃園市中壢區中北路47號,24.956136,121.236829,03-4664735
32,桃園市,平鎮區衛生所,2332100019,桃園市平鎮區振興路1號,24.945929,121.217776,03-4576624
32,桃園市,聯新國際醫院,1532100049,桃園市平鎮區廣泰路77號、延平路二段430巷115號,24.942015,121.205369,03-4941234
32,桃園市,振平診所,3532102116,桃園市平鎮區新富二街42號1樓,24.941578,121.214599,03-3851188
32,桃園市,維賢診所,3532102287,桃園市平鎮區和平路123號,24.947277,121.220663,03-4683636
32,桃園市,王德和診所,3532102358,桃園市平鎮區延平路三段2-1號,24.942375,121.205581,03-4013006
32,桃園市,昇元診所,3532100612,桃園市平鎮區民族路127號,24.956002,121.212025,03-4010906
32,桃園市,立群診所,3532102385,桃園市平鎮區中豐路山頂段27號1樓,24.903175,121.212125,03-4191137
32,桃園市,育英診所,3532101897,桃園市平鎮區育英路27號,24.950703,121.212232,03-4953286
32,桃園市,吳英錦小兒科診所,3532100649,桃園市平鎮區龍南路64號 ,24.924274,121.245555,03-4501043
32,桃園市,河助璽恒診所 ,3532102303,桃園市平鎮區延平路二段180號及復旦路4號,24.947351,121.21025,03-4927588
32,桃園市,聯恩診所,3532102321,桃園市平鎮區中豐路南勢二段102號,24.916763,121.210661,03-4395633
32,桃園市,義群診所,3532102438,桃園市平鎮區義興街21號,24.950813,121.209638,03-4923885
32,桃園市,陽明醫院 ,1532101091,桃園市平鎮區延平路2段56號,24.950081,121.212307,03-4929929
32,桃園市,八德區衛生所,2332080012,桃園市八德區介壽路2段361巷28號,24.947267,121.298462,03-3662781
32,桃園市,楊正全聯合診所,3532080928,桃園市八德區介壽路一段833號,24.961682,121.299989,03-3626225
32,桃園市,陳坤荃小兒科診所,3532080802,桃園市八德區介壽路一段812號,24.962209,121.299736,03-3677476
32,桃園市,振益診所,3532082342,桃園市八德區興豐路841號,24.933275,121.300062,03-3653786
32,桃園市,林添貴診所,3532080740,桃園市八德區廣福路178號,24.959591,121.295129,03-2188822
32,桃園市,晨峰診所,3532082655,桃園市八德區永豐路576號,24.975487,121.271615,03-3709886
32,桃園市,介壽診所,3532082673,桃園市八德區介壽路一段865號,24.961058,121.299884,03-3677787
32,桃園市,萬耳鼻喉科診所,3532080428,桃園市八德區介壽路一段913號,24.960097,121.299738,03-3635616
32,桃園市,廣德診所,3532082548,桃園市八德區介壽路一段942號,24.958814,121.299246,03-3623886
32,桃園市,蕭益富診所,3532081023,桃園市八德區大智路5號,24.964106,121.299983,03-3675582
32,桃園市,聖傑診所,3532082646,桃園市八德區桃鶯路85號,24.97045,121.327884,03-3665155
32,桃園市,家慶診所,3532082271,桃園市八德區廣福路188號,24.959603,121.294937,03-3638443
32,桃園市,廣恩耳鼻喉科診所,3532082324,桃園市八德區廣福路83號,24.958908,121.297241,03-3669161
32,桃園市,瀚文耳鼻喉科診所,3532082217,桃園市八德區桃鶯路5號,24.971813,121.326443,03-3641252
32,桃園市,吉米診所,3532082691,桃園市八德區忠勇五街10號1樓,24.964824,121.304805,03-3751108
32,桃園市,郭淵進診所,3532082379,桃園市八德區興豐路650號,24.930848,121.295374,03-3732373
32,桃園市,豐田診所,3532082780,桃園市八德區豐田二路56號,22.663242,120.308143,07-5506000
32,桃園市,楊梅區衛生所,2332040018,桃園市楊梅區校前路409號,24.896985,121.149676,03-4782248
32,桃園市,天成醫院,1532040039,桃園市楊梅區中山北路一段356號,24.908843,121.15712,03-4782350
32,桃園市,怡仁綜合醫院,1532040066,桃園市楊梅區楊新北路321巷30號,24.916951,121.155427,03-4855566
32,桃園市,楊明小兒科診所,3532041672,桃園市楊梅區新農街551號,24.91311,121.162482,03-4854580
32,桃園市,同心青山診所,3532042133,桃園市楊梅區青山五街14號,24.920726,121.170985,03-4962442
32,桃園市,民安診所,3532042188,桃園市楊梅區楊新路41號 ,24.912348,121.145688,03-4757681
32,桃園市,姜博文診所,3532040438,桃園市楊梅區永美路335號1樓、2樓,24.917109,121.181993,03-4826241
32,桃園市,中華汽車工業股份有限公司醫務室,3432041143,桃園市楊梅區秀才路618號,24.892121,121.134726,03-4783191
32,桃園市,明仁診所,3532040415,桃園市楊梅區楊新北路15號,24.913058,121.148737,03-4755813
32,桃園市,陽光診所,3532042008,桃園市楊梅區瑞溪路一段119號,24.90726,121.169732,03-4313455
32,桃園市,楊欣診所,3532041878,桃園市楊梅區楊新路99號,24.913222,121.144955,03-4782542
32,桃園市,同心瑞埔診所,3532042222,桃園市楊梅區中興路132號,24.916551,121.185131,03-4823598
32,桃園市,蘆竹區衛生所,2332050014,桃園市蘆竹區長安路2段238號,25.063065,121.280466,03-3524732
32,桃園市,德信診所,3532052031,桃園市蘆竹區奉化路138號,25.039207,121.288855,03-2220718
32,桃園市,慶成診所,3532052004,桃園市蘆竹區大新路107號,25.024697,121.255959,03-3137379
32,桃園市,晨新診所,3532051785,桃園市蘆竹區中正路357號,25.048971,121.291006,03-3222232
32,桃園市,晨光診所,3532052237,桃園市蘆竹區大竹路395之1號1樓,25.020738,121.264189,03-3238996
32,桃園市,王增齊診所,3532050457,桃園市蘆竹區中正路306號,25.047613,121.292193,03-3215891
32,桃園市,南崁診所,3532052344,桃園市蘆竹區南崁路241號1樓,25.048857,121.293291,03-3225582
32,桃園市,大興診所,3532052095,桃園市蘆竹區大新路17號,25.02456,121.257683,03-3236433
32,桃園市,竹安診所,3532051650,桃園市蘆竹區大竹路529之1號,25.023774,121.259367,03-3230491
32,桃園市,全右診所,3532051810,桃園市蘆竹區中山路34號1樓,25.051964,121.300952,03-2126100
32,桃園市,佳音小兒科診所,3532051767,桃園市蘆竹區錦興里中正路359號,25.049022,121.290976,03-3127553
32,桃園市,明濟診所,3532051801,桃園市蘆竹區南山路三段257號,25.084178,121.285853,03-3248677
32,桃園市,愛鄰親子診所,3532052273,桃園市蘆竹區南昌路45號1樓,25.042448,121.287611,03-3216784
32,桃園市,宏安耳鼻喉科診所,3532051847,桃園市蘆竹區南昌路261號,25.040157,121.291754,03-2122946
32,桃園市,宏日診所,3532051972,桃園市蘆竹區南昌路252號,25.040068,121.29129,03-3121200
32,桃園市,龜山區衛生所,2332070016,桃園市龜山區自強南路103號,24.991496,121.338466,03-3299645
32,桃園市,長庚醫療財團法人林口長庚紀念醫院,1132070011,桃園市龜山區復興街5號,25.061318,121.367317,03-3281200
32,桃園市,長庚醫療財團法人桃園長庚紀念醫院,1132071036,桃園市龜山區頂湖路123號,25.029312,121.366947,03-3196200
32,桃園市,大明醫院,1532070019,桃園市龜山區萬壽路二段964號,24.995363,121.33781,03-3202792
32,桃園市,周光偉診所,3532070440,桃園市龜山區萬壽路二段1085號,24.993922,121.334503,03-3505588
32,桃園市,陳完任家庭醫學科診所,3532071858,桃園市龜山區自強東路190號,24.996369,121.344083,03-3508373
32,桃園市,鴻興診所,3532072088,桃園市龜山區中興路377號,24.992362,121.335575,03-3205575
32,桃園市,台灣中油股份有限公司煉製事業部桃園煉油廠員工診所,3432072022,桃園市龜山區民生北路一段50號,25.034607,121.305985,03-3255111
32,桃園市,蕭大章診所,3532070422,桃園市龜山區萬壽路二段990號,24.995158,121.33716,03-3201860
32,桃園市,朱永恆診所,3532072266,桃園市龜山區中興路353號1樓,24.991947,121.335055,03-3508182
32,桃園市,德恩診所,3532072319,桃園市龜山區大同路3號,24.995656,121.34022,03-3508806
32,桃園市,顏福順診所,3532070593,桃園市龜山區山鶯路15號,24.991454,121.323117,03-3505638
32,桃園市,德馨診所,3532071983,桃園市龜山區復興三路3-2號,25.054593,121.375649,03-3181458
32,桃園市,無尾熊診所,3532072499,桃園市龜山區文學路259號1樓,25.040837,121.389657,03-3278068
32,桃園市,新迴龍診所,3532072579,桃園市龜山區萬壽路一段273號,25.01728,121.403638,02-82001033
32,桃園市,遠東耳鼻喉科診所,3532070548,桃園市龜山區萬壽路二段997號,24.994712,121.336781,03-3502720
32,桃園市,龍潭區衛生所,2332090018,桃園市龍潭區中正路210號,24.864041,121.21653,03-4792033
32,桃園市,國軍桃園總醫院附設民眾診療服務處,0532090029,桃園市龍潭區中興里中興路168號,24.874464,121.234977,03-34799595
32,桃園市,龍潭敏盛醫院,1532091081,桃園市龍潭區中豐路168號,24.875063,121.213863,03-4794151
32,桃園市,龍欣耳鼻喉科診所,3532091654,桃園市龍潭區中正路254號,24.862658,121.217266,03-4808306
32,桃園市,平安診所,3532091565,桃園市龍潭區中正路296號,24.861764,121.217534,03-4995763
32,桃園市,五福診所,3532090479,桃園市龍潭區五福街13號,24.86513,121.217769,03-4709709
32,桃園市,佑康診所,3532091529,桃園市龍潭區中興路225號,24.874299,121.235468,03-4994221
32,桃園市,葉步財診所,3532090399,桃園市龍潭區北龍路268號,24.867795,121.21753,03-4806356
32,桃園市,杏德芙診所,3532091707,桃園市龍潭區北龍路331號1－3樓、333號1－3樓,24.868853,121.21892,03-4792430
32,桃園市,盛杞診所,3532090111,桃園市龍潭區東龍路204號,24.864341,121.214446,03-4792061
32,桃園市,黃啟昌小兒科診所,3532090219,桃園市龍潭區中正路286號,24.861961,121.217485,03-4798466
32,桃園市,鄭幼文內科診所,3532091770,桃園市龍潭區中正路241號,24.863699,121.217291,03-4890681
32,桃園市,安嘉診所,3532090264,桃園市龍潭區中正路173號,24.866045,121.21708,03-4893715
32,桃園市,龍華診所,3532090317,桃園市龍潭區東龍路175號,24.863295,121.214626,03-4792489
32,桃園市,大溪區衛生所,2332030012,桃園市大溪區仁愛路1號,24.884488,121.285478,03-3882401
32,桃園市,鴻昇診所,3532030348,桃園市大溪區康莊路87號,24.882335,121.288352,03-3872822
32,桃園市,林佑祥診所,3532030633,桃園市大溪區員林路二段394號,24.883948,121.267504,03-3896368
32,桃園市,潘叡診所,3532030311,桃園市大溪區埔頂路一段410號,24.904223,121.276263,03-3892915
32,桃園市,張輝鵬診所,3532030464,桃園市大溪區中正東路63號,24.881846,121.29045,03-3874422
32,桃園市,誠德耳鼻喉科診所,3532031863,桃園市大溪區康莊路192號,24.879822,121.288431,03-3883132
32,桃園市,劉華亮診所,3532030491,桃園市大溪區介壽路1181號,24.899896,121.284175,03-3900909
32,桃園市,仁群診所,3532031961,桃園市大溪區仁善街222號,24.910188,121.281299,03-3806021
32,桃園市,大園區衛生所,2332060010,桃園市大園區中正西路19號,25.063355,121.195483,03-3862024
32,桃園市,呂清標診所,3532060266,桃園市大園區中正東路34號,25.063673,121.198571,03-3865941
32,桃園市,慧明聯合診所,3532060239,桃園市大園區新生路133 號,25.064098,121.20049,03-3866698
32,桃園市,楊若麟診所,3532060177,桃園市大園區新生路83號,25.065037,121.199867,03-3851688
32,桃園市,大義婦產科診所,3532060140,桃園市大園區新興路23號,25.064387,121.194436,03-3869669
32,桃園市,觀音區衛生所,2332120011,桃園市觀音區觀新路58號,25.027823,121.083751,03-4732031
32,桃園市,健群診所,3532121791,桃園市觀音區中正路242號,25.035108,121.080609,03-4738658
32,桃園市,健亞診所,3532121675,桃園市觀音區中山路二段939號,25.009654,121.141724,03-4980220
32,桃園市,新屋區衛生所,2332110015,桃園市新屋區中山路239號,24.972591,121.106762,03-4772018
32,桃園市,衛生福利部桃園醫院新屋分院,0132110519,桃園市新屋區新福二路6號,24.969856,121.107189,03-4971989
32,桃園市,佑生小兒科診所,3532110565,桃園市新屋區新屋里中正路48號,24.973541,121.105768,03-4773161
32,桃園市,復興區衛生所,2332130017,桃園市復興區中正路25號,24.815071,121.350982,03-3822325
32,桃園市,泰千診所,3532131144,桃園市復興區羅浮村127號,24.793688,121.364399,03-3822748
32,桃園市,高揚威家醫科診所,3532131135,桃園市復興區澤仁里忠孝路32號,24.814561,121.351422,03-3822839
12,新竹市,新竹臺大新竹分院,0412040012,新竹市北區經國路一段442巷25號,24.816707,120.97992,03-5326151
12,新竹市,新竹馬偕紀念醫院,1112010519,新竹市東區光復路二段690號,24.800087,120.990781,03-6119595
12,新竹市,新竹市立馬偕兒童醫院,1112010537,新竹市東區建功二路28號,24.797159,121.002927,03-5719999
12,新竹市,新竹國泰綜合醫院,1112010528,新竹市東區中華路二段678號,24.798257,120.965227,03-5278999
12,新竹市,國軍桃園總醫院新竹分院,0512040014,新竹市北區武陵路3號,24.815372,120.962391,03-5348181
12,新竹市,南門綜合醫院,1512011185,新竹市東區林森路20號,24.802219,120.969682,03-5261122
12,新竹市,陳志成耳鼻喉科診所,3512042520,新竹市北區民富里西大路619號,24.809932,120.958793,03-5258626
12,新竹市,康德診所,3512013485,新竹市東區光復路一段362之2號,24.783888,121.016636,03-5788282
12,新竹市,廖明厚小兒科診所,3512011150,新竹市東區民族路130號,24.808036,120.977604,03-5316665
12,新竹市,彭耳鼻喉科診所,3512011132,新竹市東區中央路195號,24.808684,120.973597,03-5428888
12,新竹市,劉復國診所,3512040599,新竹市北區中山路４８號,24.805562,120.966807,03-5210085
12,新竹市,林敬堯親子診所,3512042600,新竹市北區光華里湳雅街120號1樓,24.819742,120.973052,03-5350123
12,新竹市,林安復耳鼻喉科診所,3512010126,新竹市東區中華路二段159號,24.807053,120.979828,03-5355890
12,新竹市,城佑耳鼻喉科診所,3512013010,新竹市東區建中路59號一樓,24.801621,120.994977,03-5748329
12,新竹市,謝承霖兒童診所,3512013384,新竹市東區三民里民族路60號,24.806681,120.975595,03-5320520
12,新竹市,林君怡小兒專科診所,3512013912,新竹市東區龍山里龍山東路206號1、2樓,24.788993,121.012052,03-6662718
12,新竹市,賴閔宦小兒科診所,3512013225,新竹市東區南大路387-1號,24.796582,120.968352,03-5611238
12,新竹市,陳建銘婦產科診所,3512040517,新竹市北區武陵路218巷58號,24.820098,120.970346,03-5337789
12,新竹市,台安耳鼻喉科診所,3512040955,新竹市北區北大路466號,24.80176,120.960033,03-5246069
12,新竹市,吳廷臣診所,3512011034,新竹市東區復中里中央路176號1樓,24.808536,120.973866,03-5346677
12,新竹市,謝德貴兒童診所,3512013645,新竹市東區新莊里光復路一段360之2號,24.783527,121.017581,03-6686666
12,新竹市,陳君毅小兒科診所,3512042208,新竹市北區盤石里西大路738號,24.81003,120.959078,03-5345705
12,新竹市,禾康耳鼻喉科診所,3512013449,新竹市東區南大里西大路142號1樓,24.796852,120.970001,03-5623358
12,新竹市,謝碧祥診所,3512011187,新竹市東區光復路二段254號,24.794861,120.999476,03-5725099
12,新竹市,普惠耳鼻喉科診所,3512011196,新竹市東區食品路259號,24.795472,120.973793,03-5615151
12,新竹市,杏保醫網信霖診所,3512042879,新竹市北區湳中里武陵路189號1－2樓,24.82188,120.969147,03-5326333
33,新竹縣,東元醫療社團法人東元綜合醫院,0933050018,新竹縣竹北市縣政二路69號,24.819769,121.012925,03-5527000
33,新竹縣,國立臺灣大學醫學院附設醫院新竹臺大分院生醫醫院,0433050018,新竹縣竹北市生醫路一段2號,24.805399,121.044019,03-6677600
33,新竹縣,國立臺灣大學醫學院附設醫院竹東分院,0433030016,新竹縣竹東鎮至善路52號,24.718675,121.09356,03-5943248
33,新竹縣,中國醫藥大學新竹附設醫院,1333050017,新竹縣竹北市興隆路1段199號,24.824037,121.001988,03-5557188
33,新竹縣,臺北榮民總醫院新竹分院,0633030010,新竹縣竹東鎮中豐路一段81號,24.722702,121.099575,03-5961234
33,新竹縣,天主教仁慈醫療財團法人仁慈醫院,1133060019,新竹縣湖口鄉孝勢村忠孝路29號,24.900558,121.045458,03-5993500
33,新竹縣,竹北市衛生所,2333050018,新竹縣竹北市光明二街89號,24.832166,121.006755,03-5533381
33,新竹縣,竹東鎮衛生所,2333030016,新竹縣竹東鎮中正路221號,24.735987,121.092862,03-5943566
33,新竹縣,新埔鎮衛生所,2333020010,新竹縣新埔鎮福德街535號,24.826143,121.073121,03-5882017
33,新竹縣,關西鎮衛生所,2333010014,新竹縣關西鎮中山路207號,24.791684,121.172583,03-5872335
33,新竹縣,新豐鄉衛生所,2333080016,新竹縣新豐鄉萃豐路21號,24.899915,120.988104,03-5591151
33,新竹縣,湖口鄉衛生所,2333060014,新竹縣湖口鄉達生路506號,24.896792,121.047195,03-5991654
33,新竹縣,橫山鄉衛生所,2333070010,新竹縣橫山鄉新興街141巷10號,24.717562,121.13928,03-5932004
33,新竹縣,芎林鄉衛生所,2333090012,新竹縣芎林鄉文山路532號,24.777401,121.077785,03-5924787
33,新竹縣,寶山鄉衛生所,2333100013,新竹縣寶山鄉雙園路二段273號,24.766908,120.994859,03-5203054
33,新竹縣,北埔鄉衛生所,2333110019,新竹縣北埔鄉北埔街90號,24.700552,121.055515,03-5802304
33,新竹縣,峨眉鄉衛生所,2333120015,新竹縣峨眉鄉峨眉街5號,24.688417,121.021409,03-5800314
33,新竹縣,尖石鄉衛生所,2333130011,新竹縣尖石鄉嘉樂村麥樹仁2鄰61號,24.70562,121.202274,03-5842356
33,新竹縣,五峰鄉衛生所,2333140017,新竹縣五峰鄉大隘村6鄰99號,24.63184,121.119384,03-5851005
35,苗栗縣,大順醫院,1535081078,苗栗縣大湖鄉中正路48-5號,24.422401,120.867564,037-997666
35,苗栗縣,李綜合醫療社團法人苑裡李綜合醫院,0935020027,苗栗縣苑裡鎮和平路168號,24.44182,120.65272,037-862387
35,苗栗縣,大千綜合醫院,1535010051,苗栗縣苗栗市恭敬路36號 ,24.550059,120.814892,037-357125
35,苗栗縣,財團法人台灣省私立桃園仁愛之家附設苗栗新生醫院,1435010013,苗栗縣苗栗市新東街117號,24.551561,120.82067,037-320766
35,苗栗縣,梓榮醫療社團法人弘大醫院,0935010012, 苗栗市新東街125號,24.551526,120.820973,037-361188
35,苗栗縣,協和醫院,1535010024,苗栗縣苗栗市中正路1367號,24.541274,120.817299,037-352631
35,苗栗縣,重光醫院,1535051178,苗栗縣頭份市中華路1039號,24.686478,120.908106,037-663030
35,苗栗縣,崇仁醫院,1535051196,苗栗縣頭份市東興路110號,24.683741,120.904276,037-663185
35,苗栗縣,部立苗栗醫院,0135010016,苗栗縣苗栗市為公路747號,24.575655,120.840405,037-261920
35,苗栗縣,財團法人為恭紀念醫院,1135050020,苗栗縣頭份市信義路128號,24.687096,120.907345,037-676811
35,苗栗縣,慈祐醫院,1535040068, 苗栗縣竹南鎮民治街17號,24.68477,120.878639,037-476589
35,苗栗縣,通霄光田醫院,1535031041,苗栗縣通霄鎮中山路88號,24.488982,120.678527,037-759999
35,苗栗縣,三義鄉衛生所,2335130019,苗栗縣三義鄉復興路45號,24.413381,120.770769,037-872014
35,苗栗縣,三灣鄉衛生所,2335160017,苗栗縣三灣鄉親民路17號 ,24.652867,120.956862,037-831140
35,苗栗縣,大湖鄉衛生所,2335080014,苗栗縣大湖鄉明湖村中原路87號 ,24.424242,120.865906,037-991034
35,苗栗縣,公館鄉衛生所,2335090010,苗栗縣公館鄉館中村大同路75號 ,24.499946,120.827678,037-224732
35,苗栗縣,竹南鎮衛生所,2335040010,苗栗縣竹南鎮大營路209號 ,24.687723,120.872536,037-470152
35,苗栗縣,西湖鄉衛生所,2335140015,苗栗縣西湖鄉龍洞村1鄰龍洞16號,24.557791,120.757667,037-921211
35,苗栗縣,卓蘭鎮衛生所,2335070018,苗栗縣卓蘭鎮老庄里中正路142號 ,24.312629,120.831357,04-25892027
35,苗栗縣,南庄鄉衛生所,2335110017,苗栗縣南庄鄉東村大同路17號 ,24.597334,120.999979,037-822024
35,苗栗縣,後龍鎮衛生所,2335060012,苗栗縣後龍鎮大庄里光華路371號 ,24.611598,120.789238,037-722008
35,苗栗縣,苑裡鎮衛生所,2335020018,苗栗縣苑裡鎮客庄里公民街16號,24.439501,120.652734,037-869595
35,苗栗縣,苗栗市衛生所,2335010012,苗栗縣苗栗市上苗里建民街28號,24.565957,120.824894,037-277129
35,苗栗縣,泰安鄉衛生所,2335180019,苗栗縣泰安鄉清安村二鄰洗水坑七十二號 ,24.44722,120.908287,037-941054
35,苗栗縣,通霄鎮衛生所,2335030014,苗栗縣通霄鎮中正路9-6號 ,24.490805,120.682581,037-752048
35,苗栗縣,造橋鄉衛生所,2335150011,苗栗縣造橋鄉造橋村14鄰8-2號,24.636724,120.864293,037-542755
35,苗栗縣,獅潭鄉衛生所,2335170013,苗栗縣獅潭鄉新店村130-6號,24.539493,120.920087,037-931309
35,苗栗縣,銅鑼鄉衛生所,2335100011,苗栗縣銅鑼鄉銅鑼村新興路81號 ,24.484798,120.792877,037-981006
35,苗栗縣,頭份市衛生所,2335050016,苗栗縣頭份市頭份里顯會路72號 ,24.690483,120.915685,037-663049
35,苗栗縣,頭屋鄉衛生所,2335120013,苗栗縣頭屋鄉頭屋村13鄰中山街54號 ,24.576104,120.850295,037-253534
35,苗栗縣,仁泰診所,3535031490,苗栗縣通霄鎮中正路99號,24.490752,120.679018,037-761616
35,苗栗縣,宜佑診所,3535030288,苗栗縣通霄鎮中興路49號,24.488707,120.678825,037-757307
35,苗栗縣,裕隆汽車製造股份有限公司員工診所,3435131055,苗栗縣三義鄉西湖村伯公坑39-1號,24.37967,120.745963,037-873499
35,苗栗縣,農安診所,3535131164,苗栗縣三義鄉中正路56號,24.415683,120.772898,037-876369
35,苗栗縣,三灣診所,3535161046,苗栗縣三灣鄉三灣村中正路91號,24.651886,120.954953,037-834233
35,苗栗縣,祥恩診所,3535091165,苗栗縣公館鄉大同路80號,24.500302,120.828067,037-220118
35,苗栗縣,劉樵霖診所,3535091209,苗栗縣公館鄉大同路80號,24.500302,120.828067,037-220118
35,苗栗縣,廖本能診所,3535090107,苗栗縣公館鄉大東路33之1號,24.501208,120.830254,037-226587
35,苗栗縣,公館診所,3535091245,苗栗縣公館鄉安東街8號,24.502942,120.828841,037-228834
35,苗栗縣,活力診所,3535041718,苗栗縣竹南鎮博愛街439號,24.688939,120.865488,037-476017
35,苗栗縣,黃正昇診所,3535040293,苗栗縣竹南鎮光復路68號,24.684918,120.879195,037-466735
35,苗栗縣,宏安診所,3535041638,苗栗縣竹南鎮光復路265號,24.691393,120.879324,037-466189
35,苗栗縣,楊章民耳鼻喉科,3535040355,苗栗縣竹南鎮博愛街123號,24.686776,120.875587,037-460310
35,苗栗縣,安和診所,3535021556,苗栗縣苑裡鎮信義路1-10號,24.438735,120.652987,037-868511
35,苗栗縣,里仁診所,3535021565,苗栗縣苑裡鎮和平路180號,24.441973,120.652282,037-865168
35,苗栗縣,良宜診所,3535021396,苗栗縣苑裡鎮建國路106號,24.444302,120.65262,037-860937
35,苗栗縣,台安診所,3535020166,苗栗縣苑裡鎮世界路一段45號,24.441272,120.655953,037-867110
35,苗栗縣,何智博診所,3535010795,苗栗縣苗栗市至公路62號,24.557744,120.818762,037-330137
35,苗栗縣,劉文淦小兒科診所,3535010704,苗栗縣苗栗市至公路207號,24.559797,120.815966,037-356131
35,苗栗縣,周博治婦產科診所,3535011961,苗栗縣苗栗市中正路459號,24.559669,120.821899,037-332828
35,苗栗縣,吳昆展小兒科診所,3535012173,苗栗縣苗栗市中正路69號,24.568321,120.824527,037-265532
35,苗栗縣,蕭銘賢診所,3535012315,苗栗縣苗栗市中正路236號,24.564461,120.823977,037-380899
35,苗栗縣,林可迅診所,3535012477,苗栗縣苗栗市中正路145號,24.566541,120.824374,037-270039
35,苗栗縣,天恩診所,3535012011,苗栗縣苗栗市中正路39號,24.568981,120.82458,037-277295
35,苗栗縣,詹求孚診所,3535010553,苗栗縣苗栗市中正路468號,24.559566,120.821572,037-320722
35,苗栗縣,佑誠診所,3535100089,苗栗縣銅鑼鄉銅鑼村新興路3之1號,24.485991,120.788297,037-986799
35,苗栗縣,平安診所,3535101095,苗栗縣銅鑼鄉中正路150號,24.487777,120.787321,037-987645
35,苗栗縣,千宏診所,3535101111,苗栗縣銅鑼鄉郵電街20號,24.488268,120.786709,037-985550
35,苗栗縣,祥安診所,3535050146,苗栗縣頭份市中華路928號,24.685683,120.907466,037-667985
35,苗栗縣,蘇志勇診所,3535051803,苗栗縣頭份市中華路928號,24.685683,120.907466,037-667985
35,苗栗縣,白蕙菁診所,3535051901,苗栗縣頭份市中華路928號,24.685683,120.907466,037-667985
35,苗栗縣,李欣祈診所,3535051812,苗栗縣頭份市中華路928號,24.685683,120.907466,037-667985
35,苗栗縣,丘小江小兒科診所,3535051607,苗栗縣頭份市信東路102號,24.689152,120.909794,037-593702
35,苗栗縣,建國耳鼻喉科診所,3535051474,苗栗縣頭份市中華路946號,24.686198,120.90817,037-688958
35,苗栗縣,莊耳鼻喉科診所,3535050235,苗栗縣頭份市中華路938號,24.686112,120.908027,037-681787
35,苗栗縣,黃耳鼻喉科診所,3535051830,苗栗縣頭份市中華路938號,24.686112,120.908027,037-681787
35,苗栗縣,常青診所,3535050253,苗栗縣頭份市信東路二段191號,24.698521,120.899973,037-688336
35,苗栗縣,賜生堂診所,3535061372,苗栗縣後龍鎮中正路15號,24.612976,120.787606,037-727211
35,苗栗縣,龍澄診所,3535061425,苗栗縣後龍鎮成功路134號,24.61466,120.792788,037-723079
38,南投縣,衛生福利部南投醫院,0138010027,南投縣南投市復興路478號,23.914093,120.685294,049-2231150
38,南投縣,南投基督教醫院,1138010019,南投縣南投市中興路870號,23.898831,120.683868,049-2225595
38,南投縣,詹建盛診所,3538010555,南投縣南投市南陽路475號,23.911529,120.681077,049-2243055
38,南投縣,黃子卿診所,3538012095,南投縣南投市民族路123號,23.909966,120.690844,049-2200623
38,南投縣,蔡良迪診所,3538011918,南投縣南投市中學西路85號,23.945962,120.691348,049-2391296
38,南投縣,佳成小兒科診所,3538011883,南投縣南投市集賢路34號,23.90498,120.684304,049-2231115
38,南投縣,淵源內兒科診所,3538011758,南投縣南投市民族路300號,23.908695,120.686289,049-2222171
38,南投縣,福山診所,3538011945,南投縣南投市八卦路507號1樓,22.685597,120.315601,07-3482323
38,南投縣,馨生婦產科小兒科診所,3538011712,南投縣南投市中山街14巷13-15號,23.905659,120.686966,049-2206626
38,南投縣,南投市衛生所,2338010014,南投縣南投市三和一路13 號,23.902507,120.68876,049-2223264
38,南投縣,埔基醫療財團法人埔里基督教醫院,1138020015,南投縣埔里鎮鐵山路1號,23.970928,120.946799,049-2912151
38,南投縣,臺中榮民總醫院埔里分院,0638020014,南投縣埔里鎮榮光路1號,23.975802,120.99681,049-2990833
38,南投縣,祐安小兒科診所,3538020613,南投縣埔里鎮東門里中正路395號1F,23.9646,120.967566,049-2997752
38,南投縣,童小兒科家醫科聯合診所,3538020168,南投縣埔里鎮東門里中正路408號,23.964953,120.967782,049-2983212
38,南投縣,安麗小兒科內科診所,3538022331,南投縣埔里鎮中山路二段262號,23.966472,120.968566,049-2991030
38,南投縣,陳宏麟診所,3538022537,南投縣埔里鎮南門里南昌街221號1樓,23.966097,120.965034,049-2900303
38,南投縣,張大川耳鼻喉科診所,3538022395,南投縣埔里鎮中山路三段87號,23.966065,120.963291,049-2998980
38,南投縣,長榮診所,3538022171,南投縣埔里鎮忠孝路329號,23.965115,120.975254,049-2994830
38,南投縣,安杏診所,3538022260,南投縣埔里鎮中山路三段100號,23.966322,120.963292,049-2980445
38,南投縣,新興小兒科診所,3538022797,南投縣埔里鎮中山路二段135-1號,23.968966,120.972663,049-2421280
38,南投縣,聖光小兒科診所,3538020604,南投縣埔里鎮南昌街160號,23.964867,120.966339,049-2988099
38,南投縣,埔里鎮衛生所,2338020010,南投縣埔里鎮中山路二段256號,23.967041,120.968577,049-2982157
38,南投縣,佑民醫療社團法人佑民醫院,0938030016,南投縣草屯鎮太平路一段200號,23.960535,120.681861,049-2358151
38,南投縣,曾漢棋綜合醫院,1538030037,南投縣草屯鎮虎山路915號,23.978559,120.685734,049-2314145
38,南投縣,惠和醫院,1538031114,南投縣草屯鎮平等街140號,23.984736,120.685939,049-2321188
38,南投縣,蔡文雄診所,3538030968,南投縣草屯鎮富昌路2之1號,23.9782,120.697314,049-2569085
38,南投縣,育英診所,3538030520,南投縣草屯鎮和平里和興三街24號,23.976275,120.684732,049-2367696
38,南投縣,錦林診所,3538030851,南投縣草屯鎮新厝里虎山路736號,23.974938,120.685978,049-2357509
38,南投縣,洪啟芬診所,3538030468,南投縣草屯鎮御史里中正路1222號,23.992584,120.688425,049-2553359
38,南投縣,用心生活診所,3538033101,南投縣草屯鎮育英街101號1樓,23.976502,120.686528,049-2380866
38,南投縣,衛生福利部草屯療養院,0138030010,南投縣草屯鎮玉屏路161號,23.990395,120.704532,049-2550800
38,南投縣,草屯鎮衛生所,2338030016,南投縣草屯鎮草溪路882巷7號,23.973272,120.680713,049-2362023
38,南投縣,竹山秀傳醫療社團法人竹山秀傳醫院,0938040012,南投縣竹山鎮集山路二段75號,23.800149,120.714117,049-2624266
38,南投縣,東華醫院,1538041209,南投縣竹山鎮集山路三段272巷16號,23.764365,120.700278,049-2658949
38,南投縣,智瑤小兒科診所,3538041443,南投縣竹山鎮集山路三段879號,23.75718,120.683538,049-2652288
38,南投縣,益川診所,3538040277,南投縣竹山鎮雲林路59號,23.755317,120.682419,049-2643301
38,南投縣,陳耀宗診所,3538040357,南投縣竹山鎮集山路三段816號,23.759464,120.686342,049-2653722
38,南投縣,春臨診所,3538040179,南投縣竹山鎮延平里集山路三段18號,23.766912,120.706036,049-2642446
38,南投縣,益民診所,3538041612,南投縣竹山鎮集山路三段816-3號,23.759547,120.686263,049-2660639
38,南投縣,竹山鎮衛生所,2338040012,南投縣竹山鎮公所路126號,23.759437,120.672276,049-2642026
38,南投縣,集集鎮衛生所,2338050018,南投縣集集鎮民生路106號,23.828896,120.78662,049-2762015
38,南投縣,名間鄉衛生所,2338060014,南投縣名間鄉中正村彰南路42號,23.838518,120.702853,049-2732135
38,南投縣,鹿谷鄉衛生所,2338070010,南投縣鹿谷鄉中正路二段20號,23.744882,120.754245,049-2752002
38,南投縣,中寮鄉衛生所,2338080016,南投縣中寮鄉永平村永昌街102號,23.880997,120.765703,049-2691404
38,南投縣,魚池鄉衛生所,2338090012,南投縣魚池鄉東池村魚池街194號,23.895524,120.941269,049-2895513
38,南投縣,王丕振診所,3538101417,南投縣國姓鄉中興路51號,24.04248,120.857896,049-2720507
38,南投縣,國姓鄉衛生所,2338100013,南投縣國姓鄉國姓村民族街42號,24.037882,120.854679,049-2721009
38,南投縣,瑞斌診所,3538111468,南投縣水里鄉民權路232號,23.817595,120.852611,049-2778866
38,南投縣,水里鄉衛生所,2338110019,南投縣水里鄉博愛路205號,23.810497,120.848971,049-2770079
38,南投縣,信義鄉衛生所,2338120015,南投縣信義鄉明德村玉山路45號,23.696529,120.85472,049-2791148
38,南投縣,仁愛鄉衛生所,2338130011,南投縣仁愛鄉大同村五福巷17號,24.024615,121.134874,049-2802341
37,彰化縣,衛生福利部彰化醫院,0137170515,彰化縣埔心鄉中正路二段80號,23.950225,120.527299,04-8298686
37,彰化縣,彰化基督教醫療財團法人彰化基督教醫院,1137010024,彰化縣彰化市光南里南校街135號,24.07149,120.544461,04-7238595
37,彰化縣,彰化基督教醫療財團法人彰化基督教兒童醫院,1137010042,彰化縣彰化市旭光路320號,24.071173,120.543539,04-7238595
37,彰化縣,彰化基督教醫療財團法人員林基督教醫院,1137050019,彰化縣員林市南平里莒光路456號,23.96275,120.566953,04-8381456
37,彰化縣,彰化基督教醫療財團法人二林基督教醫院,1137080017,彰化縣二林鎮南光里大成路一段558號,23.893608,120.363344,04-8952031
37,彰化縣,彰化基督教醫療財團法人鹿港基督教醫院,1137020520,彰化縣鹿港鎮埔崙里中正路480號,24.061125,120.437568,04-7779595
37,彰化縣,秀傳醫療社團法人秀傳紀念醫院,0937010019,彰化縣彰化市南瑤里中山路一段542號,24.064786,120.537508,04-7256166
37,彰化縣,秀傳醫療財團法人彰濱秀傳紀念醫院,1137020511,彰化縣鹿港鎮鹿工路6號,24.078274,120.41112,04-7813888
37,彰化縣,員榮醫療社團法人員榮醫院,0937050014,彰化縣員林市黎明里中正路201號,23.95365,120.574794,04-8326161
37,彰化縣,員榮醫療社團法人員榮醫院-員生院區,1537051292,彰化縣員林市莒光路359號,23.95925,120.566404,04-8383995
37,彰化縣,道周醫療社團法人道周醫院,0937030012,彰化縣和美鎮面前里和光路180號,24.110572,120.491865,04-7566995
37,彰化縣,惠來醫療社團法人宏仁醫院,0937050024,彰化縣員林市惠來里惠來街89號,23.955265,120.57029,04-8375875
37,彰化縣,卓醫院,1537040066,彰化縣北斗鎮中山路一段311號,23.872278,120.51554,04-8882995
37,彰化縣,仁和醫院,1537070028,彰化縣田中鎮中路里中州路一段157號,23.858024,120.587905,04-8742108
37,彰化縣,道安醫院,1537061065,彰化縣溪湖鎮彰水路三段362號,23.961542,120.480197,04-8856309
37,彰化縣,二水鄉衛生所,2337200014,彰化縣二水鄉二水村過圳路19號,23.811813,120.615533,04-8791077
37,彰化縣,大城鄉衛生所,2337240018,彰化縣大城鄉中平路126號,23.853311,120.320695,04-8941323
37,彰化縣,芬園鄉衛生所,2337140013,彰化縣芬園鄉社口村公園一街11號,24.014091,120.630533,049-2522904
37,彰化縣,芳苑鄉衛生所,2337230012,彰化縣芳苑鄉仁愛村斗苑路芳苑段249號,23.924977,120.320444,04-8983134
37,彰化縣,溪州鄉衛生所,2337260010,彰化縣溪州鄉溪下路四段570號,23.851388,120.498424,04-8895023
37,彰化縣,埔心鄉衛生所,2337170011,彰化縣埔心鄉員鹿路2段340號,23.952987,120.54387,04-8294611
37,彰化縣,大村鄉衛生所,2337150019,彰化縣大村鄉中正西路340號,23.993541,120.546964,04-8520513
37,彰化縣,田中鎮衛生所,2337070016,彰化縣田中鎮斗中路一段222號,23.861518,120.580536,04-8742053
37,彰化縣,東區衛生所,2337010029,彰化市彰南路二段346巷31弄26號,24.081845,120.586626,04-7381647
37,彰化縣,福興鄉衛生所,2337110015,彰化縣福興鄉福興村福興路51巷2號,24.04744,120.427893,04-7772371
37,彰化縣,北斗鎮衛生所,2337040018,彰化縣北斗鎮地政路406巷17號,23.875143,120.524902,04-8882059
37,彰化縣,田尾鄉衛生所,2337210010,彰化縣田尾鄉饒平村光復路二段608號,23.88999,120.532946,04-8832145
37,彰化縣,永靖鄉衛生所,2337180017,彰化縣永靖鄉永西村西興路91號,23.925035,120.547668,04-8221057
37,彰化縣,彰化縣二林鎮衛生所,2337080012,彰化縣二林鎮豐田里大成路一段115號,23.899364,120.372799,04-8960035
37,彰化縣,社頭鄉衛生所,2337190013,彰化縣社頭鄉員集路二段409號,23.901914,120.586073,04-8732038
37,彰化縣,員林市衛生所,2337050014,彰化縣員林市博愛路229號,23.962088,120.57248,04-8320315
37,彰化縣,鹿港鎮衛生所,2337020016,彰化縣鹿港鎮復興路425號,24.058606,120.435086,04-7772309
37,彰化縣,溪湖鎮衛生所,2337060010,溪湖鎮湖東里青雅路36號,23.965957,120.483444,04-8815112
37,彰化縣,彰化縣秀水鄉衛生所,2337120020,彰化縣秀水鄉中山路288號,24.035339,120.503266,04-7693001
37,彰化縣,埔鹽鄉衛生所,2337160015,彰化縣埔鹽鄉好修村員鹿路2段58號,24.000351,120.463258,04-8653596
37,彰化縣,竹塘鄉衛生所,2337250014,彰化縣竹塘鄉竹元村東陽路一段58-1號,23.860538,120.428109,04-8972009
37,彰化縣,線西鄉衛生所,2337090018,彰化縣線西鄉和線路957巷6號,24.130381,120.470434,04-7585201
37,彰化縣,花壇鄉衛生所,2337130017,彰化縣花壇鄉中正路11號,24.028154,120.548686,04-7862035
37,彰化縣,伸港鄉衛生所,2337100019,彰化縣伸港鄉大同村中興路二段197號,24.15926,120.485592,04-7988034
37,彰化縣,彰化市南西北區衛生所,2337010010,彰化市旭光路166號,24.072918,120.546305,04-7282141
37,彰化縣,彰化縣埤頭鄉衛生所,2337220016,彰化縣埤頭鄉合興村健安街119號,23.894898,120.457269,04-8922445
37,彰化縣,和美鎮衛生所,2337030012,彰化縣和美鎮彰美路五段319號,24.110824,120.499373,04-7062455
03,臺中市,澄清綜合醫院,1517011112,臺中市中區平等街139號,24.142603,120.68161,04-24632000
03,臺中市,仁愛醫療財團法人台中仁愛醫院,1117010019,臺中市中區柳川東路三段36號,24.143363,120.677941,04-22255450
03,臺中市,臺中市東區衛生所,2317020010,臺中市東區信義街142號,24.133369,120.687798,04-22834121
03,臺中市,台新醫院,1517020040,臺中市東區振興路441號,24.129788,120.705684,04-22139966
03,臺中市,臺中市南區衛生所,2317040012,臺中市南區工學路72號2樓,24.11709,120.663793,04-22629735
03,臺中市,中山醫學大學附設醫院,1317040011,臺中市南區樹義里建國北路一段110號,24.121753,120.6499,04-24739595
03,臺中市,中山醫學大學附設醫院中興分院,1317040039,臺中市南區復興路二段11號,24.118123,120.658559,04-22621652
03,臺中市,宏恩醫院,1517040015,臺中市南區和平里復興路二段38-13號,24.120234,120.660768,04-22623123
03,臺中市,林忠立診所,3517041934,臺中市南區美村南路58、60號1樓,24.117615,120.666978,04-22619948
03,臺中市,盛鴻診所,3517040900,臺中市南區美村南路199號1樓,24.115162,120.666649,04-22603552
03,臺中市,臺中市中西區衛生所,2303240013,臺中市西區民權路105號,24.141144,120.675929,04-22223811
03,臺中市,衛生福利部臺中醫院,0117030010,臺中市西區三民路一段199號,24.140225,120.675711,04-22294411
03,臺中市,夏幸賢診所,3503241319,臺中市西區三民路一段152-3號,24.136257,120.673364,04-22227885
03,臺中市,雙安耳鼻喉科診所,3517031045,臺中市西區向上路一段270號,24.146868,120.657939,04-23020805
03,臺中市,晉強診所,3503240563,臺中市西區向上路一段456號,24.146878,120.653585,04-23207570
03,臺中市,吳東洀小兒科診所,3517030968,臺中市西區美村路一段362號,24.144904,120.661461,04-23029672
03,臺中市,明祐耳鼻喉科診所,3503220052,臺中市西區民權路160號,24.140841,120.676829,04-22220007
03,臺中市,賴永章小兒科診所,3517033423,臺中市西區大全街41號,24.134813,120.670158,04-23714599
03,臺中市,佳慶診所,3517034368,臺中市西區東興路三段272-1號,24.155224,120.653684,04-23208989
03,臺中市,康貝兒小兒科診所,3517034135,臺中市西區向上路一段553號,24.146568,120.651447,04-24720515
03,臺中市,臺中市北區衛生所,2317050018,臺中市北區永興街301號,24.166042,120.682233,04-22359182
03,臺中市,國軍臺中總醫院中清分院附設民眾診療服務處,0517050010,臺中市北區忠明路500號,24.162282,120.672231,04-22033178
03,臺中市,中國醫藥大學附設醫院,1317050017,臺中市北區育德路2號,24.157212,120.680049,04-22052121
03,臺中市,臺安醫院雙十分院,1503260018,臺中市北區雙十路二段29號,24.15565,120.689775,04-22268990
03,臺中市,展弘耳鼻喉科診所,3503260592,臺中市北區漢口路四段322號1、2樓、326號2樓,24.166855,120.683998,04-22307388
03,臺中市,秀慧診所,3517054066,臺中市北區忠太東路58-12號,24.162336,120.668225,04-22031830
03,臺中市,家昌耳鼻喉科診所,3503260163,臺中市北區陜西路62號1樓,24.16864,120.668405,04-22993888
03,臺中市,祐華親子診所,3503260234,臺中市北區北平路二段194號,24.17112,120.678492,04-22925668
03,臺中市,郭耳鼻喉科診所,3517052357,臺中市北區健行路594號,24.159371,120.677028,04-22054863
03,臺中市,祥祐診所,3517051967,臺中市北區三民路三段348號,24.15762,120.689942,04-25201825
03,臺中市,詠康耳鼻喉科診所,3503260770,臺中市北區學士路312號,24.162648,120.681088,04-22352015
03,臺中市,臺中市北屯區四民衛生所,2317081022,臺中市北屯區后庄路1062號,24.192695,120.68067,04-24211945
03,臺中市,臺中市北屯區軍功衛生所,2317080016,臺中市北屯區軍功路2段16號,24.17619,120.719534,04-22392638
03,臺中市,全民醫院,1517080091,臺中市北屯區中清路二段516號,24.181636,120.666585,04-22916666
03,臺中市,張廣智耳鼻喉科診所,3517081938,臺中市北屯區中清路二段531號,24.181868,120.66592,04-22924703
03,臺中市,曾耳鼻喉科診所,3517081358,臺中市北屯區中清路二段326號,24.178861,120.668459,04-22956969
03,臺中市,瑞健診所,3517081198,臺中市北屯區平田里興安路一段341號,24.174461,120.694405,04-22416859
03,臺中市,茂盛醫院生殖醫學中心,1503290025,臺中市北屯區三光里昌平路一段30-6號,24.166647,120.694164,04-22347057
03,臺中市,臺中市西屯區衛生所,2317060014,臺中市西屯區西屯路二段299號,24.178913,120.640383,04-27027068
03,臺中市,醫鄰職業醫學科診所,3503272378,臺中市西屯區黎明路三段391號1樓,24.182661,120.638808,04-24525747
03,臺中市,大道診所,3503271826,臺中市西屯區文心路三段61-7號,24.164456,120.650448,04-23122060
03,臺中市,陳亮宇耳鼻喉科診所,3503271773,臺中市西屯區大墩路995號,24.160274,120.652552,04-23203888
03,臺中市,崇芳小兒科家庭醫學科聯合診所,3517063083,臺中市西屯區福科路419號,24.183689,120.620788,04-24652525
03,臺中市,澄清綜合醫院中港分院,1517061032,臺中市西屯區台灣大道四段966號2樓,24.182853,120.617033,04-24632000
03,臺中市,臺中榮民總醫院,0617060018,臺中市西屯區台灣大道四段1650號,24.184298,120.604647,04-23592525
03,臺中市,臺中市南屯區衛生所,2317070010,臺中市南屯區向心南路811號,24.134209,120.643438,04-23827640
03,臺中市,主悅診所,3503280987,臺中市南屯區干城街269號1樓,24.152346,120.632392,04-22540711
03,臺中市,醫療財團法人正德癌症醫療基金會佛教正德醫院,1103280012,臺中市南屯區文心南五路三段100號,24.143208,120.630926,04-37026588
03,臺中市,法務部矯正署臺中監獄附設培德醫院,0717070516,臺中市南屯區培德路9號,24.142648,120.596241,04-23891528
03,臺中市,賴東昇小兒科診所,3517072180,臺中市南屯區大業路93號,24.153357,120.652384,04-23280188
03,臺中市,張宏興診所,3517070873,臺中市南屯區黎明路二段460號,24.152512,120.635238,04-22530378
03,臺中市,郭品君診所,3517070293,臺中市南屯區黎明路一段1061號,24.138743,120.637523,04-23817333
03,臺中市,蘇晉暉診所,3517070453,臺中市南屯區向心路35號,24.138995,120.644088,04-23832676
03,臺中市,忠勇診所,3503280914,臺中市南屯區黎明路一段1091號,24.145167,120.614683,04-23826625
03,臺中市,永安診所,3517072340,臺中市南屯區黎明路二段263號,24.15033,120.635541,04-22588881
03,臺中市,幼安診所,3517073436,臺中市南屯區大墩路263號,24.143059,120.649717,04-24751579
03,臺中市,蘇德慶診所,3517070757,臺中市南屯區東興路二段57號,24.138047,120.652835,04-24717572
03,臺中市,邢志宇耳鼻喉科診所,3503280898,臺中市南屯區南屯路二段252號,24.136986,120.649103,04-24735806
03,臺中市,林文豹小兒科診所,3517072573,臺中市南屯區大墩路815號,24.155104,120.649523,04-23266518
03,臺中市,大墩診所,3517072813,臺中市南屯區大墩路186號,24.141428,120.650122,04-24717122
03,臺中市,臺中市豐原區衛生所,2336010016,臺中市豐原區中興路136號,24.248291,120.71402,04-25261170
03,臺中市,衛生福利部豐原醫院,0136010010,臺中市豐原區安康路100號,24.242706,120.725292,04-25271180
03,臺中市,基成內兒科診所,3536010360,臺中市豐原區中山路369號,24.249656,120.714772,04-25232730
03,臺中市,永福診所,3536012542,臺中市豐原區中正路701號,24.249116,120.701513,04-25280042
03,臺中市,晨欣親子診所,3503010298,臺中市豐原區豐東路83號,24.248847,120.730362,04-25256525
03,臺中市,林金生耳鼻喉科診所,3536011116,臺中市豐原區田心路一段141號,24.245014,120.717939,04-25265951
03,臺中市,臺中市后里區衛生所,2336070012,臺中市后里區公安路86號,24.305174,120.710357,04-25562048
03,臺中市,施博元診所,3536070188,臺中市后里區民生路220號,24.30628,120.713759,04-25572699
03,臺中市,國泰診所,3536070179,臺中市后里區甲后路一段255號,24.309035,120.726955,04-25577378
03,臺中市,臺中市石岡區衛生所,2336120017,臺中市石岡區石岡街6號,24.276012,120.777573,04-25721887
03,臺中市,臺中市東勢區衛生所,2336020012,臺中市東勢區豐勢路490號,24.257639,120.828363,04-25873872
03,臺中市,維恩耳鼻喉科診所,3536020339,臺中市東勢區豐勢路372號,24.254346,120.829571,04-25885413
03,臺中市,東勢區農會附設農民醫院,1436020013,臺中市東勢區豐勢路297號,24.253738,120.829548,04-25771919
03,臺中市,臺中市和平區衛生所,2336210025,臺中市和平區東關路三段132號,24.174073,120.881825,04-25942781
03,臺中市,臺中市新社區衛生所,2336110011,臺中市新社區興社街四段一號,24.240573,120.809197,04-25811704
03,臺中市,興安診所,3536111139,臺中市新社區興安路49-2號,24.242135,120.809614,04-25816740
03,臺中市,臺中市潭子區衛生所,2336090014,臺中市潭子區中山路二段241巷5號,24.209748,120.704301,04-25324643
03,臺中市,佛教慈濟醫療財團法人台中慈濟醫院,1136090519,臺中市潭子區豐興路一段88號,24.195685,120.721945,04-36060666
03,臺中市,佳佑診所,3536091712,臺中市潭子區勝利路319號,24.214084,120.700407,04-25336888
03,臺中市,潭興診所,3536091776,臺中市潭子區潭興路二段460號,24.211175,120.707728,04-25362225
03,臺中市,人愛診所,3536090313,臺中市潭子區潭興路二段394號,24.210725,120.709098,04-25368299
03,臺中市,丰辰診所,3503090161,臺中市潭子區潭興路三段110號,24.21177,120.701221,04-25350967
03,臺中市,郭耳鼻喉科診所,3536090288,臺中市潭子區中山路二段362-2號,24.213557,120.705425,04-25348390
03,臺中市,周肇銘診所,3536090046,臺中市潭子區中山路二段394號,24.214929,120.705325,04-25335451
03,臺中市,家興診所,3536091749,臺中市潭子區中山路一段37號,24.191267,120.702315,04-25319968
03,臺中市,博文耳鼻喉科診所,3503090072,臺中市潭子區中山路一段99號,24.193261,120.702291,04-25320707
03,臺中市,友銘診所 ,3503090063,臺中市潭子區中山路一段159號,24.19483,120.702316,04-25320620
03,臺中市,臺中市大雅區衛生所,2336100015,臺中市大雅區中清東路232號,24.224943,120.646825,04-25661091
03,臺中市,吳耳鼻喉科診所,3536101464,臺中市大雅區學府路333號,24.225429,120.648767,04-25683001
03,臺中市,大中小兒科診所,3536101562,臺中市大雅區雅潭路四段711號,24.221281,120.651334,04-25607116
03,臺中市,林釗尚小兒科診所,3536101482,臺中市大雅區大雅路151號,24.225494,120.647465,04-25600313
03,臺中市,得康診所,3536101606,臺中市大雅區雅環路三段57號,24.22917,120.645268,04-25609961
03,臺中市,臺中市神岡區衛生所,2336080018,臺中市神岡區神岡路2號,24.25813,120.662818,04-25622792
03,臺中市,劉俊欣耳鼻喉科診所,2336080018,臺中市神岡區神岡路88巷12號,24.25813,120.662818,04-25622792
03,臺中市,祥祐診所,3517051967,臺中市神岡區五權路69號,24.15762,120.689942,04-25201825
03,臺中市,晉安診所,3536081323,臺中市神岡區中山路906號,24.250546,120.677227,04-25632666
03,臺中市,臺中市大肚區衛生所,2336160011,臺中市大肚區榮華街1號,24.15509,120.544787,04-26992111
03,臺中市,燦軒耳鼻喉康健診所,3503160051,臺中市大肚區沙田路三段61號1-2樓,24.155667,120.543885,04-26990460
03,臺中市,臺中市沙鹿區衛生所,2336050010,臺中市沙鹿區文昌街20號,24.236478,120.562057,04-26625040
03,臺中市,光田醫療社團法人光田綜合醫院,0936050029,臺中市沙鹿區沙田路117號,24.235393,120.558859,04-26625111
03,臺中市,高銘診所,3536050391,臺中市沙鹿區台灣大道七段791號,24.237683,120.568691,04-26620286
03,臺中市,小太陽小兒科診所,3536051601,臺中市沙鹿區鎮南路二段631號,24.234493,120.559135,04-26365757
03,臺中市,臺中市龍井區衛生所,2336170017,臺中市龍井區沙田路四段243號,24.191579,120.545681,04-26352228
03,臺中市,龍井東海小兒科診所,3536170398,臺中市龍井區新興路96-23號,24.181998,120.584924,04-26521838
03,臺中市,悅亘診所,3503170057,臺中市龍井區臺灣大道五段107號,24.184078,120.589809,04-26524750
03,臺中市,臺中市梧棲區衛生所,2336060016,臺中市梧棲區雲集街70巷3號,24.254837,120.532005,04-26562809
03,臺中市,童綜合醫療社團法人童綜合醫院,0936060016,臺中市梧棲區臺灣大道八段699號,24.247285,120.542506,04-26581919
03,臺中市,明德醫院,1536060037,臺中市梧棲區仁美街33巷50號,24.253733,120.535754,04-26579595
03,臺中市,臺中市清水區衛生所,2336040014,臺中市清水區中山路92號,24.266521,120.574635,04-26222639
03,臺中市,順風耳鼻喉科診所,3536041543,臺中市清水區鎮南街41號,24.267596,120.574415,04-26226161
03,臺中市,臺中市大甲區衛生所,2336030018,臺中市大甲區德興路81號,24.350189,120.624463,04-26872153
03,臺中市,李綜合醫療社團法人大甲李綜合醫院,0936030018,臺中市大甲區八德街2號,24.350784,120.618073,04-26862288
03,臺中市,順安醫院,1503030010,臺中市大甲區光明路6號,24.343702,120.625584,04-26862328
03,臺中市,大元診所,3503030110,臺中市大甲區順天路136號,24.344587,120.622173,04-26802250
03,臺中市,小熊的森林診所,3536031752,臺中市大甲區三民路132號,24.348445,120.621939,04-26805060
03,臺中市,力倫診所,3536031832,臺中市大甲區蔣公路246號,24.347256,120.619424,04-26805889
03,臺中市,琉璃光診所,3536030451,臺中市大甲區順天路342號,24.350311,120.627137,04-26873051
03,臺中市,全信賴診所,3503030147,臺中市大甲區甲后路五段267號,24.344666,120.633895,04-26762248
03,臺中市,璩大維診所,3536031878,臺中市大甲區中山路一段1035-1號,24.348521,120.627512,04-26863000
03,臺中市,喜月婦產科診所,3536031707,臺中市大甲區水源路11號,24.342086,120.622844,04-26881746
03,臺中市,臺中市外埔區衛生所,2336130013,臺中市外埔區甲后路三段1062號,24.333083,120.652176,04-26833208
03,臺中市,佳優診所,3536131220,臺中市外埔區甲后路三段1042號,24.3321,120.653107,04-26832807
03,臺中市,臺中市大安區衛生所,2336140019,臺中市大安區中山南路333號,24.346104,120.586246,04-26713681
03,臺中市,安田診所,3536140032,臺中市大安區中山南路282號,24.345146,120.587371,04-26713527
03,臺中市,臺中市太平區衛生所,2336190019,臺中市太平區中山路一段213之1號,24.142543,120.731611,04-23936083
03,臺中市,國軍臺中總醫院附設民眾診療服務處,0536190011,臺中市太平區中山路2段348號,24.150814,120.730101,04-23934191
03,臺中市,新太平澄清醫院,1503190039,臺中市太平區中興路100號,24.127276,120.715402,04-22789900
03,臺中市,賢德醫院,1536190076,臺中市太平區宜昌路420號,24.145092,120.714087,04-22732551
03,臺中市,長安醫院,1503190020,臺中市太平區永平路一段9號,24.131143,120.71973,04-36113611
03,臺中市,李正智診所,3536190701,臺中市太平區中平里太平路232號,24.121573,120.719573,04-22784900
03,臺中市,葉祥楨耳鼻喉科診所,3536190667,臺中市太平區新福里中山路四段193號,24.147959,120.70191,04-23951946
03,臺中市,建志耳鼻喉科診所,3536192509,臺中市太平區中興路110號1樓,24.127119,120.715258,04-22766899
03,臺中市,耀仁診所,3536192456,臺中市太平區樹孝路39－7號1樓、2樓,24.15022,120.716212,04-23939815
03,臺中市,幼康小兒科診所,3536192376,臺中市太平區中山路三段139號,24.148826,120.715477,04-22738885
03,臺中市,博合耳鼻喉科診所,3503190291,臺中市太平區樹孝路478號,24.157388,120.720322,04-23929577
03,臺中市,洪士明診所,3536192401,臺中市太平區宜昌路527號,24.148009,120.715613,04-22730640
03,臺中市,榮平診所,3503190031,臺中市太平區東平路513號1、2樓,24.133485,120.718815,04-22766133
03,臺中市,水岸診所,3503190193,臺中市太平區旱溪東路二段322號,24.159953,120.705201,04-23928833
03,臺中市,黃健郎耳鼻喉科診所,3536191066,臺中市太平區樹孝路十四號,24.150531,120.716558,04-23917936
03,臺中市,文貴旺診所,3536190952,臺中市太平區太平路326號,24.123702,120.717502,04-22794321
03,臺中市,新勝診所,3536192358,臺中市太平區中平九街20號1F,24.125447,120.71853,04-22785988
03,臺中市,太平王耳鼻喉科,3536190238,臺中市太平區中興路58號,24.128191,120.716869,04-22709170
03,臺中市,臺中市大里區衛生所,2336200010,臺中市大里區大衛路82號,24.09764,120.679129,04-24061500
03,臺中市,仁愛醫療財團法人大里仁愛醫院,1136200015,臺中市大里區東榮路483號,24.109261,120.680434,04-24819900
03,臺中市,沈宗憲診所,3536202457,臺中市大里區中興路二段712號,24.117699,120.689573,04-24837655
03,臺中市,群欣診所,3536201389,臺中市大里區東榮路165號,24.110272,120.685697,04-24825651
03,臺中市,蔡政益小兒科診所,3536202537,臺中市大里區益民路二段169號,24.107372,120.684364,04-24870721
03,臺中市,黃耳鼻喉科診所,3536200882,臺中市大里區中興路二段169-1號,24.106204,120.689273,04-24830888
03,臺中市,江耳鼻喉科診所,3536201129,臺中市大里區東榮路324號,24.11041,120.684746,04-24818345
03,臺中市,祐生診所,3536200300,臺中市大里區東興里東明路231號,24.113154,120.683616,04-24814981
03,臺中市,永蘊豐禾診所,3503200407,臺中市大里區中興路二段111-2號,24.103686,120.688633,04-24830510
03,臺中市,李良小兒科診所,3536200640,臺中市大里區益民路二段119號,24.106728,120.685584,04-24810998
03,臺中市,顏安耳鼻喉科診所,3536202573,臺中市大里區益民路二段317號,24.112575,120.683742,04-24872999
03,臺中市,立人耳鼻喉科診所,3536200499,臺中市大里區益民路二段55號,24.106507,120.687484,04-24832555
03,臺中市,霧峰澄清醫院,1503200012,臺中市大里區成功路55號,24.085754,120.6994,04-24922000
03,臺中市,惠群診所,3503200381,臺中市大里區新仁路一段123之10號,24.111108,120.703414,04-22761141
03,臺中市,臺中市烏日區衛生所,2336150015,臺中市烏日區長樂街136號,24.105107,120.624388,04-23381027
03,臺中市,林新醫療社團法人烏日林新醫院,0903150014,臺中市烏日區榮和路168號,24.109828,120.598533,04-23388766
03,臺中市,全能家庭醫學科診所,3503150144,臺中市烏日區公園路240號,24.102308,120.625459,04-23362629
03,臺中市,德昌小兒科診所,3503150019,臺中市烏日區中山路一段335號,24.10855,120.641238,04-23372686
03,臺中市,臺中市霧峰區衛生所,2336180013,臺中市霧峰區民生路1-9號,24.060805,120.70074,04-23393022
03,臺中市,謝煌德小兒科診所,3536180278,臺中市霧峰區中正路988號,24.066545,120.699054,04-23314766
03,臺中市,陳炎山家庭醫學科診所,3503180053,臺中市霧峰區中正路1110號,24.069653,120.699482,04-23391100
03,臺中市,陳儀崇診所,3536180269,臺中市霧峰區萊園路6之1號,24.064294,120.699033,04-23391349
03,臺中市,本堂澄清醫院,1536181139,臺中市霧峰區中正路718號,24.053581,120.696546,04-23390000
03,臺中市,亞洲大學附屬醫院,1303180011,臺中市霧峰區福新路222號,24.053561,120.68617,04-37061668
